{
"type": "FeatureCollection",
"name": "minwon_agencies",
"crs": { "type": "name", "properties": { "name": "urn:ogc:def:crs:OGC:1.3:CRS84" } },
"features": [
{ "type": "Feature", "properties": { "type": "학교", "subtype": "초등학교", "sigungu_cd": 47770, "road_cd": 4754096, "road_address": "경상북도 영덕군 영덕읍 덕곡길 96", "name": "영덕야성초등학교", "phone": "054-732-7714" }, "geometry": { "type": "Point", "coordinates": [ 129.368507628001367, 36.413126979938347 ] } },
{ "type": "Feature", "properties": { "type": "자치단체", "subtype": "기술센터", "sigungu_cd": 47770, "road_cd": 3018013, "road_address": "경상북도 영덕군 영덕읍 경동로 8113", "name": "농업기술센터", "phone": "054-730-6483" }, "geometry": { "type": "Point", "coordinates": [ 129.357737895495859, 36.434810928101548 ] } },
{ "type": "Feature", "properties": { "type": "보건소", "subtype": "보건소", "sigungu_cd": 47770, "road_cd": 4754048, "road_address": "경상북도 영덕군 영덕읍 군청길 53", "name": "보건소", "phone": "054-730-6822" }, "geometry": { "type": "Point", "coordinates": [ 129.373557855583101, 36.413545155606592 ] } },
{ "type": "Feature", "properties": { "type": "우체국", "subtype": "우체국", "sigungu_cd": 47770, "road_cd": 4754096, "road_address": "경상북도 영덕군 영덕읍 덕곡길 90", "name": "영덕우체국", "phone": "054-730-2031" }, "geometry": { "type": "Point", "coordinates": [ 129.369792875309855, 36.412004117834094 ] } },
{ "type": "Feature", "properties": { "type": "국세", "subtype": "세무서", "sigungu_cd": 47770, "road_cd": 3318006, "road_address": "경상북도 영덕군 영덕읍 영덕로 35-11", "name": "영덕세무서", "phone": "054-730-2200" }, "geometry": { "type": "Point", "coordinates": [ 129.369216498281673, 36.398431078560222 ] } },
{ "type": "Feature", "properties": { "type": "자치단체", "subtype": "기술센터", "sigungu_cd": 47770, "road_cd": 3318002, "road_address": "경상북도 영덕군 영덕읍 강영로 476-3", "name": "영덕지소", "phone": "054-734-5450" }, "geometry": { "type": "Point", "coordinates": [ 129.377356723913977, 36.402257163584153 ] } },
{ "type": "Feature", "properties": { "type": "경찰서", "subtype": "파출소", "sigungu_cd": 47770, "road_cd": 4754311, "road_address": "경상북도 영덕군 영덕읍 중앙길 89", "name": "영덕영덕파출소", "phone": "054-734-3820" }, "geometry": { "type": "Point", "coordinates": [ 129.370232199116799, 36.410583513072936 ] } },
{ "type": "Feature", "properties": { "type": "소방", "subtype": "119안전센터", "sigungu_cd": 47770, "road_cd": 3018013, "road_address": "경상북도 영덕군 영덕읍 경동로 8401", "name": "영덕119안전센터", "phone": "054-730-1600" }, "geometry": { "type": "Point", "coordinates": [ 129.371005671028541, 36.416705599222148 ] } },
{ "type": "Feature", "properties": { "type": "학교", "subtype": "중학교", "sigungu_cd": 47770, "road_cd": 4754047, "road_address": "경상북도 영덕군 영덕읍 군청1길 13", "name": "영덕중학교", "phone": "054-732-7313" }, "geometry": { "type": "Point", "coordinates": [ 129.369527085102533, 36.415228954947928 ] } },
{ "type": "Feature", "properties": { "type": "학교", "subtype": "중학교", "sigungu_cd": 47770, "road_cd": 3318006, "road_address": "경상북도 영덕군 영덕읍 영덕로 206", "name": "영덕여자중학교", "phone": "054-732-6711" }, "geometry": { "type": "Point", "coordinates": [ 129.374551871448574, 36.413167119841148 ] } },
{ "type": "Feature", "properties": { "type": "자치단체", "subtype": "읍면동", "sigungu_cd": 47770, "road_cd": 4754273, "road_address": "경상북도 영덕군 영덕읍 우곡길 62", "name": "영덕읍사무소", "phone": "054-730-7121" }, "geometry": { "type": "Point", "coordinates": [ 129.372835644673557, 36.4096472766986 ] } },
{ "type": "Feature", "properties": { "type": "자치단체", "subtype": "기술센터", "sigungu_cd": 47770, "road_cd": 3318002, "road_address": "경상북도 영덕군 영덕읍 강영로 476-3", "name": "북부지원", "phone": "054-734-5450" }, "geometry": { "type": "Point", "coordinates": [ 129.377356723913977, 36.402257163584153 ] } },
{ "type": "Feature", "properties": { "type": "학교", "subtype": "고등학교", "sigungu_cd": 47770, "road_cd": 3318006, "road_address": "경상북도 영덕군 영덕읍 영덕로 206", "name": "영덕여자고등학교", "phone": "054-732-6716" }, "geometry": { "type": "Point", "coordinates": [ 129.374551871448574, 36.413167119841148 ] } },
{ "type": "Feature", "properties": { "type": "학교", "subtype": "고등학교", "sigungu_cd": 47770, "road_cd": 4754047, "road_address": "경상북도 영덕군 영덕읍 군청1길 13", "name": "영덕고등학교", "phone": "054-732-7314" }, "geometry": { "type": "Point", "coordinates": [ 129.369527085102533, 36.415228954947928 ] } },
{ "type": "Feature", "properties": { "type": "자치단체", "subtype": "시군구", "sigungu_cd": 47770, "road_cd": 4754048, "road_address": "경상북도 영덕군 영덕읍 군청길 116", "name": "영덕군청", "phone": "054-730-6114" }, "geometry": { "type": "Point", "coordinates": [ 129.365401226759104, 36.415033840115079 ] } },
{ "type": "Feature", "properties": { "type": "소방", "subtype": "소방서", "sigungu_cd": 47770, "road_cd": 3018013, "road_address": "경상북도 영덕군 영덕읍 경동로 8401", "name": "영덕소방서", "phone": "054-730-1500" }, "geometry": { "type": "Point", "coordinates": [ 129.371005671028541, 36.416705599222148 ] } },
{ "type": "Feature", "properties": { "type": "학교", "subtype": "중학교", "sigungu_cd": 47770, "road_cd": 4754189, "road_address": "경상북도 영덕군 강구면 신강구1길 45-5", "name": "강구중학교", "phone": "054-733-4034" }, "geometry": { "type": "Point", "coordinates": [ 129.380359101507963, 36.353610486928247 ] } },
{ "type": "Feature", "properties": { "type": "자치단체", "subtype": "읍면동", "sigungu_cd": 47770, "road_cd": 2000023, "road_address": "경상북도 영덕군 강구면 동해대로 4526", "name": "강구면사무소", "phone": "054-730-7221" }, "geometry": { "type": "Point", "coordinates": [ 129.378966745077491, 36.361840638065395 ] } },
{ "type": "Feature", "properties": { "type": "소방", "subtype": "119안전센터", "sigungu_cd": 47770, "road_cd": 3318001, "road_address": "경상북도 영덕군 강구면 강산로 38", "name": "강구119안전센터", "phone": "054-730-1610" }, "geometry": { "type": "Point", "coordinates": [ 129.374743952308336, 36.351374593155995 ] } },
{ "type": "Feature", "properties": { "type": "경찰서", "subtype": "파출소", "sigungu_cd": 47770, "road_cd": 2000023, "road_address": "경상북도 영덕군 강구면 동해대로 4482", "name": "영덕강구파출소", "phone": "054-733-4112" }, "geometry": { "type": "Point", "coordinates": [ 129.380675059761984, 36.357455239248146 ] } },
{ "type": "Feature", "properties": { "type": "학교", "subtype": "고등학교", "sigungu_cd": 47770, "road_cd": 4754189, "road_address": "경상북도 영덕군 강구면 신강구1길 45-5", "name": "강구정보고등학교", "phone": "054-733-3944" }, "geometry": { "type": "Point", "coordinates": [ 129.380359101507963, 36.353610486928247 ] } },
{ "type": "Feature", "properties": { "type": "학교", "subtype": "초등학교", "sigungu_cd": 47770, "road_cd": 4754061, "road_address": "경상북도 영덕군 강구면 나비산길 8", "name": "강구초등학교", "phone": "054-733-5422" }, "geometry": { "type": "Point", "coordinates": [ 129.37816168505924, 36.35744041228542 ] } },
{ "type": "Feature", "properties": { "type": "우체국", "subtype": "우체국", "sigungu_cd": 47770, "road_cd": 4754016, "road_address": "경상북도 영덕군 강구면 강구대게길 23", "name": "영덕강구우체국", "phone": "054-733-4001" }, "geometry": { "type": "Point", "coordinates": [ 129.383009495313161, 36.358741718056713 ] } },
{ "type": "Feature", "properties": { "type": "경찰서", "subtype": "파출소", "sigungu_cd": 47770, "road_cd": 4754323, "road_address": "경상북도 영덕군 남정면 진불길 29", "name": "영덕남정파출소", "phone": "054-732-4113" }, "geometry": { "type": "Point", "coordinates": [ 129.372404340998827, 36.284295985440295 ] } },
{ "type": "Feature", "properties": { "type": "학교", "subtype": "초등학교", "sigungu_cd": 47770, "road_cd": 4754323, "road_address": "경상북도 영덕군 남정면 진불길 15-6", "name": "남정초등학교", "phone": "054-732-5213" }, "geometry": { "type": "Point", "coordinates": [ 129.372205809643219, 36.284096084905322 ] } },
{ "type": "Feature", "properties": { "type": "자치단체", "subtype": "읍면동", "sigungu_cd": 47770, "road_cd": 4754323, "road_address": "경상북도 영덕군 남정면 진불길 43", "name": "남정면사무소", "phone": "054-730-7303" }, "geometry": { "type": "Point", "coordinates": [ 129.372377087690609, 36.285985728340286 ] } },
{ "type": "Feature", "properties": { "type": "학교", "subtype": "중학교", "sigungu_cd": 47770, "road_cd": 4754323, "road_address": "경상북도 영덕군 남정면 진불길 11-27", "name": "남정중학교", "phone": "054-732-5229" }, "geometry": { "type": "Point", "coordinates": [ 129.370212416726503, 36.283822020004514 ] } },
{ "type": "Feature", "properties": { "type": "우체국", "subtype": "우체국", "sigungu_cd": 47770, "road_cd": 3316032, "road_address": "경상북도 영덕군 달산면 팔각산로 1825", "name": "영덕달산우체국", "phone": "054-732-3502" }, "geometry": { "type": "Point", "coordinates": [ 129.303557120550607, 36.398732252238659 ] } },
{ "type": "Feature", "properties": { "type": "자치단체", "subtype": "읍면동", "sigungu_cd": 47770, "road_cd": 3316032, "road_address": "경상북도 영덕군 달산면 팔각산로 1829", "name": "달산면사무소", "phone": "054-730-7402" }, "geometry": { "type": "Point", "coordinates": [ 129.303259818678868, 36.399069800160753 ] } },
{ "type": "Feature", "properties": { "type": "학교", "subtype": "초등학교", "sigungu_cd": 47770, "road_cd": 3318009, "road_address": "경상북도 영덕군 지품면 지영로 7-4", "name": "지품초등학교", "phone": "054-732-3014" }, "geometry": { "type": "Point", "coordinates": [ 129.281371115394904, 36.450289225370106 ] } },
{ "type": "Feature", "properties": { "type": "자치단체", "subtype": "읍면동", "sigungu_cd": 47770, "road_cd": 3018013, "road_address": "경상북도 영덕군 지품면 경동로 7153", "name": "지품면사무소", "phone": "054-730-7502" }, "geometry": { "type": "Point", "coordinates": [ 129.282059236472378, 36.448343270719064 ] } },
{ "type": "Feature", "properties": { "type": "학교", "subtype": "중학교", "sigungu_cd": 47770, "road_cd": 4754205, "road_address": "경상북도 영덕군 지품면 신안1길 33", "name": "지품중학교", "phone": "054-732-3078" }, "geometry": { "type": "Point", "coordinates": [ 129.283435945215473, 36.450433991685948 ] } },
{ "type": "Feature", "properties": { "type": "우체국", "subtype": "우체국", "sigungu_cd": 47770, "road_cd": 3018013, "road_address": "경상북도 영덕군 지품면 경동로 7159", "name": "영덕지품우체국", "phone": "054-732-3004" }, "geometry": { "type": "Point", "coordinates": [ 129.282265761930091, 36.447641978660123 ] } },
{ "type": "Feature", "properties": { "type": "학교", "subtype": "초등학교", "sigungu_cd": 47770, "road_cd": 4754345, "road_address": "경상북도 영덕군 축산면 축산항초교길 2", "name": "축산항초등학교", "phone": "054-732-4031" }, "geometry": { "type": "Point", "coordinates": [ 129.442310081314332, 36.509826485059179 ] } },
{ "type": "Feature", "properties": { "type": "자치단체", "subtype": "읍면동", "sigungu_cd": 47770, "road_cd": 4754104, "road_address": "경상북도 영덕군 축산면 도곡길 67", "name": "축산면사무소", "phone": "054-730-7602" }, "geometry": { "type": "Point", "coordinates": [ 129.414289434757393, 36.508938367663056 ] } },
{ "type": "Feature", "properties": { "type": "경찰서", "subtype": "파출소", "sigungu_cd": 47770, "road_cd": 3318005, "road_address": "경상북도 영덕군 축산면 영덕대게로 2049", "name": "영덕축산파출소", "phone": "054-732-5112" }, "geometry": { "type": "Point", "coordinates": [ 129.441939831716127, 36.505400675105925 ] } },
{ "type": "Feature", "properties": { "type": "우체국", "subtype": "우체국", "sigungu_cd": 47770, "road_cd": 3318005, "road_address": "경상북도 영덕군 축산면 영덕대게로 2084", "name": "영덕축산우체국", "phone": "054-732-4003" }, "geometry": { "type": "Point", "coordinates": [ 129.443786094470397, 36.507536071205344 ] } },
{ "type": "Feature", "properties": { "type": "학교", "subtype": "중학교", "sigungu_cd": 47770, "road_cd": 4754103, "road_address": "경상북도 영덕군 축산면 도곡1길 54", "name": "축산중학교", "phone": "054-732-4122" }, "geometry": { "type": "Point", "coordinates": [ 129.406379670183668, 36.513514268576721 ] } },
{ "type": "Feature", "properties": { "type": "자치단체", "subtype": "읍면동", "sigungu_cd": 47770, "road_cd": 4754234, "road_address": "경상북도 영덕군 영해면 예주3길 7", "name": "영해면사무소", "phone": "054-730-7721" }, "geometry": { "type": "Point", "coordinates": [ 129.406788978082119, 36.537408581206186 ] } },
{ "type": "Feature", "properties": { "type": "경찰서", "subtype": "파출소", "sigungu_cd": 47770, "road_cd": 4754233, "road_address": "경상북도 영덕군 영해면 예주2길 9", "name": "영덕영해파출소", "phone": "054-732-1112" }, "geometry": { "type": "Point", "coordinates": [ 129.40764765827754, 36.536876085980971 ] } },
{ "type": "Feature", "properties": { "type": "우체국", "subtype": "우체국", "sigungu_cd": 47770, "road_cd": 4754245, "road_address": "경상북도 영덕군 영해면 예주시장3길 7", "name": "영덕영해우체국", "phone": "054-730-0001" }, "geometry": { "type": "Point", "coordinates": [ 129.406176275461377, 36.540071594286125 ] } },
{ "type": "Feature", "properties": { "type": "학교", "subtype": "중학교", "sigungu_cd": 47770, "road_cd": 4754241, "road_address": "경상북도 영덕군 영해면 예주길 135", "name": "영해중학교", "phone": "054-733-5911" }, "geometry": { "type": "Point", "coordinates": [ 129.413225260753279, 36.542337451334049 ] } },
{ "type": "Feature", "properties": { "type": "학교", "subtype": "초등학교", "sigungu_cd": 47770, "road_cd": 4754236, "road_address": "경상북도 영덕군 영해면 예주5길 22", "name": "영해초등학교", "phone": "054-732-0027" }, "geometry": { "type": "Point", "coordinates": [ 129.411845986110535, 36.538865450424979 ] } },
{ "type": "Feature", "properties": { "type": "학교", "subtype": "고등학교", "sigungu_cd": 47770, "road_cd": 4754241, "road_address": "경상북도 영덕군 영해면 예주길 135", "name": "영해고등학교", "phone": "054-732-0045" }, "geometry": { "type": "Point", "coordinates": [ 129.413225260753279, 36.542337451334049 ] } },
{ "type": "Feature", "properties": { "type": "소방", "subtype": "119안전센터", "sigungu_cd": 47770, "road_cd": 3318010, "road_address": "경상북도 영덕군 영해면 창수영해로 481", "name": "영해119안전센터", "phone": "054-730-1620" }, "geometry": { "type": "Point", "coordinates": [ 129.39574446810829, 36.54239293809205 ] } },
{ "type": "Feature", "properties": { "type": "경찰서", "subtype": "파출소", "sigungu_cd": 47770, "road_cd": 4754141, "road_address": "경상북도 영덕군 병곡면 병곡길 62", "name": "영덕병곡파출소", "phone": "054-732-2112" }, "geometry": { "type": "Point", "coordinates": [ 129.410913642353222, 36.601407989297115 ] } },
{ "type": "Feature", "properties": { "type": "우체국", "subtype": "우체국", "sigungu_cd": 47770, "road_cd": 4754141, "road_address": "경상북도 영덕군 병곡면 병곡길 40", "name": "영덕병곡우체국", "phone": "054-732-2002" }, "geometry": { "type": "Point", "coordinates": [ 129.411428045572762, 36.60261923746868 ] } },
{ "type": "Feature", "properties": { "type": "학교", "subtype": "초등학교", "sigungu_cd": 47770, "road_cd": 4754288, "road_address": "경상북도 영덕군 병곡면 원황길 64", "name": "원황초등학교", "phone": "054-732-2711" }, "geometry": { "type": "Point", "coordinates": [ 129.393399837734819, 36.569320959027536 ] } },
{ "type": "Feature", "properties": { "type": "자치단체", "subtype": "읍면동", "sigungu_cd": 47770, "road_cd": 4754141, "road_address": "경상북도 영덕군 병곡면 병곡길 72", "name": "병곡면사무소", "phone": "054-730-7802" }, "geometry": { "type": "Point", "coordinates": [ 129.410681210442618, 36.602312890441581 ] } },
{ "type": "Feature", "properties": { "type": "학교", "subtype": "초등학교", "sigungu_cd": 47770, "road_cd": 4754494, "road_address": "경상북도 영덕군 병곡면 영길 103-10", "name": "병곡초등학교", "phone": "054-732-2006" }, "geometry": { "type": "Point", "coordinates": [ 129.409175125328801, 36.601855696079213 ] } },
{ "type": "Feature", "properties": { "type": "학교", "subtype": "중학교", "sigungu_cd": 47770, "road_cd": 4754141, "road_address": "경상북도 영덕군 병곡면 병곡길 24-7", "name": "병곡중학교", "phone": "054-732-2661" }, "geometry": { "type": "Point", "coordinates": [ 129.411274027583062, 36.604342734289489 ] } },
{ "type": "Feature", "properties": { "type": "우체국", "subtype": "우체국", "sigungu_cd": 47770, "road_cd": 3318010, "road_address": "경상북도 영덕군 창수면 창수영해로 21", "name": "영덕창수우체국", "phone": "054-732-6002" }, "geometry": { "type": "Point", "coordinates": [ 129.348709512089357, 36.545459110365528 ] } },
{ "type": "Feature", "properties": { "type": "자치단체", "subtype": "읍면동", "sigungu_cd": 47770, "road_cd": 4754199, "road_address": "경상북도 영덕군 창수면 신기길 5", "name": "창수면사무소", "phone": "054-730-7902" }, "geometry": { "type": "Point", "coordinates": [ 129.348351280928654, 36.546456165773307 ] } },
{ "type": "Feature", "properties": { "type": "학교", "subtype": "초등학교", "sigungu_cd": 47770, "road_cd": 3318008, "road_address": "경상북도 영덕군 창수면 오서로 1370", "name": "창수초등학교인천분교장", "phone": "054-732-6079" }, "geometry": { "type": "Point", "coordinates": [ 129.294746810382776, 36.633730968073209 ] } },
{ "type": "Feature", "properties": { "type": "학교", "subtype": "초등학교", "sigungu_cd": 47770, "road_cd": 3317024, "road_address": "경상북도 영덕군 창수면 영양창수로 3184", "name": "창수초등학교", "phone": "054-733-6015" }, "geometry": { "type": "Point", "coordinates": [ 129.343250725315414, 36.544970477767748 ] } }
]
}
