{
"type": "FeatureCollection",
"name": "samul_coolingcen_point",
"crs": { "type": "name", "properties": { "name": "urn:ogc:def:crs:OGC:1.3:CRS84" } },
"features": [
{ "type": "Feature", "properties": { "OBJ_MNG_NO": "OBJ194777000000007", "PNT_SP_NO": 356919.0, "OBJ_KND_CD": "OBJ19", "OBJ_COM_DF": "OBJ1901", "PNT_SE": "04", "MAIN_ENTSE": "RM", "ENT_TY": null, "LMTT_HG": 0.0, "MVMN_DE": null, "JOB_SE_CD": null, "layer_ko": "무더위쉼터", "layer_en": "cooling centre" }, "geometry": { "type": "Point", "coordinates": [ 129.329231455342722, 36.401804629496844 ] } },
{ "type": "Feature", "properties": { "OBJ_MNG_NO": "OBJ194777000000006", "PNT_SP_NO": 356918.0, "OBJ_KND_CD": "OBJ19", "OBJ_COM_DF": "OBJ1901", "PNT_SE": "04", "MAIN_ENTSE": "RM", "ENT_TY": null, "LMTT_HG": 0.0, "MVMN_DE": null, "JOB_SE_CD": null, "layer_ko": "무더위쉼터", "layer_en": "cooling centre" }, "geometry": { "type": "Point", "coordinates": [ 129.351476488093425, 36.385336423265343 ] } },
{ "type": "Feature", "properties": { "OBJ_MNG_NO": "OBJ194777000000009", "PNT_SP_NO": 356921.0, "OBJ_KND_CD": "OBJ19", "OBJ_COM_DF": "OBJ1901", "PNT_SE": "04", "MAIN_ENTSE": "RM", "ENT_TY": null, "LMTT_HG": 0.0, "MVMN_DE": null, "JOB_SE_CD": null, "layer_ko": "무더위쉼터", "layer_en": "cooling centre" }, "geometry": { "type": "Point", "coordinates": [ 129.364790201187247, 36.379603148532325 ] } },
{ "type": "Feature", "properties": { "OBJ_MNG_NO": "OBJ194777000000001", "PNT_SP_NO": 356913.0, "OBJ_KND_CD": "OBJ19", "OBJ_COM_DF": "OBJ1901", "PNT_SE": "04", "MAIN_ENTSE": "RM", "ENT_TY": null, "LMTT_HG": 0.0, "MVMN_DE": null, "JOB_SE_CD": null, "layer_ko": "무더위쉼터", "layer_en": "cooling centre" }, "geometry": { "type": "Point", "coordinates": [ 129.352838765455772, 36.459858454409506 ] } },
{ "type": "Feature", "properties": { "OBJ_MNG_NO": "OBJ194777000000016", "PNT_SP_NO": 356928.0, "OBJ_KND_CD": "OBJ19", "OBJ_COM_DF": "OBJ1901", "PNT_SE": "04", "MAIN_ENTSE": "RM", "ENT_TY": null, "LMTT_HG": 0.0, "MVMN_DE": null, "JOB_SE_CD": null, "layer_ko": "무더위쉼터", "layer_en": "cooling centre" }, "geometry": { "type": "Point", "coordinates": [ 129.351615663097363, 36.274751628497881 ] } },
{ "type": "Feature", "properties": { "OBJ_MNG_NO": "OBJ194777000000014", "PNT_SP_NO": 356926.0, "OBJ_KND_CD": "OBJ19", "OBJ_COM_DF": "OBJ1901", "PNT_SE": "04", "MAIN_ENTSE": "RM", "ENT_TY": null, "LMTT_HG": 0.0, "MVMN_DE": null, "JOB_SE_CD": null, "layer_ko": "무더위쉼터", "layer_en": "cooling centre" }, "geometry": { "type": "Point", "coordinates": [ 129.385385316739843, 36.366921660530565 ] } },
{ "type": "Feature", "properties": { "OBJ_MNG_NO": "OBJ194777000000017", "PNT_SP_NO": 356929.0, "OBJ_KND_CD": "OBJ19", "OBJ_COM_DF": "OBJ1901", "PNT_SE": "04", "MAIN_ENTSE": "RM", "ENT_TY": null, "LMTT_HG": 0.0, "MVMN_DE": null, "JOB_SE_CD": null, "layer_ko": "무더위쉼터", "layer_en": "cooling centre" }, "geometry": { "type": "Point", "coordinates": [ 129.339228798765419, 36.275268527852504 ] } },
{ "type": "Feature", "properties": { "OBJ_MNG_NO": "OBJ194777000000013", "PNT_SP_NO": 356925.0, "OBJ_KND_CD": "OBJ19", "OBJ_COM_DF": "OBJ1901", "PNT_SE": "04", "MAIN_ENTSE": "RM", "ENT_TY": null, "LMTT_HG": 0.0, "MVMN_DE": null, "JOB_SE_CD": null, "layer_ko": "무더위쉼터", "layer_en": "cooling centre" }, "geometry": { "type": "Point", "coordinates": [ 129.402103320954694, 36.377267916462529 ] } },
{ "type": "Feature", "properties": { "OBJ_MNG_NO": "OBJ194777000000002", "PNT_SP_NO": 356914.0, "OBJ_KND_CD": "OBJ19", "OBJ_COM_DF": "OBJ1901", "PNT_SE": "04", "MAIN_ENTSE": "RM", "ENT_TY": null, "LMTT_HG": 0.0, "MVMN_DE": null, "JOB_SE_CD": null, "layer_ko": "무더위쉼터", "layer_en": "cooling centre" }, "geometry": { "type": "Point", "coordinates": [ 129.379326664266785, 36.355742053176741 ] } },
{ "type": "Feature", "properties": { "OBJ_MNG_NO": "OBJ194777000000010", "PNT_SP_NO": 356922.0, "OBJ_KND_CD": "OBJ19", "OBJ_COM_DF": "OBJ1901", "PNT_SE": "04", "MAIN_ENTSE": "RM", "ENT_TY": null, "LMTT_HG": 0.0, "MVMN_DE": null, "JOB_SE_CD": null, "layer_ko": "무더위쉼터", "layer_en": "cooling centre" }, "geometry": { "type": "Point", "coordinates": [ 129.387107549686846, 36.373629482883949 ] } },
{ "type": "Feature", "properties": { "OBJ_MNG_NO": "OBJ194777000000004", "PNT_SP_NO": 356916.0, "OBJ_KND_CD": "OBJ19", "OBJ_COM_DF": "OBJ1901", "PNT_SE": "04", "MAIN_ENTSE": "RM", "ENT_TY": null, "LMTT_HG": 0.0, "MVMN_DE": null, "JOB_SE_CD": null, "layer_ko": "무더위쉼터", "layer_en": "cooling centre" }, "geometry": { "type": "Point", "coordinates": [ 129.357106632356079, 36.362467953177628 ] } },
{ "type": "Feature", "properties": { "OBJ_MNG_NO": "OBJ194777000000015", "PNT_SP_NO": 356927.0, "OBJ_KND_CD": "OBJ19", "OBJ_COM_DF": "OBJ1901", "PNT_SE": "04", "MAIN_ENTSE": "RM", "ENT_TY": null, "LMTT_HG": 0.0, "MVMN_DE": null, "JOB_SE_CD": null, "layer_ko": "무더위쉼터", "layer_en": "cooling centre" }, "geometry": { "type": "Point", "coordinates": [ 129.373392098379639, 36.285695656745879 ] } },
{ "type": "Feature", "properties": { "OBJ_MNG_NO": "OBJ194777000000003", "PNT_SP_NO": 356915.0, "OBJ_KND_CD": "OBJ19", "OBJ_COM_DF": "OBJ1901", "PNT_SE": "04", "MAIN_ENTSE": "RM", "ENT_TY": null, "LMTT_HG": 0.0, "MVMN_DE": null, "JOB_SE_CD": null, "layer_ko": "무더위쉼터", "layer_en": "cooling centre" }, "geometry": { "type": "Point", "coordinates": [ 129.365804881776199, 36.35854571223809 ] } },
{ "type": "Feature", "properties": { "OBJ_MNG_NO": "OBJ194777000000008", "PNT_SP_NO": 356920.0, "OBJ_KND_CD": "OBJ19", "OBJ_COM_DF": "OBJ1901", "PNT_SE": "04", "MAIN_ENTSE": "RM", "ENT_TY": null, "LMTT_HG": 0.0, "MVMN_DE": null, "JOB_SE_CD": null, "layer_ko": "무더위쉼터", "layer_en": "cooling centre" }, "geometry": { "type": "Point", "coordinates": [ 129.368748961395738, 36.376305007649933 ] } },
{ "type": "Feature", "properties": { "OBJ_MNG_NO": "OBJ194777000000012", "PNT_SP_NO": 356924.0, "OBJ_KND_CD": "OBJ19", "OBJ_COM_DF": "OBJ1901", "PNT_SE": "04", "MAIN_ENTSE": "RM", "ENT_TY": null, "LMTT_HG": 0.0, "MVMN_DE": null, "JOB_SE_CD": null, "layer_ko": "무더위쉼터", "layer_en": "cooling centre" }, "geometry": { "type": "Point", "coordinates": [ 129.406737739741715, 36.390126694127837 ] } },
{ "type": "Feature", "properties": { "OBJ_MNG_NO": "OBJ194777000000011", "PNT_SP_NO": 356923.0, "OBJ_KND_CD": "OBJ19", "OBJ_COM_DF": "OBJ1901", "PNT_SE": "04", "MAIN_ENTSE": "RM", "ENT_TY": null, "LMTT_HG": 0.0, "MVMN_DE": null, "JOB_SE_CD": null, "layer_ko": "무더위쉼터", "layer_en": "cooling centre" }, "geometry": { "type": "Point", "coordinates": [ 129.382658939622303, 36.387903178902363 ] } },
{ "type": "Feature", "properties": { "OBJ_MNG_NO": "OBJ194777000000005", "PNT_SP_NO": 356917.0, "OBJ_KND_CD": "OBJ19", "OBJ_COM_DF": "OBJ1901", "PNT_SE": "04", "MAIN_ENTSE": "RM", "ENT_TY": null, "LMTT_HG": 0.0, "MVMN_DE": null, "JOB_SE_CD": null, "layer_ko": "무더위쉼터", "layer_en": "cooling centre" }, "geometry": { "type": "Point", "coordinates": [ 129.354140557545975, 36.383505570421072 ] } }
]
}
