{
"type": "FeatureCollection",
"name": "samul_eqout_point",
"crs": { "type": "name", "properties": { "name": "urn:ogc:def:crs:OGC:1.3:CRS84" } },
"features": [
{ "type": "Feature", "properties": { "OBJ_MNG_NO": "OBJ024777000000002", "PNT_SP_NO": 20356.0, "OBJ_KND_CD": "OBJ02", "OBJ_COM_DF": "OBJ0203", "PNT_SE": "03", "MAIN_ENTSE": "RM", "ENT_TY": "01", "LMTT_HG": 0.0, "MVMN_DE": null, "JOB_SE_CD": null, "layer_ko": "지진옥외대피장소", "layer_en": "earthquake outdoor evacuation site" }, "geometry": { "type": "Point", "coordinates": [ 129.380102009369892, 36.356615477092802 ] } },
{ "type": "Feature", "properties": { "OBJ_MNG_NO": "OBJ024777000000004", "PNT_SP_NO": 20359.0, "OBJ_KND_CD": "OBJ02", "OBJ_COM_DF": "OBJ0203", "PNT_SE": "03", "MAIN_ENTSE": "RM", "ENT_TY": "01", "LMTT_HG": 0.0, "MVMN_DE": null, "JOB_SE_CD": null, "layer_ko": "지진옥외대피장소", "layer_en": "earthquake outdoor evacuation site" }, "geometry": { "type": "Point", "coordinates": [ 129.404907166296994, 36.389331726708569 ] } },
{ "type": "Feature", "properties": { "OBJ_MNG_NO": "OBJ024777000000005", "PNT_SP_NO": 20361.0, "OBJ_KND_CD": "OBJ02", "OBJ_COM_DF": "OBJ0203", "PNT_SE": "03", "MAIN_ENTSE": "RM", "ENT_TY": "01", "LMTT_HG": 0.0, "MVMN_DE": null, "JOB_SE_CD": null, "layer_ko": "지진옥외대피장소", "layer_en": "earthquake outdoor evacuation site" }, "geometry": { "type": "Point", "coordinates": [ 129.412963773638495, 36.606524581195636 ] } },
{ "type": "Feature", "properties": { "OBJ_MNG_NO": "OBJ024777000000006", "PNT_SP_NO": 20364.0, "OBJ_KND_CD": "OBJ02", "OBJ_COM_DF": "OBJ0203", "PNT_SE": "03", "MAIN_ENTSE": "RM", "ENT_TY": "01", "LMTT_HG": 0.0, "MVMN_DE": null, "JOB_SE_CD": null, "layer_ko": "지진옥외대피장소", "layer_en": "earthquake outdoor evacuation site" }, "geometry": { "type": "Point", "coordinates": [ 129.41644317794848, 36.569035735422382 ] } },
{ "type": "Feature", "properties": { "OBJ_MNG_NO": "OBJ024777000000008", "PNT_SP_NO": 20368.0, "OBJ_KND_CD": "OBJ02", "OBJ_COM_DF": "OBJ0203", "PNT_SE": "03", "MAIN_ENTSE": "RM", "ENT_TY": "03", "LMTT_HG": 0.0, "MVMN_DE": null, "JOB_SE_CD": null, "layer_ko": "지진옥외대피장소", "layer_en": "earthquake outdoor evacuation site" }, "geometry": { "type": "Point", "coordinates": [ 129.42146015666799, 36.643485990609499 ] } },
{ "type": "Feature", "properties": { "OBJ_MNG_NO": "OBJ024777000000009", "PNT_SP_NO": 20369.0, "OBJ_KND_CD": "OBJ02", "OBJ_COM_DF": "OBJ0203", "PNT_SE": "03", "MAIN_ENTSE": "RM", "ENT_TY": "01", "LMTT_HG": 0.0, "MVMN_DE": null, "JOB_SE_CD": null, "layer_ko": "지진옥외대피장소", "layer_en": "earthquake outdoor evacuation site" }, "geometry": { "type": "Point", "coordinates": [ 129.35839678042538, 36.434167965831072 ] } },
{ "type": "Feature", "properties": { "OBJ_MNG_NO": "OBJ024777000000010", "PNT_SP_NO": 20370.0, "OBJ_KND_CD": "OBJ02", "OBJ_COM_DF": "OBJ0203", "PNT_SE": "03", "MAIN_ENTSE": "RM", "ENT_TY": "01", "LMTT_HG": 0.0, "MVMN_DE": null, "JOB_SE_CD": null, "layer_ko": "지진옥외대피장소", "layer_en": "earthquake outdoor evacuation site" }, "geometry": { "type": "Point", "coordinates": [ 129.364201552991915, 36.41942065790483 ] } },
{ "type": "Feature", "properties": { "OBJ_MNG_NO": "OBJ024777000000011", "PNT_SP_NO": 20374.0, "OBJ_KND_CD": "OBJ02", "OBJ_COM_DF": "OBJ0203", "PNT_SE": "03", "MAIN_ENTSE": "RM", "ENT_TY": "01", "LMTT_HG": 0.0, "MVMN_DE": null, "JOB_SE_CD": null, "layer_ko": "지진옥외대피장소", "layer_en": "earthquake outdoor evacuation site" }, "geometry": { "type": "Point", "coordinates": [ 129.368588570778229, 36.407385992261609 ] } },
{ "type": "Feature", "properties": { "OBJ_MNG_NO": "OBJ024777000000012", "PNT_SP_NO": 20375.0, "OBJ_KND_CD": "OBJ02", "OBJ_COM_DF": "OBJ0203", "PNT_SE": "03", "MAIN_ENTSE": "RM", "ENT_TY": "01", "LMTT_HG": 0.0, "MVMN_DE": null, "JOB_SE_CD": null, "layer_ko": "지진옥외대피장소", "layer_en": "earthquake outdoor evacuation site" }, "geometry": { "type": "Point", "coordinates": [ 129.374492266875535, 36.413138283430683 ] } },
{ "type": "Feature", "properties": { "OBJ_MNG_NO": "OBJ024777000000012", "PNT_SP_NO": 20376.0, "OBJ_KND_CD": "OBJ02", "OBJ_COM_DF": "OBJ0203", "PNT_SE": "03", "MAIN_ENTSE": "RS", "ENT_TY": "01", "LMTT_HG": 0.0, "MVMN_DE": null, "JOB_SE_CD": null, "layer_ko": "지진옥외대피장소", "layer_en": "earthquake outdoor evacuation site" }, "geometry": { "type": "Point", "coordinates": [ 129.375637107237679, 36.412648689310714 ] } },
{ "type": "Feature", "properties": { "OBJ_MNG_NO": "OBJ024777000000013", "PNT_SP_NO": 20377.0, "OBJ_KND_CD": "OBJ02", "OBJ_COM_DF": "OBJ0203", "PNT_SE": "03", "MAIN_ENTSE": "RM", "ENT_TY": "01", "LMTT_HG": 0.0, "MVMN_DE": null, "JOB_SE_CD": null, "layer_ko": "지진옥외대피장소", "layer_en": "earthquake outdoor evacuation site" }, "geometry": { "type": "Point", "coordinates": [ 129.363548640907084, 36.393437920038728 ] } },
{ "type": "Feature", "properties": { "OBJ_MNG_NO": "OBJ024777000000014", "PNT_SP_NO": 20380.0, "OBJ_KND_CD": "OBJ02", "OBJ_COM_DF": "OBJ0203", "PNT_SE": "03", "MAIN_ENTSE": "RM", "ENT_TY": "02", "LMTT_HG": 0.0, "MVMN_DE": null, "JOB_SE_CD": null, "layer_ko": "지진옥외대피장소", "layer_en": "earthquake outdoor evacuation site" }, "geometry": { "type": "Point", "coordinates": [ 129.373934208685114, 36.405201599814951 ] } },
{ "type": "Feature", "properties": { "OBJ_MNG_NO": "OBJ024777000000016", "PNT_SP_NO": 20383.0, "OBJ_KND_CD": "OBJ02", "OBJ_COM_DF": "OBJ0203", "PNT_SE": "03", "MAIN_ENTSE": "RM", "ENT_TY": "02", "LMTT_HG": 0.0, "MVMN_DE": null, "JOB_SE_CD": null, "layer_ko": "지진옥외대피장소", "layer_en": "earthquake outdoor evacuation site" }, "geometry": { "type": "Point", "coordinates": [ 129.40174279501349, 36.429038400505014 ] } },
{ "type": "Feature", "properties": { "OBJ_MNG_NO": "OBJ024777000000017", "PNT_SP_NO": 20385.0, "OBJ_KND_CD": "OBJ02", "OBJ_COM_DF": "OBJ0203", "PNT_SE": "03", "MAIN_ENTSE": "RM", "ENT_TY": "01", "LMTT_HG": 0.0, "MVMN_DE": null, "JOB_SE_CD": null, "layer_ko": "지진옥외대피장소", "layer_en": "earthquake outdoor evacuation site" }, "geometry": { "type": "Point", "coordinates": [ 129.422028970465249, 36.444930829811589 ] } },
{ "type": "Feature", "properties": { "OBJ_MNG_NO": "OBJ024777000000017", "PNT_SP_NO": 20386.0, "OBJ_KND_CD": "OBJ02", "OBJ_COM_DF": "OBJ0203", "PNT_SE": "03", "MAIN_ENTSE": "RS", "ENT_TY": "01", "LMTT_HG": 0.0, "MVMN_DE": null, "JOB_SE_CD": null, "layer_ko": "지진옥외대피장소", "layer_en": "earthquake outdoor evacuation site" }, "geometry": { "type": "Point", "coordinates": [ 129.421638491710468, 36.44595106533226 ] } },
{ "type": "Feature", "properties": { "OBJ_MNG_NO": "OBJ024777000000018", "PNT_SP_NO": 20387.0, "OBJ_KND_CD": "OBJ02", "OBJ_COM_DF": "OBJ0203", "PNT_SE": "03", "MAIN_ENTSE": "RM", "ENT_TY": "01", "LMTT_HG": 0.0, "MVMN_DE": null, "JOB_SE_CD": null, "layer_ko": "지진옥외대피장소", "layer_en": "earthquake outdoor evacuation site" }, "geometry": { "type": "Point", "coordinates": [ 129.381645396729368, 36.46312419132974 ] } },
{ "type": "Feature", "properties": { "OBJ_MNG_NO": "OBJ024777000000019", "PNT_SP_NO": 20388.0, "OBJ_KND_CD": "OBJ02", "OBJ_COM_DF": "OBJ0203", "PNT_SE": "03", "MAIN_ENTSE": "RM", "ENT_TY": "01", "LMTT_HG": 0.0, "MVMN_DE": null, "JOB_SE_CD": null, "layer_ko": "지진옥외대피장소", "layer_en": "earthquake outdoor evacuation site" }, "geometry": { "type": "Point", "coordinates": [ 129.402975761254652, 36.379605416397609 ] } },
{ "type": "Feature", "properties": { "OBJ_MNG_NO": "OBJ024777000000020", "PNT_SP_NO": 20389.0, "OBJ_KND_CD": "OBJ02", "OBJ_COM_DF": "OBJ0203", "PNT_SE": "03", "MAIN_ENTSE": "RM", "ENT_TY": "01", "LMTT_HG": 0.0, "MVMN_DE": null, "JOB_SE_CD": null, "layer_ko": "지진옥외대피장소", "layer_en": "earthquake outdoor evacuation site" }, "geometry": { "type": "Point", "coordinates": [ 129.374424704514098, 36.361560737793305 ] } },
{ "type": "Feature", "properties": { "OBJ_MNG_NO": "OBJ024777000000021", "PNT_SP_NO": 20390.0, "OBJ_KND_CD": "OBJ02", "OBJ_COM_DF": "OBJ0203", "PNT_SE": "03", "MAIN_ENTSE": "RM", "ENT_TY": "01", "LMTT_HG": 0.0, "MVMN_DE": null, "JOB_SE_CD": null, "layer_ko": "지진옥외대피장소", "layer_en": "earthquake outdoor evacuation site" }, "geometry": { "type": "Point", "coordinates": [ 129.37254521812477, 36.283431979772111 ] } },
{ "type": "Feature", "properties": { "OBJ_MNG_NO": "OBJ024777000000022", "PNT_SP_NO": 20392.0, "OBJ_KND_CD": "OBJ02", "OBJ_COM_DF": "OBJ0203", "PNT_SE": "03", "MAIN_ENTSE": "RM", "ENT_TY": "02", "LMTT_HG": 0.0, "MVMN_DE": null, "JOB_SE_CD": null, "layer_ko": "지진옥외대피장소", "layer_en": "earthquake outdoor evacuation site" }, "geometry": { "type": "Point", "coordinates": [ 129.361553343261932, 36.346563465389153 ] } },
{ "type": "Feature", "properties": { "OBJ_MNG_NO": "OBJ024777000000023", "PNT_SP_NO": 20394.0, "OBJ_KND_CD": "OBJ02", "OBJ_COM_DF": "OBJ0203", "PNT_SE": "03", "MAIN_ENTSE": "RM", "ENT_TY": "01", "LMTT_HG": 0.0, "MVMN_DE": null, "JOB_SE_CD": null, "layer_ko": "지진옥외대피장소", "layer_en": "earthquake outdoor evacuation site" }, "geometry": { "type": "Point", "coordinates": [ 129.354079033563522, 36.306931317282491 ] } },
{ "type": "Feature", "properties": { "OBJ_MNG_NO": "OBJ024777000000024", "PNT_SP_NO": 20395.0, "OBJ_KND_CD": "OBJ02", "OBJ_COM_DF": "OBJ0203", "PNT_SE": "03", "MAIN_ENTSE": "RM", "ENT_TY": "04", "LMTT_HG": 0.0, "MVMN_DE": null, "JOB_SE_CD": null, "layer_ko": "지진옥외대피장소", "layer_en": "earthquake outdoor evacuation site" }, "geometry": { "type": "Point", "coordinates": [ 129.373760157285005, 36.289552460613727 ] } },
{ "type": "Feature", "properties": { "OBJ_MNG_NO": "OBJ024777000000025", "PNT_SP_NO": 20396.0, "OBJ_KND_CD": "OBJ02", "OBJ_COM_DF": "OBJ0203", "PNT_SE": "03", "MAIN_ENTSE": "RM", "ENT_TY": "03", "LMTT_HG": 0.0, "MVMN_DE": null, "JOB_SE_CD": null, "layer_ko": "지진옥외대피장소", "layer_en": "earthquake outdoor evacuation site" }, "geometry": { "type": "Point", "coordinates": [ 129.356293766079659, 36.332123630520137 ] } },
{ "type": "Feature", "properties": { "OBJ_MNG_NO": "OBJ024777000000026", "PNT_SP_NO": 20398.0, "OBJ_KND_CD": "OBJ02", "OBJ_COM_DF": "OBJ0203", "PNT_SE": "03", "MAIN_ENTSE": "RM", "ENT_TY": "01", "LMTT_HG": 0.0, "MVMN_DE": null, "JOB_SE_CD": null, "layer_ko": "지진옥외대피장소", "layer_en": "earthquake outdoor evacuation site" }, "geometry": { "type": "Point", "coordinates": [ 129.329595170418685, 36.324049325288783 ] } },
{ "type": "Feature", "properties": { "OBJ_MNG_NO": "OBJ024777000000028", "PNT_SP_NO": 20403.0, "OBJ_KND_CD": "OBJ02", "OBJ_COM_DF": "OBJ0203", "PNT_SE": "03", "MAIN_ENTSE": "RM", "ENT_TY": "01", "LMTT_HG": 0.0, "MVMN_DE": null, "JOB_SE_CD": null, "layer_ko": "지진옥외대피장소", "layer_en": "earthquake outdoor evacuation site" }, "geometry": { "type": "Point", "coordinates": [ 129.32498123327386, 36.304500861828991 ] } },
{ "type": "Feature", "properties": { "OBJ_MNG_NO": "OBJ024777000000029", "PNT_SP_NO": 20404.0, "OBJ_KND_CD": "OBJ02", "OBJ_COM_DF": "OBJ0203", "PNT_SE": "03", "MAIN_ENTSE": "RM", "ENT_TY": "01", "LMTT_HG": 0.0, "MVMN_DE": null, "JOB_SE_CD": null, "layer_ko": "지진옥외대피장소", "layer_en": "earthquake outdoor evacuation site" }, "geometry": { "type": "Point", "coordinates": [ 129.30320293388823, 36.399670527450596 ] } },
{ "type": "Feature", "properties": { "OBJ_MNG_NO": "OBJ024777000000030", "PNT_SP_NO": 20405.0, "OBJ_KND_CD": "OBJ02", "OBJ_COM_DF": "OBJ0203", "PNT_SE": "03", "MAIN_ENTSE": "RM", "ENT_TY": "01", "LMTT_HG": 0.0, "MVMN_DE": null, "JOB_SE_CD": null, "layer_ko": "지진옥외대피장소", "layer_en": "earthquake outdoor evacuation site" }, "geometry": { "type": "Point", "coordinates": [ 129.289345716427363, 36.389849803730947 ] } },
{ "type": "Feature", "properties": { "OBJ_MNG_NO": "OBJ024777000000031", "PNT_SP_NO": 20406.0, "OBJ_KND_CD": "OBJ02", "OBJ_COM_DF": "OBJ0203", "PNT_SE": "03", "MAIN_ENTSE": "RM", "ENT_TY": "01", "LMTT_HG": 0.0, "MVMN_DE": null, "JOB_SE_CD": null, "layer_ko": "지진옥외대피장소", "layer_en": "earthquake outdoor evacuation site" }, "geometry": { "type": "Point", "coordinates": [ 129.302854192882876, 36.37457623276174 ] } },
{ "type": "Feature", "properties": { "OBJ_MNG_NO": "OBJ024777000000032", "PNT_SP_NO": 20407.0, "OBJ_KND_CD": "OBJ02", "OBJ_COM_DF": "OBJ0203", "PNT_SE": "03", "MAIN_ENTSE": "RM", "ENT_TY": "01", "LMTT_HG": 0.0, "MVMN_DE": null, "JOB_SE_CD": null, "layer_ko": "지진옥외대피장소", "layer_en": "earthquake outdoor evacuation site" }, "geometry": { "type": "Point", "coordinates": [ 129.28226356583599, 36.357343818599617 ] } },
{ "type": "Feature", "properties": { "OBJ_MNG_NO": "OBJ024777000000034", "PNT_SP_NO": 20409.0, "OBJ_KND_CD": "OBJ02", "OBJ_COM_DF": "OBJ0203", "PNT_SE": "03", "MAIN_ENTSE": "RM", "ENT_TY": "03", "LMTT_HG": 0.0, "MVMN_DE": null, "JOB_SE_CD": null, "layer_ko": "지진옥외대피장소", "layer_en": "earthquake outdoor evacuation site" }, "geometry": { "type": "Point", "coordinates": [ 129.333383427070288, 36.43819625790286 ] } },
{ "type": "Feature", "properties": { "OBJ_MNG_NO": "OBJ024777000000035", "PNT_SP_NO": 20411.0, "OBJ_KND_CD": "OBJ02", "OBJ_COM_DF": "OBJ0203", "PNT_SE": "03", "MAIN_ENTSE": "RM", "ENT_TY": "01", "LMTT_HG": 0.0, "MVMN_DE": null, "JOB_SE_CD": null, "layer_ko": "지진옥외대피장소", "layer_en": "earthquake outdoor evacuation site" }, "geometry": { "type": "Point", "coordinates": [ 129.326309971463417, 36.427455066082437 ] } },
{ "type": "Feature", "properties": { "OBJ_MNG_NO": "OBJ024777000000037", "PNT_SP_NO": 20414.0, "OBJ_KND_CD": "OBJ02", "OBJ_COM_DF": "OBJ0203", "PNT_SE": "03", "MAIN_ENTSE": "RM", "ENT_TY": "01", "LMTT_HG": 0.0, "MVMN_DE": null, "JOB_SE_CD": null, "layer_ko": "지진옥외대피장소", "layer_en": "earthquake outdoor evacuation site" }, "geometry": { "type": "Point", "coordinates": [ 129.243691540658233, 36.437638585666782 ] } },
{ "type": "Feature", "properties": { "OBJ_MNG_NO": "OBJ024777000000038", "PNT_SP_NO": 20415.0, "OBJ_KND_CD": "OBJ02", "OBJ_COM_DF": "OBJ0203", "PNT_SE": "03", "MAIN_ENTSE": "RM", "ENT_TY": "02", "LMTT_HG": 0.0, "MVMN_DE": null, "JOB_SE_CD": null, "layer_ko": "지진옥외대피장소", "layer_en": "earthquake outdoor evacuation site" }, "geometry": { "type": "Point", "coordinates": [ 129.217401258271593, 36.461761591211229 ] } },
{ "type": "Feature", "properties": { "OBJ_MNG_NO": "OBJ024777000000039", "PNT_SP_NO": 20417.0, "OBJ_KND_CD": "OBJ02", "OBJ_COM_DF": "OBJ0203", "PNT_SE": "03", "MAIN_ENTSE": "RM", "ENT_TY": "01", "LMTT_HG": 0.0, "MVMN_DE": null, "JOB_SE_CD": null, "layer_ko": "지진옥외대피장소", "layer_en": "earthquake outdoor evacuation site" }, "geometry": { "type": "Point", "coordinates": [ 129.191969124100268, 36.484835576789699 ] } },
{ "type": "Feature", "properties": { "OBJ_MNG_NO": "OBJ024777000000040", "PNT_SP_NO": 20418.0, "OBJ_KND_CD": "OBJ02", "OBJ_COM_DF": "OBJ0203", "PNT_SE": "03", "MAIN_ENTSE": "RM", "ENT_TY": "03", "LMTT_HG": 0.0, "MVMN_DE": null, "JOB_SE_CD": null, "layer_ko": "지진옥외대피장소", "layer_en": "earthquake outdoor evacuation site" }, "geometry": { "type": "Point", "coordinates": [ 129.275549198788582, 36.503568159047539 ] } },
{ "type": "Feature", "properties": { "OBJ_MNG_NO": "OBJ024777000000041", "PNT_SP_NO": 20420.0, "OBJ_KND_CD": "OBJ02", "OBJ_COM_DF": "OBJ0203", "PNT_SE": "03", "MAIN_ENTSE": "RM", "ENT_TY": "01", "LMTT_HG": 0.0, "MVMN_DE": null, "JOB_SE_CD": null, "layer_ko": "지진옥외대피장소", "layer_en": "earthquake outdoor evacuation site" }, "geometry": { "type": "Point", "coordinates": [ 129.344969828395989, 36.427415608262351 ] } },
{ "type": "Feature", "properties": { "OBJ_MNG_NO": "OBJ024777000000042", "PNT_SP_NO": 20422.0, "OBJ_KND_CD": "OBJ02", "OBJ_COM_DF": "OBJ0203", "PNT_SE": "03", "MAIN_ENTSE": "RM", "ENT_TY": "01", "LMTT_HG": 0.0, "MVMN_DE": null, "JOB_SE_CD": null, "layer_ko": "지진옥외대피장소", "layer_en": "earthquake outdoor evacuation site" }, "geometry": { "type": "Point", "coordinates": [ 129.281429174918941, 36.448188460630035 ] } },
{ "type": "Feature", "properties": { "OBJ_MNG_NO": "OBJ024777000000043", "PNT_SP_NO": 20425.0, "OBJ_KND_CD": "OBJ02", "OBJ_COM_DF": "OBJ0203", "PNT_SE": "03", "MAIN_ENTSE": "RM", "ENT_TY": "02", "LMTT_HG": 0.0, "MVMN_DE": null, "JOB_SE_CD": null, "layer_ko": "지진옥외대피장소", "layer_en": "earthquake outdoor evacuation site" }, "geometry": { "type": "Point", "coordinates": [ 129.254737929143829, 36.476830469685126 ] } },
{ "type": "Feature", "properties": { "OBJ_MNG_NO": "OBJ024777000000045", "PNT_SP_NO": 20429.0, "OBJ_KND_CD": "OBJ02", "OBJ_COM_DF": "OBJ0203", "PNT_SE": "03", "MAIN_ENTSE": "RM", "ENT_TY": "01", "LMTT_HG": 0.0, "MVMN_DE": null, "JOB_SE_CD": null, "layer_ko": "지진옥외대피장소", "layer_en": "earthquake outdoor evacuation site" }, "geometry": { "type": "Point", "coordinates": [ 129.365064264667012, 36.498124864117251 ] } },
{ "type": "Feature", "properties": { "OBJ_MNG_NO": "OBJ024777000000046", "PNT_SP_NO": 20430.0, "OBJ_KND_CD": "OBJ02", "OBJ_COM_DF": "OBJ0203", "PNT_SE": "03", "MAIN_ENTSE": "RM", "ENT_TY": "01", "LMTT_HG": 0.0, "MVMN_DE": null, "JOB_SE_CD": null, "layer_ko": "지진옥외대피장소", "layer_en": "earthquake outdoor evacuation site" }, "geometry": { "type": "Point", "coordinates": [ 129.351772018282531, 36.487604457214964 ] } },
{ "type": "Feature", "properties": { "OBJ_MNG_NO": "OBJ024777000000047", "PNT_SP_NO": 20431.0, "OBJ_KND_CD": "OBJ02", "OBJ_COM_DF": "OBJ0203", "PNT_SE": "03", "MAIN_ENTSE": "RM", "ENT_TY": "01", "LMTT_HG": 0.0, "MVMN_DE": null, "JOB_SE_CD": null, "layer_ko": "지진옥외대피장소", "layer_en": "earthquake outdoor evacuation site" }, "geometry": { "type": "Point", "coordinates": [ 129.411179604283205, 36.539043536112359 ] } },
{ "type": "Feature", "properties": { "OBJ_MNG_NO": "OBJ024777000000048", "PNT_SP_NO": 20432.0, "OBJ_KND_CD": "OBJ02", "OBJ_COM_DF": "OBJ0203", "PNT_SE": "03", "MAIN_ENTSE": "RM", "ENT_TY": "01", "LMTT_HG": 0.0, "MVMN_DE": null, "JOB_SE_CD": null, "layer_ko": "지진옥외대피장소", "layer_en": "earthquake outdoor evacuation site" }, "geometry": { "type": "Point", "coordinates": [ 129.413880468485843, 36.542129176591814 ] } },
{ "type": "Feature", "properties": { "OBJ_MNG_NO": "OBJ024777000000049", "PNT_SP_NO": 20433.0, "OBJ_KND_CD": "OBJ02", "OBJ_COM_DF": "OBJ0203", "PNT_SE": "03", "MAIN_ENTSE": "RM", "ENT_TY": "01", "LMTT_HG": 0.0, "MVMN_DE": null, "JOB_SE_CD": null, "layer_ko": "지진옥외대피장소", "layer_en": "earthquake outdoor evacuation site" }, "geometry": { "type": "Point", "coordinates": [ 129.438704790488487, 36.53114201264836 ] } },
{ "type": "Feature", "properties": { "OBJ_MNG_NO": "OBJ024777000000050", "PNT_SP_NO": 20435.0, "OBJ_KND_CD": "OBJ02", "OBJ_COM_DF": "OBJ0203", "PNT_SE": "03", "MAIN_ENTSE": "RM", "ENT_TY": "02", "LMTT_HG": 0.0, "MVMN_DE": null, "JOB_SE_CD": null, "layer_ko": "지진옥외대피장소", "layer_en": "earthquake outdoor evacuation site" }, "geometry": { "type": "Point", "coordinates": [ 129.407740976872816, 36.550369848194478 ] } },
{ "type": "Feature", "properties": { "OBJ_MNG_NO": "OBJ024777000000051", "PNT_SP_NO": 20437.0, "OBJ_KND_CD": "OBJ02", "OBJ_COM_DF": "OBJ0203", "PNT_SE": "03", "MAIN_ENTSE": "RM", "ENT_TY": "03", "LMTT_HG": 0.0, "MVMN_DE": null, "JOB_SE_CD": null, "layer_ko": "지진옥외대피장소", "layer_en": "earthquake outdoor evacuation site" }, "geometry": { "type": "Point", "coordinates": [ 129.401551505990227, 36.537077797538359 ] } },
{ "type": "Feature", "properties": { "OBJ_MNG_NO": "OBJ024777000000052", "PNT_SP_NO": 20439.0, "OBJ_KND_CD": "OBJ02", "OBJ_COM_DF": "OBJ0203", "PNT_SE": "03", "MAIN_ENTSE": "RM", "ENT_TY": "01", "LMTT_HG": 0.0, "MVMN_DE": null, "JOB_SE_CD": null, "layer_ko": "지진옥외대피장소", "layer_en": "earthquake outdoor evacuation site" }, "geometry": { "type": "Point", "coordinates": [ 129.379670611359245, 36.539705885595247 ] } },
{ "type": "Feature", "properties": { "OBJ_MNG_NO": "OBJ024777000000053", "PNT_SP_NO": 20440.0, "OBJ_KND_CD": "OBJ02", "OBJ_COM_DF": "OBJ0203", "PNT_SE": "03", "MAIN_ENTSE": "RM", "ENT_TY": "01", "LMTT_HG": 0.0, "MVMN_DE": null, "JOB_SE_CD": null, "layer_ko": "지진옥외대피장소", "layer_en": "earthquake outdoor evacuation site" }, "geometry": { "type": "Point", "coordinates": [ 129.399943074498026, 36.571361495338898 ] } },
{ "type": "Feature", "properties": { "OBJ_MNG_NO": "OBJ024777000000054", "PNT_SP_NO": 20441.0, "OBJ_KND_CD": "OBJ02", "OBJ_COM_DF": "OBJ0203", "PNT_SE": "03", "MAIN_ENTSE": "RM", "ENT_TY": "01", "LMTT_HG": 0.0, "MVMN_DE": null, "JOB_SE_CD": null, "layer_ko": "지진옥외대피장소", "layer_en": "earthquake outdoor evacuation site" }, "geometry": { "type": "Point", "coordinates": [ 129.371504623260023, 36.55169249796819 ] } },
{ "type": "Feature", "properties": { "OBJ_MNG_NO": "OBJ024777000000056", "PNT_SP_NO": 20446.0, "OBJ_KND_CD": "OBJ02", "OBJ_COM_DF": "OBJ0203", "PNT_SE": "03", "MAIN_ENTSE": "RM", "ENT_TY": "03", "LMTT_HG": 0.0, "MVMN_DE": null, "JOB_SE_CD": null, "layer_ko": "지진옥외대피장소", "layer_en": "earthquake outdoor evacuation site" }, "geometry": { "type": "Point", "coordinates": [ 129.326459605861317, 36.549748879551387 ] } },
{ "type": "Feature", "properties": { "OBJ_MNG_NO": "OBJ024777000000058", "PNT_SP_NO": 20450.0, "OBJ_KND_CD": "OBJ02", "OBJ_COM_DF": "OBJ0203", "PNT_SE": "03", "MAIN_ENTSE": "RM", "ENT_TY": "01", "LMTT_HG": 0.0, "MVMN_DE": null, "JOB_SE_CD": null, "layer_ko": "지진옥외대피장소", "layer_en": "earthquake outdoor evacuation site" }, "geometry": { "type": "Point", "coordinates": [ 129.272025916892943, 36.577813456612375 ] } },
{ "type": "Feature", "properties": { "OBJ_MNG_NO": "OBJ024777000000059", "PNT_SP_NO": 20451.0, "OBJ_KND_CD": "OBJ02", "OBJ_COM_DF": "OBJ0203", "PNT_SE": "03", "MAIN_ENTSE": "RM", "ENT_TY": "01", "LMTT_HG": 0.0, "MVMN_DE": null, "JOB_SE_CD": null, "layer_ko": "지진옥외대피장소", "layer_en": "earthquake outdoor evacuation site" }, "geometry": { "type": "Point", "coordinates": [ 129.29462270929659, 36.633726358565973 ] } },
{ "type": "Feature", "properties": { "OBJ_MNG_NO": "OBJ024777000000044", "PNT_SP_NO": 20428.0, "OBJ_KND_CD": "OBJ02", "OBJ_COM_DF": "OBJ0203", "PNT_SE": "03", "MAIN_ENTSE": "RM", "ENT_TY": "02", "LMTT_HG": 0.0, "MVMN_DE": null, "JOB_SE_CD": null, "layer_ko": "지진옥외대피장소", "layer_en": "earthquake outdoor evacuation site" }, "geometry": { "type": "Point", "coordinates": [ 129.298530913798942, 36.477951887715477 ] } },
{ "type": "Feature", "properties": { "OBJ_MNG_NO": "OBJ024777000000036", "PNT_SP_NO": 20412.0, "OBJ_KND_CD": "OBJ02", "OBJ_COM_DF": "OBJ0203", "PNT_SE": "03", "MAIN_ENTSE": "RM", "ENT_TY": "03", "LMTT_HG": 0.0, "MVMN_DE": null, "JOB_SE_CD": null, "layer_ko": "지진옥외대피장소", "layer_en": "earthquake outdoor evacuation site" }, "geometry": { "type": "Point", "coordinates": [ 129.261406186213833, 36.419545526434575 ] } },
{ "type": "Feature", "properties": { "OBJ_MNG_NO": "OBJ024777000000015", "PNT_SP_NO": 23021.0, "OBJ_KND_CD": "OBJ02", "OBJ_COM_DF": "OBJ0203", "PNT_SE": "03", "MAIN_ENTSE": "RS", "ENT_TY": "01", "LMTT_HG": 0.0, "MVMN_DE": null, "JOB_SE_CD": null, "layer_ko": "지진옥외대피장소", "layer_en": "earthquake outdoor evacuation site" }, "geometry": { "type": "Point", "coordinates": [ 129.368646652384911, 36.415310691613179 ] } },
{ "type": "Feature", "properties": { "OBJ_MNG_NO": "OBJ024777000000015", "PNT_SP_NO": 23022.0, "OBJ_KND_CD": "OBJ02", "OBJ_COM_DF": "OBJ0203", "PNT_SE": "03", "MAIN_ENTSE": "RM", "ENT_TY": "01", "LMTT_HG": 0.0, "MVMN_DE": null, "JOB_SE_CD": null, "layer_ko": "지진옥외대피장소", "layer_en": "earthquake outdoor evacuation site" }, "geometry": { "type": "Point", "coordinates": [ 129.370857221265936, 36.415497741125435 ] } },
{ "type": "Feature", "properties": { "OBJ_MNG_NO": "OBJ024777000000007", "PNT_SP_NO": 23023.0, "OBJ_KND_CD": "OBJ02", "OBJ_COM_DF": "OBJ0203", "PNT_SE": "03", "MAIN_ENTSE": "RM", "ENT_TY": "01", "LMTT_HG": 0.0, "MVMN_DE": null, "JOB_SE_CD": null, "layer_ko": "지진옥외대피장소", "layer_en": "earthquake outdoor evacuation site" }, "geometry": { "type": "Point", "coordinates": [ 129.410285348576735, 36.623178080287502 ] } },
{ "type": "Feature", "properties": { "OBJ_MNG_NO": "OBJ024777000000055", "PNT_SP_NO": 22990.0, "OBJ_KND_CD": "OBJ02", "OBJ_COM_DF": "OBJ0203", "PNT_SE": "03", "MAIN_ENTSE": "RM", "ENT_TY": "01", "LMTT_HG": 0.0, "MVMN_DE": null, "JOB_SE_CD": null, "layer_ko": "지진옥외대피장소", "layer_en": "earthquake outdoor evacuation site" }, "geometry": { "type": "Point", "coordinates": [ 129.348736762410397, 36.547105840277652 ] } },
{ "type": "Feature", "properties": { "OBJ_MNG_NO": "OBJ024777000000055", "PNT_SP_NO": 22991.0, "OBJ_KND_CD": "OBJ02", "OBJ_COM_DF": "OBJ0203", "PNT_SE": "03", "MAIN_ENTSE": "RS", "ENT_TY": "01", "LMTT_HG": 0.0, "MVMN_DE": null, "JOB_SE_CD": null, "layer_ko": "지진옥외대피장소", "layer_en": "earthquake outdoor evacuation site" }, "geometry": { "type": "Point", "coordinates": [ 129.347442476291945, 36.547861934234938 ] } },
{ "type": "Feature", "properties": { "OBJ_MNG_NO": "OBJ024777000000033", "PNT_SP_NO": 23019.0, "OBJ_KND_CD": "OBJ02", "OBJ_COM_DF": "OBJ0203", "PNT_SE": "03", "MAIN_ENTSE": "RM", "ENT_TY": "01", "LMTT_HG": 0.0, "MVMN_DE": null, "JOB_SE_CD": null, "layer_ko": "지진옥외대피장소", "layer_en": "earthquake outdoor evacuation site" }, "geometry": { "type": "Point", "coordinates": [ 129.257918505812768, 36.396079112037995 ] } },
{ "type": "Feature", "properties": { "OBJ_MNG_NO": "OBJ024777000000027", "PNT_SP_NO": 23020.0, "OBJ_KND_CD": "OBJ02", "OBJ_COM_DF": "OBJ0203", "PNT_SE": "03", "MAIN_ENTSE": "RM", "ENT_TY": "01", "LMTT_HG": 0.0, "MVMN_DE": null, "JOB_SE_CD": null, "layer_ko": "지진옥외대피장소", "layer_en": "earthquake outdoor evacuation site" }, "geometry": { "type": "Point", "coordinates": [ 129.340881580330773, 36.274970767017066 ] } },
{ "type": "Feature", "properties": { "OBJ_MNG_NO": "OBJ024777000000001", "PNT_SP_NO": 23024.0, "OBJ_KND_CD": "OBJ02", "OBJ_COM_DF": "OBJ0203", "PNT_SE": "03", "MAIN_ENTSE": "RM", "ENT_TY": "04", "LMTT_HG": 0.0, "MVMN_DE": null, "JOB_SE_CD": null, "layer_ko": "지진옥외대피장소", "layer_en": "earthquake outdoor evacuation site" }, "geometry": { "type": "Point", "coordinates": [ 129.384799896972794, 36.348150521843905 ] } },
{ "type": "Feature", "properties": { "OBJ_MNG_NO": "OBJ024777000000057", "PNT_SP_NO": 20449.0, "OBJ_KND_CD": "OBJ02", "OBJ_COM_DF": "OBJ0203", "PNT_SE": "03", "MAIN_ENTSE": "RM", "ENT_TY": "04", "LMTT_HG": 0.0, "MVMN_DE": null, "JOB_SE_CD": null, "layer_ko": "지진옥외대피장소", "layer_en": "earthquake outdoor evacuation site" }, "geometry": { "type": "Point", "coordinates": [ 129.341798722315559, 36.58557119205949 ] } },
{ "type": "Feature", "properties": { "OBJ_MNG_NO": "OBJ024777000000075", "PNT_SP_NO": 232055.0, "OBJ_KND_CD": "OBJ02", "OBJ_COM_DF": "OBJ0203", "PNT_SE": "03", "MAIN_ENTSE": "RM", "ENT_TY": "04", "LMTT_HG": 0.0, "MVMN_DE": null, "JOB_SE_CD": null, "layer_ko": "지진옥외대피장소", "layer_en": "earthquake outdoor evacuation site" }, "geometry": { "type": "Point", "coordinates": [ 129.386761120683559, 36.360116088221758 ] } },
{ "type": "Feature", "properties": { "OBJ_MNG_NO": "OBJ024777000000068", "PNT_SP_NO": 227420.0, "OBJ_KND_CD": "OBJ02", "OBJ_COM_DF": "OBJ0203", "PNT_SE": "03", "MAIN_ENTSE": "RM", "ENT_TY": "04", "LMTT_HG": 0.0, "MVMN_DE": null, "JOB_SE_CD": null, "layer_ko": "지진옥외대피장소", "layer_en": "earthquake outdoor evacuation site" }, "geometry": { "type": "Point", "coordinates": [ 129.401760147738884, 36.594102706436765 ] } }
]
}
