{
"type": "FeatureCollection",
"name": "samul_eqwav_point",
"crs": { "type": "name", "properties": { "name": "urn:ogc:def:crs:OGC:1.3:CRS84" } },
"features": [
{ "type": "Feature", "properties": { "OBJ_MNG_NO": "OBJ064777000000033", "PNT_SP_NO": 157059.0, "OBJ_KND_CD": "OBJ06", "OBJ_COM_DF": "OBJ0603", "PNT_SE": "03", "MAIN_ENTSE": "RM", "ENT_TY": null, "LMTT_HG": 0.0, "MVMN_DE": null, "JOB_SE_CD": null, "layer_ko": "지진해일긴급대피장소", "layer_en": "tsunami emergency evacuation site" }, "geometry": { "type": "Point", "coordinates": [ 129.406739345963558, 36.390771312469028 ] } },
{ "type": "Feature", "properties": { "OBJ_MNG_NO": "OBJ064777000000011", "PNT_SP_NO": 157062.0, "OBJ_KND_CD": "OBJ06", "OBJ_COM_DF": "OBJ0603", "PNT_SE": "03", "MAIN_ENTSE": "RM", "ENT_TY": null, "LMTT_HG": 0.0, "MVMN_DE": null, "JOB_SE_CD": null, "layer_ko": "지진해일긴급대피장소", "layer_en": "tsunami emergency evacuation site" }, "geometry": { "type": "Point", "coordinates": [ 129.420921366497311, 36.401324054054157 ] } },
{ "type": "Feature", "properties": { "OBJ_MNG_NO": "OBJ064777000000060", "PNT_SP_NO": 157063.0, "OBJ_KND_CD": "OBJ06", "OBJ_COM_DF": "OBJ0603", "PNT_SE": "03", "MAIN_ENTSE": "RM", "ENT_TY": null, "LMTT_HG": 0.0, "MVMN_DE": null, "JOB_SE_CD": null, "layer_ko": "지진해일긴급대피장소", "layer_en": "tsunami emergency evacuation site" }, "geometry": { "type": "Point", "coordinates": [ 129.423260912654229, 36.404531745711914 ] } },
{ "type": "Feature", "properties": { "OBJ_MNG_NO": "OBJ064777000000061", "PNT_SP_NO": 157064.0, "OBJ_KND_CD": "OBJ06", "OBJ_COM_DF": "OBJ0603", "PNT_SE": "03", "MAIN_ENTSE": "RM", "ENT_TY": null, "LMTT_HG": 0.0, "MVMN_DE": null, "JOB_SE_CD": null, "layer_ko": "지진해일긴급대피장소", "layer_en": "tsunami emergency evacuation site" }, "geometry": { "type": "Point", "coordinates": [ 129.424909557670873, 36.407154106728626 ] } },
{ "type": "Feature", "properties": { "OBJ_MNG_NO": "OBJ064777000000063", "PNT_SP_NO": 157066.0, "OBJ_KND_CD": "OBJ06", "OBJ_COM_DF": "OBJ0603", "PNT_SE": "03", "MAIN_ENTSE": "RM", "ENT_TY": null, "LMTT_HG": 0.0, "MVMN_DE": null, "JOB_SE_CD": null, "layer_ko": "지진해일긴급대피장소", "layer_en": "tsunami emergency evacuation site" }, "geometry": { "type": "Point", "coordinates": [ 129.428040342328359, 36.409157152694505 ] } },
{ "type": "Feature", "properties": { "OBJ_MNG_NO": "OBJ064777000000057", "PNT_SP_NO": 157067.0, "OBJ_KND_CD": "OBJ06", "OBJ_COM_DF": "OBJ0603", "PNT_SE": "03", "MAIN_ENTSE": "RM", "ENT_TY": null, "LMTT_HG": 0.0, "MVMN_DE": null, "JOB_SE_CD": null, "layer_ko": "지진해일긴급대피장소", "layer_en": "tsunami emergency evacuation site" }, "geometry": { "type": "Point", "coordinates": [ 129.429001511273299, 36.410972584552269 ] } },
{ "type": "Feature", "properties": { "OBJ_MNG_NO": "OBJ064777000000062", "PNT_SP_NO": 157068.0, "OBJ_KND_CD": "OBJ06", "OBJ_COM_DF": "OBJ0603", "PNT_SE": "03", "MAIN_ENTSE": "RM", "ENT_TY": null, "LMTT_HG": 0.0, "MVMN_DE": null, "JOB_SE_CD": null, "layer_ko": "지진해일긴급대피장소", "layer_en": "tsunami emergency evacuation site" }, "geometry": { "type": "Point", "coordinates": [ 129.429124517109443, 36.412065273728082 ] } },
{ "type": "Feature", "properties": { "OBJ_MNG_NO": "OBJ064777000000064", "PNT_SP_NO": 157069.0, "OBJ_KND_CD": "OBJ06", "OBJ_COM_DF": "OBJ0603", "PNT_SE": "03", "MAIN_ENTSE": "RM", "ENT_TY": null, "LMTT_HG": 0.0, "MVMN_DE": null, "JOB_SE_CD": null, "layer_ko": "지진해일긴급대피장소", "layer_en": "tsunami emergency evacuation site" }, "geometry": { "type": "Point", "coordinates": [ 129.432270511340988, 36.435300053782832 ] } },
{ "type": "Feature", "properties": { "OBJ_MNG_NO": "OBJ064777000000050", "PNT_SP_NO": 157070.0, "OBJ_KND_CD": "OBJ06", "OBJ_COM_DF": "OBJ0603", "PNT_SE": "03", "MAIN_ENTSE": "RM", "ENT_TY": null, "LMTT_HG": 0.0, "MVMN_DE": null, "JOB_SE_CD": null, "layer_ko": "지진해일긴급대피장소", "layer_en": "tsunami emergency evacuation site" }, "geometry": { "type": "Point", "coordinates": [ 129.430246568682065, 36.441210309902395 ] } },
{ "type": "Feature", "properties": { "OBJ_MNG_NO": "OBJ064777000000049", "PNT_SP_NO": 157071.0, "OBJ_KND_CD": "OBJ06", "OBJ_COM_DF": "OBJ0603", "PNT_SE": "03", "MAIN_ENTSE": "RM", "ENT_TY": null, "LMTT_HG": 0.0, "MVMN_DE": null, "JOB_SE_CD": null, "layer_ko": "지진해일긴급대피장소", "layer_en": "tsunami emergency evacuation site" }, "geometry": { "type": "Point", "coordinates": [ 129.432126834081203, 36.44251259335482 ] } },
{ "type": "Feature", "properties": { "OBJ_MNG_NO": "OBJ064777000000041", "PNT_SP_NO": 157072.0, "OBJ_KND_CD": "OBJ06", "OBJ_COM_DF": "OBJ0603", "PNT_SE": "03", "MAIN_ENTSE": "RM", "ENT_TY": null, "LMTT_HG": 0.0, "MVMN_DE": null, "JOB_SE_CD": null, "layer_ko": "지진해일긴급대피장소", "layer_en": "tsunami emergency evacuation site" }, "geometry": { "type": "Point", "coordinates": [ 129.431361277921923, 36.446109746417342 ] } },
{ "type": "Feature", "properties": { "OBJ_MNG_NO": "OBJ064777000000006", "PNT_SP_NO": 157073.0, "OBJ_KND_CD": "OBJ06", "OBJ_COM_DF": "OBJ0603", "PNT_SE": "03", "MAIN_ENTSE": "RM", "ENT_TY": null, "LMTT_HG": 0.0, "MVMN_DE": null, "JOB_SE_CD": null, "layer_ko": "지진해일긴급대피장소", "layer_en": "tsunami emergency evacuation site" }, "geometry": { "type": "Point", "coordinates": [ 129.434243296662771, 36.446424693279837 ] } },
{ "type": "Feature", "properties": { "OBJ_MNG_NO": "OBJ064777000000012", "PNT_SP_NO": 157077.0, "OBJ_KND_CD": "OBJ06", "OBJ_COM_DF": "OBJ0603", "PNT_SE": "03", "MAIN_ENTSE": "RM", "ENT_TY": null, "LMTT_HG": 0.0, "MVMN_DE": null, "JOB_SE_CD": null, "layer_ko": "지진해일긴급대피장소", "layer_en": "tsunami emergency evacuation site" }, "geometry": { "type": "Point", "coordinates": [ 129.431148800366998, 36.446982613805531 ] } },
{ "type": "Feature", "properties": { "OBJ_MNG_NO": "OBJ064777000000059", "PNT_SP_NO": 157078.0, "OBJ_KND_CD": "OBJ06", "OBJ_COM_DF": "OBJ0603", "PNT_SE": "03", "MAIN_ENTSE": "RM", "ENT_TY": null, "LMTT_HG": 0.0, "MVMN_DE": null, "JOB_SE_CD": null, "layer_ko": "지진해일긴급대피장소", "layer_en": "tsunami emergency evacuation site" }, "geometry": { "type": "Point", "coordinates": [ 129.432863258200115, 36.446874619405826 ] } },
{ "type": "Feature", "properties": { "OBJ_MNG_NO": "OBJ064777000000046", "PNT_SP_NO": 157079.0, "OBJ_KND_CD": "OBJ06", "OBJ_COM_DF": "OBJ0603", "PNT_SE": "03", "MAIN_ENTSE": "RM", "ENT_TY": null, "LMTT_HG": 0.0, "MVMN_DE": null, "JOB_SE_CD": null, "layer_ko": "지진해일긴급대피장소", "layer_en": "tsunami emergency evacuation site" }, "geometry": { "type": "Point", "coordinates": [ 129.430835552464913, 36.447953934049345 ] } },
{ "type": "Feature", "properties": { "OBJ_MNG_NO": "OBJ064777000000009", "PNT_SP_NO": 157080.0, "OBJ_KND_CD": "OBJ06", "OBJ_COM_DF": "OBJ0603", "PNT_SE": "03", "MAIN_ENTSE": "RM", "ENT_TY": null, "LMTT_HG": 0.0, "MVMN_DE": null, "JOB_SE_CD": null, "layer_ko": "지진해일긴급대피장소", "layer_en": "tsunami emergency evacuation site" }, "geometry": { "type": "Point", "coordinates": [ 129.43168530709346, 36.475068754743539 ] } },
{ "type": "Feature", "properties": { "OBJ_MNG_NO": "OBJ064777000000010", "PNT_SP_NO": 157081.0, "OBJ_KND_CD": "OBJ06", "OBJ_COM_DF": "OBJ0603", "PNT_SE": "03", "MAIN_ENTSE": "RM", "ENT_TY": null, "LMTT_HG": 0.0, "MVMN_DE": null, "JOB_SE_CD": null, "layer_ko": "지진해일긴급대피장소", "layer_en": "tsunami emergency evacuation site" }, "geometry": { "type": "Point", "coordinates": [ 129.433036635021381, 36.482850392031473 ] } },
{ "type": "Feature", "properties": { "OBJ_MNG_NO": "OBJ064777000000008", "PNT_SP_NO": 157082.0, "OBJ_KND_CD": "OBJ06", "OBJ_COM_DF": "OBJ0603", "PNT_SE": "03", "MAIN_ENTSE": "RM", "ENT_TY": null, "LMTT_HG": 0.0, "MVMN_DE": null, "JOB_SE_CD": null, "layer_ko": "지진해일긴급대피장소", "layer_en": "tsunami emergency evacuation site" }, "geometry": { "type": "Point", "coordinates": [ 129.431614241927718, 36.484810160902065 ] } },
{ "type": "Feature", "properties": { "OBJ_MNG_NO": "OBJ064777000000067", "PNT_SP_NO": 157083.0, "OBJ_KND_CD": "OBJ06", "OBJ_COM_DF": "OBJ0603", "PNT_SE": "03", "MAIN_ENTSE": "RS", "ENT_TY": null, "LMTT_HG": 0.0, "MVMN_DE": null, "JOB_SE_CD": null, "layer_ko": "지진해일긴급대피장소", "layer_en": "tsunami emergency evacuation site" }, "geometry": { "type": "Point", "coordinates": [ 129.433487659320207, 36.48603507285921 ] } },
{ "type": "Feature", "properties": { "OBJ_MNG_NO": "OBJ064777000000067", "PNT_SP_NO": 157084.0, "OBJ_KND_CD": "OBJ06", "OBJ_COM_DF": "OBJ0603", "PNT_SE": "03", "MAIN_ENTSE": "RM", "ENT_TY": null, "LMTT_HG": 0.0, "MVMN_DE": null, "JOB_SE_CD": null, "layer_ko": "지진해일긴급대피장소", "layer_en": "tsunami emergency evacuation site" }, "geometry": { "type": "Point", "coordinates": [ 129.433894660690243, 36.485474630290753 ] } },
{ "type": "Feature", "properties": { "OBJ_MNG_NO": "OBJ064777000000038", "PNT_SP_NO": 157087.0, "OBJ_KND_CD": "OBJ06", "OBJ_COM_DF": "OBJ0603", "PNT_SE": "03", "MAIN_ENTSE": "RM", "ENT_TY": null, "LMTT_HG": 0.0, "MVMN_DE": null, "JOB_SE_CD": null, "layer_ko": "지진해일긴급대피장소", "layer_en": "tsunami emergency evacuation site" }, "geometry": { "type": "Point", "coordinates": [ 129.445944014333946, 36.503721766768386 ] } },
{ "type": "Feature", "properties": { "OBJ_MNG_NO": "OBJ064777000000066", "PNT_SP_NO": 157088.0, "OBJ_KND_CD": "OBJ06", "OBJ_COM_DF": "OBJ0603", "PNT_SE": "03", "MAIN_ENTSE": "RM", "ENT_TY": null, "LMTT_HG": 0.0, "MVMN_DE": null, "JOB_SE_CD": null, "layer_ko": "지진해일긴급대피장소", "layer_en": "tsunami emergency evacuation site" }, "geometry": { "type": "Point", "coordinates": [ 129.442583717514992, 36.509090546716024 ] } },
{ "type": "Feature", "properties": { "OBJ_MNG_NO": "OBJ064777000000054", "PNT_SP_NO": 157089.0, "OBJ_KND_CD": "OBJ06", "OBJ_COM_DF": "OBJ0603", "PNT_SE": "03", "MAIN_ENTSE": "RM", "ENT_TY": null, "LMTT_HG": 0.0, "MVMN_DE": null, "JOB_SE_CD": null, "layer_ko": "지진해일긴급대피장소", "layer_en": "tsunami emergency evacuation site" }, "geometry": { "type": "Point", "coordinates": [ 129.447308145077614, 36.50933018880847 ] } },
{ "type": "Feature", "properties": { "OBJ_MNG_NO": "OBJ064777000000054", "PNT_SP_NO": 157090.0, "OBJ_KND_CD": "OBJ06", "OBJ_COM_DF": "OBJ0603", "PNT_SE": "03", "MAIN_ENTSE": "RS", "ENT_TY": null, "LMTT_HG": 0.0, "MVMN_DE": null, "JOB_SE_CD": null, "layer_ko": "지진해일긴급대피장소", "layer_en": "tsunami emergency evacuation site" }, "geometry": { "type": "Point", "coordinates": [ 129.447388896896456, 36.509323129612369 ] } },
{ "type": "Feature", "properties": { "OBJ_MNG_NO": "OBJ064777000000032", "PNT_SP_NO": 157091.0, "OBJ_KND_CD": "OBJ06", "OBJ_COM_DF": "OBJ0603", "PNT_SE": "03", "MAIN_ENTSE": "RS", "ENT_TY": null, "LMTT_HG": 0.0, "MVMN_DE": null, "JOB_SE_CD": null, "layer_ko": "지진해일긴급대피장소", "layer_en": "tsunami emergency evacuation site" }, "geometry": { "type": "Point", "coordinates": [ 129.443897079067369, 36.511483426940053 ] } },
{ "type": "Feature", "properties": { "OBJ_MNG_NO": "OBJ064777000000032", "PNT_SP_NO": 157092.0, "OBJ_KND_CD": "OBJ06", "OBJ_COM_DF": "OBJ0603", "PNT_SE": "03", "MAIN_ENTSE": "RM", "ENT_TY": null, "LMTT_HG": 0.0, "MVMN_DE": null, "JOB_SE_CD": null, "layer_ko": "지진해일긴급대피장소", "layer_en": "tsunami emergency evacuation site" }, "geometry": { "type": "Point", "coordinates": [ 129.443913652515732, 36.511591014882747 ] } },
{ "type": "Feature", "properties": { "OBJ_MNG_NO": "OBJ064777000000026", "PNT_SP_NO": 157093.0, "OBJ_KND_CD": "OBJ06", "OBJ_COM_DF": "OBJ0603", "PNT_SE": "03", "MAIN_ENTSE": "RM", "ENT_TY": null, "LMTT_HG": 0.0, "MVMN_DE": null, "JOB_SE_CD": null, "layer_ko": "지진해일긴급대피장소", "layer_en": "tsunami emergency evacuation site" }, "geometry": { "type": "Point", "coordinates": [ 129.438704790488487, 36.53114201264836 ] } },
{ "type": "Feature", "properties": { "OBJ_MNG_NO": "OBJ064777000000027", "PNT_SP_NO": 157094.0, "OBJ_KND_CD": "OBJ06", "OBJ_COM_DF": "OBJ0603", "PNT_SE": "03", "MAIN_ENTSE": "RM", "ENT_TY": null, "LMTT_HG": 0.0, "MVMN_DE": null, "JOB_SE_CD": null, "layer_ko": "지진해일긴급대피장소", "layer_en": "tsunami emergency evacuation site" }, "geometry": { "type": "Point", "coordinates": [ 129.429343958540272, 36.561673495057683 ] } },
{ "type": "Feature", "properties": { "OBJ_MNG_NO": "OBJ064777000000027", "PNT_SP_NO": 157095.0, "OBJ_KND_CD": "OBJ06", "OBJ_COM_DF": "OBJ0603", "PNT_SE": "03", "MAIN_ENTSE": "RS", "ENT_TY": null, "LMTT_HG": 0.0, "MVMN_DE": null, "JOB_SE_CD": null, "layer_ko": "지진해일긴급대피장소", "layer_en": "tsunami emergency evacuation site" }, "geometry": { "type": "Point", "coordinates": [ 129.42822195672062, 36.562050350896669 ] } },
{ "type": "Feature", "properties": { "OBJ_MNG_NO": "OBJ064777000000047", "PNT_SP_NO": 157096.0, "OBJ_KND_CD": "OBJ06", "OBJ_COM_DF": "OBJ0603", "PNT_SE": "03", "MAIN_ENTSE": "RM", "ENT_TY": null, "LMTT_HG": 0.0, "MVMN_DE": null, "JOB_SE_CD": null, "layer_ko": "지진해일긴급대피장소", "layer_en": "tsunami emergency evacuation site" }, "geometry": { "type": "Point", "coordinates": [ 129.41644317794848, 36.569035735422382 ] } },
{ "type": "Feature", "properties": { "OBJ_MNG_NO": "OBJ064777000000074", "PNT_SP_NO": 157097.0, "OBJ_KND_CD": "OBJ06", "OBJ_COM_DF": "OBJ0603", "PNT_SE": "03", "MAIN_ENTSE": "RM", "ENT_TY": null, "LMTT_HG": 0.0, "MVMN_DE": null, "JOB_SE_CD": null, "layer_ko": "지진해일긴급대피장소", "layer_en": "tsunami emergency evacuation site" }, "geometry": { "type": "Point", "coordinates": [ 129.412954577358789, 36.578041207478741 ] } },
{ "type": "Feature", "properties": { "OBJ_MNG_NO": "OBJ064777000000048", "PNT_SP_NO": 157098.0, "OBJ_KND_CD": "OBJ06", "OBJ_COM_DF": "OBJ0603", "PNT_SE": "03", "MAIN_ENTSE": "RM", "ENT_TY": null, "LMTT_HG": 0.0, "MVMN_DE": null, "JOB_SE_CD": null, "layer_ko": "지진해일긴급대피장소", "layer_en": "tsunami emergency evacuation site" }, "geometry": { "type": "Point", "coordinates": [ 129.401855259258468, 36.594247917640942 ] } },
{ "type": "Feature", "properties": { "OBJ_MNG_NO": "OBJ064777000000035", "PNT_SP_NO": 157099.0, "OBJ_KND_CD": "OBJ06", "OBJ_COM_DF": "OBJ0603", "PNT_SE": "03", "MAIN_ENTSE": "RM", "ENT_TY": null, "LMTT_HG": 0.0, "MVMN_DE": null, "JOB_SE_CD": null, "layer_ko": "지진해일긴급대피장소", "layer_en": "tsunami emergency evacuation site" }, "geometry": { "type": "Point", "coordinates": [ 129.41459674921299, 36.603622757133195 ] } },
{ "type": "Feature", "properties": { "OBJ_MNG_NO": "OBJ064777000000036", "PNT_SP_NO": 157100.0, "OBJ_KND_CD": "OBJ06", "OBJ_COM_DF": "OBJ0603", "PNT_SE": "03", "MAIN_ENTSE": "RM", "ENT_TY": null, "LMTT_HG": 0.0, "MVMN_DE": null, "JOB_SE_CD": null, "layer_ko": "지진해일긴급대피장소", "layer_en": "tsunami emergency evacuation site" }, "geometry": { "type": "Point", "coordinates": [ 129.412963773638495, 36.606524581195636 ] } },
{ "type": "Feature", "properties": { "OBJ_MNG_NO": "OBJ064777000000036", "PNT_SP_NO": 157101.0, "OBJ_KND_CD": "OBJ06", "OBJ_COM_DF": "OBJ0603", "PNT_SE": "03", "MAIN_ENTSE": "RS", "ENT_TY": null, "LMTT_HG": 0.0, "MVMN_DE": null, "JOB_SE_CD": null, "layer_ko": "지진해일긴급대피장소", "layer_en": "tsunami emergency evacuation site" }, "geometry": { "type": "Point", "coordinates": [ 129.413191754454516, 36.606832007009622 ] } },
{ "type": "Feature", "properties": { "OBJ_MNG_NO": "OBJ064777000000036", "PNT_SP_NO": 157102.0, "OBJ_KND_CD": "OBJ06", "OBJ_COM_DF": "OBJ0603", "PNT_SE": "03", "MAIN_ENTSE": "RS", "ENT_TY": null, "LMTT_HG": 0.0, "MVMN_DE": null, "JOB_SE_CD": null, "layer_ko": "지진해일긴급대피장소", "layer_en": "tsunami emergency evacuation site" }, "geometry": { "type": "Point", "coordinates": [ 129.413621015202324, 36.606452136613811 ] } },
{ "type": "Feature", "properties": { "OBJ_MNG_NO": "OBJ064777000000024", "PNT_SP_NO": 157103.0, "OBJ_KND_CD": "OBJ06", "OBJ_COM_DF": "OBJ0603", "PNT_SE": "03", "MAIN_ENTSE": "RM", "ENT_TY": null, "LMTT_HG": 0.0, "MVMN_DE": null, "JOB_SE_CD": null, "layer_ko": "지진해일긴급대피장소", "layer_en": "tsunami emergency evacuation site" }, "geometry": { "type": "Point", "coordinates": [ 129.410243037457803, 36.623157202917504 ] } },
{ "type": "Feature", "properties": { "OBJ_MNG_NO": "OBJ064777000000068", "PNT_SP_NO": 157104.0, "OBJ_KND_CD": "OBJ06", "OBJ_COM_DF": "OBJ0603", "PNT_SE": "03", "MAIN_ENTSE": "RM", "ENT_TY": null, "LMTT_HG": 0.0, "MVMN_DE": null, "JOB_SE_CD": null, "layer_ko": "지진해일긴급대피장소", "layer_en": "tsunami emergency evacuation site" }, "geometry": { "type": "Point", "coordinates": [ 129.413505481103812, 36.63841307639246 ] } },
{ "type": "Feature", "properties": { "OBJ_MNG_NO": "OBJ064777000000014", "PNT_SP_NO": 157105.0, "OBJ_KND_CD": "OBJ06", "OBJ_COM_DF": "OBJ0603", "PNT_SE": "03", "MAIN_ENTSE": "RM", "ENT_TY": null, "LMTT_HG": 0.0, "MVMN_DE": null, "JOB_SE_CD": null, "layer_ko": "지진해일긴급대피장소", "layer_en": "tsunami emergency evacuation site" }, "geometry": { "type": "Point", "coordinates": [ 129.421861719258175, 36.643057091876095 ] } },
{ "type": "Feature", "properties": { "OBJ_MNG_NO": "OBJ064777000000073", "PNT_SP_NO": 157058.0, "OBJ_KND_CD": "OBJ06", "OBJ_COM_DF": "OBJ0603", "PNT_SE": "03", "MAIN_ENTSE": "RM", "ENT_TY": null, "LMTT_HG": 0.0, "MVMN_DE": null, "JOB_SE_CD": null, "layer_ko": "지진해일긴급대피장소", "layer_en": "tsunami emergency evacuation site" }, "geometry": { "type": "Point", "coordinates": [ 129.404642758189595, 36.389576294723597 ] } },
{ "type": "Feature", "properties": { "OBJ_MNG_NO": "OBJ064777000000051", "PNT_SP_NO": 157108.0, "OBJ_KND_CD": "OBJ06", "OBJ_COM_DF": "OBJ0603", "PNT_SE": "03", "MAIN_ENTSE": "RM", "ENT_TY": null, "LMTT_HG": 0.0, "MVMN_DE": null, "JOB_SE_CD": null, "layer_ko": "지진해일긴급대피장소", "layer_en": "tsunami emergency evacuation site" }, "geometry": { "type": "Point", "coordinates": [ 129.374446056860904, 36.361590698388362 ] } },
{ "type": "Feature", "properties": { "OBJ_MNG_NO": "OBJ064777000000030", "PNT_SP_NO": 157112.0, "OBJ_KND_CD": "OBJ06", "OBJ_COM_DF": "OBJ0603", "PNT_SE": "03", "MAIN_ENTSE": "RM", "ENT_TY": null, "LMTT_HG": 0.0, "MVMN_DE": null, "JOB_SE_CD": null, "layer_ko": "지진해일긴급대피장소", "layer_en": "tsunami emergency evacuation site" }, "geometry": { "type": "Point", "coordinates": [ 129.412527967647407, 36.641898197966292 ] } },
{ "type": "Feature", "properties": { "OBJ_MNG_NO": "OBJ064777000000065", "PNT_SP_NO": 157113.0, "OBJ_KND_CD": "OBJ06", "OBJ_COM_DF": "OBJ0603", "PNT_SE": "03", "MAIN_ENTSE": "RM", "ENT_TY": null, "LMTT_HG": 0.0, "MVMN_DE": null, "JOB_SE_CD": null, "layer_ko": "지진해일긴급대피장소", "layer_en": "tsunami emergency evacuation site" }, "geometry": { "type": "Point", "coordinates": [ 129.409931201287321, 36.618183065191147 ] } },
{ "type": "Feature", "properties": { "OBJ_MNG_NO": "OBJ064777000000016", "PNT_SP_NO": 157115.0, "OBJ_KND_CD": "OBJ06", "OBJ_COM_DF": "OBJ0603", "PNT_SE": "03", "MAIN_ENTSE": "RM", "ENT_TY": null, "LMTT_HG": 0.0, "MVMN_DE": null, "JOB_SE_CD": null, "layer_ko": "지진해일긴급대피장소", "layer_en": "tsunami emergency evacuation site" }, "geometry": { "type": "Point", "coordinates": [ 129.377109143116485, 36.272517344093352 ] } },
{ "type": "Feature", "properties": { "OBJ_MNG_NO": "OBJ064777000000016", "PNT_SP_NO": 157116.0, "OBJ_KND_CD": "OBJ06", "OBJ_COM_DF": "OBJ0603", "PNT_SE": "03", "MAIN_ENTSE": "RS", "ENT_TY": null, "LMTT_HG": 0.0, "MVMN_DE": null, "JOB_SE_CD": null, "layer_ko": "지진해일긴급대피장소", "layer_en": "tsunami emergency evacuation site" }, "geometry": { "type": "Point", "coordinates": [ 129.376836949534351, 36.272170470569478 ] } },
{ "type": "Feature", "properties": { "OBJ_MNG_NO": "OBJ064777000000025", "PNT_SP_NO": 157118.0, "OBJ_KND_CD": "OBJ06", "OBJ_COM_DF": "OBJ0603", "PNT_SE": "03", "MAIN_ENTSE": "RM", "ENT_TY": null, "LMTT_HG": 0.0, "MVMN_DE": null, "JOB_SE_CD": null, "layer_ko": "지진해일긴급대피장소", "layer_en": "tsunami emergency evacuation site" }, "geometry": { "type": "Point", "coordinates": [ 129.377631390367242, 36.298020059285967 ] } },
{ "type": "Feature", "properties": { "OBJ_MNG_NO": "OBJ064777000000025", "PNT_SP_NO": 157119.0, "OBJ_KND_CD": "OBJ06", "OBJ_COM_DF": "OBJ0603", "PNT_SE": "03", "MAIN_ENTSE": "RS", "ENT_TY": null, "LMTT_HG": 0.0, "MVMN_DE": null, "JOB_SE_CD": null, "layer_ko": "지진해일긴급대피장소", "layer_en": "tsunami emergency evacuation site" }, "geometry": { "type": "Point", "coordinates": [ 129.377765575270843, 36.298010875269597 ] } },
{ "type": "Feature", "properties": { "OBJ_MNG_NO": "OBJ064777000000025", "PNT_SP_NO": 157120.0, "OBJ_KND_CD": "OBJ06", "OBJ_COM_DF": "OBJ0603", "PNT_SE": "03", "MAIN_ENTSE": "RS", "ENT_TY": null, "LMTT_HG": 0.0, "MVMN_DE": null, "JOB_SE_CD": null, "layer_ko": "지진해일긴급대피장소", "layer_en": "tsunami emergency evacuation site" }, "geometry": { "type": "Point", "coordinates": [ 129.377612885304671, 36.2976013255917 ] } },
{ "type": "Feature", "properties": { "OBJ_MNG_NO": "OBJ064777000000056", "PNT_SP_NO": 157121.0, "OBJ_KND_CD": "OBJ06", "OBJ_COM_DF": "OBJ0603", "PNT_SE": "03", "MAIN_ENTSE": "RM", "ENT_TY": null, "LMTT_HG": 0.0, "MVMN_DE": null, "JOB_SE_CD": null, "layer_ko": "지진해일긴급대피장소", "layer_en": "tsunami emergency evacuation site" }, "geometry": { "type": "Point", "coordinates": [ 129.37700875280882, 36.319715454043958 ] } },
{ "type": "Feature", "properties": { "OBJ_MNG_NO": "OBJ064777000000043", "PNT_SP_NO": 157126.0, "OBJ_KND_CD": "OBJ06", "OBJ_COM_DF": "OBJ0603", "PNT_SE": "03", "MAIN_ENTSE": "RM", "ENT_TY": null, "LMTT_HG": 0.0, "MVMN_DE": null, "JOB_SE_CD": null, "layer_ko": "지진해일긴급대피장소", "layer_en": "tsunami emergency evacuation site" }, "geometry": { "type": "Point", "coordinates": [ 129.385878963507338, 36.359943979440096 ] } },
{ "type": "Feature", "properties": { "OBJ_MNG_NO": "OBJ064777000000058", "PNT_SP_NO": 157127.0, "OBJ_KND_CD": "OBJ06", "OBJ_COM_DF": "OBJ0603", "PNT_SE": "03", "MAIN_ENTSE": "RM", "ENT_TY": null, "LMTT_HG": 0.0, "MVMN_DE": null, "JOB_SE_CD": null, "layer_ko": "지진해일긴급대피장소", "layer_en": "tsunami emergency evacuation site" }, "geometry": { "type": "Point", "coordinates": [ 129.451000845971748, 36.507093057571566 ] } },
{ "type": "Feature", "properties": { "OBJ_MNG_NO": "OBJ064777000000058", "PNT_SP_NO": 157128.0, "OBJ_KND_CD": "OBJ06", "OBJ_COM_DF": "OBJ0603", "PNT_SE": "03", "MAIN_ENTSE": "RS", "ENT_TY": null, "LMTT_HG": 0.0, "MVMN_DE": null, "JOB_SE_CD": null, "layer_ko": "지진해일긴급대피장소", "layer_en": "tsunami emergency evacuation site" }, "geometry": { "type": "Point", "coordinates": [ 129.451015948236432, 36.506896051508811 ] } },
{ "type": "Feature", "properties": { "OBJ_MNG_NO": "OBJ064777000000028", "PNT_SP_NO": 157129.0, "OBJ_KND_CD": "OBJ06", "OBJ_COM_DF": "OBJ0603", "PNT_SE": "03", "MAIN_ENTSE": "RM", "ENT_TY": null, "LMTT_HG": 0.0, "MVMN_DE": null, "JOB_SE_CD": null, "layer_ko": "지진해일긴급대피장소", "layer_en": "tsunami emergency evacuation site" }, "geometry": { "type": "Point", "coordinates": [ 129.436578303970975, 36.53917926256814 ] } },
{ "type": "Feature", "properties": { "OBJ_MNG_NO": "OBJ064777000000017", "PNT_SP_NO": 157130.0, "OBJ_KND_CD": "OBJ06", "OBJ_COM_DF": "OBJ0603", "PNT_SE": "03", "MAIN_ENTSE": "RM", "ENT_TY": null, "LMTT_HG": 0.0, "MVMN_DE": null, "JOB_SE_CD": null, "layer_ko": "지진해일긴급대피장소", "layer_en": "tsunami emergency evacuation site" }, "geometry": { "type": "Point", "coordinates": [ 129.40930173792367, 36.642282692460299 ] } },
{ "type": "Feature", "properties": { "OBJ_MNG_NO": "OBJ064777000000019", "PNT_SP_NO": 157041.0, "OBJ_KND_CD": "OBJ06", "OBJ_COM_DF": "OBJ0603", "PNT_SE": "03", "MAIN_ENTSE": "RM", "ENT_TY": null, "LMTT_HG": 0.0, "MVMN_DE": null, "JOB_SE_CD": null, "layer_ko": "지진해일긴급대피장소", "layer_en": "tsunami emergency evacuation site" }, "geometry": { "type": "Point", "coordinates": [ 129.371324063131908, 36.283214164089365 ] } },
{ "type": "Feature", "properties": { "OBJ_MNG_NO": "OBJ064777000000031", "PNT_SP_NO": 157042.0, "OBJ_KND_CD": "OBJ06", "OBJ_COM_DF": "OBJ0603", "PNT_SE": "03", "MAIN_ENTSE": "RM", "ENT_TY": null, "LMTT_HG": 0.0, "MVMN_DE": null, "JOB_SE_CD": null, "layer_ko": "지진해일긴급대피장소", "layer_en": "tsunami emergency evacuation site" }, "geometry": { "type": "Point", "coordinates": [ 129.376790733463565, 36.291846712075873 ] } },
{ "type": "Feature", "properties": { "OBJ_MNG_NO": "OBJ064777000000045", "PNT_SP_NO": 157043.0, "OBJ_KND_CD": "OBJ06", "OBJ_COM_DF": "OBJ0603", "PNT_SE": "03", "MAIN_ENTSE": "RM", "ENT_TY": null, "LMTT_HG": 0.0, "MVMN_DE": null, "JOB_SE_CD": null, "layer_ko": "지진해일긴급대피장소", "layer_en": "tsunami emergency evacuation site" }, "geometry": { "type": "Point", "coordinates": [ 129.378419680404221, 36.316782950161389 ] } },
{ "type": "Feature", "properties": { "OBJ_MNG_NO": "OBJ064777000000029", "PNT_SP_NO": 157044.0, "OBJ_KND_CD": "OBJ06", "OBJ_COM_DF": "OBJ0603", "PNT_SE": "03", "MAIN_ENTSE": "RM", "ENT_TY": null, "LMTT_HG": 0.0, "MVMN_DE": null, "JOB_SE_CD": null, "layer_ko": "지진해일긴급대피장소", "layer_en": "tsunami emergency evacuation site" }, "geometry": { "type": "Point", "coordinates": [ 129.378210047202089, 36.321231384063388 ] } },
{ "type": "Feature", "properties": { "OBJ_MNG_NO": "OBJ064777000000044", "PNT_SP_NO": 157045.0, "OBJ_KND_CD": "OBJ06", "OBJ_COM_DF": "OBJ0603", "PNT_SE": "03", "MAIN_ENTSE": "RM", "ENT_TY": null, "LMTT_HG": 0.0, "MVMN_DE": null, "JOB_SE_CD": null, "layer_ko": "지진해일긴급대피장소", "layer_en": "tsunami emergency evacuation site" }, "geometry": { "type": "Point", "coordinates": [ 129.381463349998739, 36.34040389805233 ] } },
{ "type": "Feature", "properties": { "OBJ_MNG_NO": "OBJ064777000000039", "PNT_SP_NO": 157047.0, "OBJ_KND_CD": "OBJ06", "OBJ_COM_DF": "OBJ0603", "PNT_SE": "03", "MAIN_ENTSE": "RM", "ENT_TY": null, "LMTT_HG": 0.0, "MVMN_DE": null, "JOB_SE_CD": null, "layer_ko": "지진해일긴급대피장소", "layer_en": "tsunami emergency evacuation site" }, "geometry": { "type": "Point", "coordinates": [ 129.382536002422228, 36.345579516621619 ] } },
{ "type": "Feature", "properties": { "OBJ_MNG_NO": "OBJ064777000000039", "PNT_SP_NO": 157048.0, "OBJ_KND_CD": "OBJ06", "OBJ_COM_DF": "OBJ0603", "PNT_SE": "03", "MAIN_ENTSE": "RS", "ENT_TY": null, "LMTT_HG": 0.0, "MVMN_DE": null, "JOB_SE_CD": null, "layer_ko": "지진해일긴급대피장소", "layer_en": "tsunami emergency evacuation site" }, "geometry": { "type": "Point", "coordinates": [ 129.383205785364453, 36.345536019515954 ] } },
{ "type": "Feature", "properties": { "OBJ_MNG_NO": "OBJ064777000000023", "PNT_SP_NO": 157049.0, "OBJ_KND_CD": "OBJ06", "OBJ_COM_DF": "OBJ0603", "PNT_SE": "03", "MAIN_ENTSE": "RM", "ENT_TY": null, "LMTT_HG": 0.0, "MVMN_DE": null, "JOB_SE_CD": null, "layer_ko": "지진해일긴급대피장소", "layer_en": "tsunami emergency evacuation site" }, "geometry": { "type": "Point", "coordinates": [ 129.385894836747696, 36.353129989442039 ] } },
{ "type": "Feature", "properties": { "OBJ_MNG_NO": "OBJ064777000000004", "PNT_SP_NO": 157050.0, "OBJ_KND_CD": "OBJ06", "OBJ_COM_DF": "OBJ0603", "PNT_SE": "03", "MAIN_ENTSE": "RM", "ENT_TY": null, "LMTT_HG": 0.0, "MVMN_DE": null, "JOB_SE_CD": null, "layer_ko": "지진해일긴급대피장소", "layer_en": "tsunami emergency evacuation site" }, "geometry": { "type": "Point", "coordinates": [ 129.380293352006277, 36.352797431984307 ] } },
{ "type": "Feature", "properties": { "OBJ_MNG_NO": "OBJ064777000000005", "PNT_SP_NO": 157106.0, "OBJ_KND_CD": "OBJ06", "OBJ_COM_DF": "OBJ0603", "PNT_SE": "03", "MAIN_ENTSE": "RM", "ENT_TY": null, "LMTT_HG": 0.0, "MVMN_DE": null, "JOB_SE_CD": null, "layer_ko": "지진해일긴급대피장소", "layer_en": "tsunami emergency evacuation site" }, "geometry": { "type": "Point", "coordinates": [ 129.380102009369892, 36.356615477092802 ] } },
{ "type": "Feature", "properties": { "OBJ_MNG_NO": "OBJ064777000000005", "PNT_SP_NO": 157107.0, "OBJ_KND_CD": "OBJ06", "OBJ_COM_DF": "OBJ0603", "PNT_SE": "03", "MAIN_ENTSE": "RS", "ENT_TY": null, "LMTT_HG": 0.0, "MVMN_DE": null, "JOB_SE_CD": null, "layer_ko": "지진해일긴급대피장소", "layer_en": "tsunami emergency evacuation site" }, "geometry": { "type": "Point", "coordinates": [ 129.379378233355538, 36.357133904658433 ] } },
{ "type": "Feature", "properties": { "OBJ_MNG_NO": "OBJ064777000000034", "PNT_SP_NO": 157051.0, "OBJ_KND_CD": "OBJ06", "OBJ_COM_DF": "OBJ0603", "PNT_SE": "03", "MAIN_ENTSE": "RM", "ENT_TY": null, "LMTT_HG": 0.0, "MVMN_DE": null, "JOB_SE_CD": null, "layer_ko": "지진해일긴급대피장소", "layer_en": "tsunami emergency evacuation site" }, "geometry": { "type": "Point", "coordinates": [ 129.392685349077084, 36.362196799168885 ] } },
{ "type": "Feature", "properties": { "OBJ_MNG_NO": "OBJ064777000000021", "PNT_SP_NO": 157052.0, "OBJ_KND_CD": "OBJ06", "OBJ_COM_DF": "OBJ0603", "PNT_SE": "03", "MAIN_ENTSE": "RM", "ENT_TY": null, "LMTT_HG": 0.0, "MVMN_DE": null, "JOB_SE_CD": null, "layer_ko": "지진해일긴급대피장소", "layer_en": "tsunami emergency evacuation site" }, "geometry": { "type": "Point", "coordinates": [ 129.389841934849585, 36.362237062513479 ] } },
{ "type": "Feature", "properties": { "OBJ_MNG_NO": "OBJ064777000000052", "PNT_SP_NO": 157053.0, "OBJ_KND_CD": "OBJ06", "OBJ_COM_DF": "OBJ0603", "PNT_SE": "03", "MAIN_ENTSE": "RM", "ENT_TY": null, "LMTT_HG": 0.0, "MVMN_DE": null, "JOB_SE_CD": null, "layer_ko": "지진해일긴급대피장소", "layer_en": "tsunami emergency evacuation site" }, "geometry": { "type": "Point", "coordinates": [ 129.375091694269372, 36.364889457903438 ] } },
{ "type": "Feature", "properties": { "OBJ_MNG_NO": "OBJ064777000000018", "PNT_SP_NO": 157054.0, "OBJ_KND_CD": "OBJ06", "OBJ_COM_DF": "OBJ0603", "PNT_SE": "03", "MAIN_ENTSE": "RM", "ENT_TY": null, "LMTT_HG": 0.0, "MVMN_DE": null, "JOB_SE_CD": null, "layer_ko": "지진해일긴급대피장소", "layer_en": "tsunami emergency evacuation site" }, "geometry": { "type": "Point", "coordinates": [ 129.393588191049275, 36.366063341467964 ] } },
{ "type": "Feature", "properties": { "OBJ_MNG_NO": "OBJ064777000000072", "PNT_SP_NO": 157055.0, "OBJ_KND_CD": "OBJ06", "OBJ_COM_DF": "OBJ0603", "PNT_SE": "03", "MAIN_ENTSE": "RM", "ENT_TY": null, "LMTT_HG": 0.0, "MVMN_DE": null, "JOB_SE_CD": null, "layer_ko": "지진해일긴급대피장소", "layer_en": "tsunami emergency evacuation site" }, "geometry": { "type": "Point", "coordinates": [ 129.394546519579706, 36.368583544403528 ] } },
{ "type": "Feature", "properties": { "OBJ_MNG_NO": "OBJ064777000000042", "PNT_SP_NO": 157056.0, "OBJ_KND_CD": "OBJ06", "OBJ_COM_DF": "OBJ0603", "PNT_SE": "03", "MAIN_ENTSE": "RM", "ENT_TY": null, "LMTT_HG": 0.0, "MVMN_DE": null, "JOB_SE_CD": null, "layer_ko": "지진해일긴급대피장소", "layer_en": "tsunami emergency evacuation site" }, "geometry": { "type": "Point", "coordinates": [ 129.395226627777078, 36.369127414796381 ] } },
{ "type": "Feature", "properties": { "OBJ_MNG_NO": "OBJ064777000000022", "PNT_SP_NO": 157057.0, "OBJ_KND_CD": "OBJ06", "OBJ_COM_DF": "OBJ0603", "PNT_SE": "03", "MAIN_ENTSE": "RM", "ENT_TY": null, "LMTT_HG": 0.0, "MVMN_DE": null, "JOB_SE_CD": null, "layer_ko": "지진해일긴급대피장소", "layer_en": "tsunami emergency evacuation site" }, "geometry": { "type": "Point", "coordinates": [ 129.403051091485679, 36.379683475332847 ] } },
{ "type": "Feature", "properties": { "OBJ_MNG_NO": "OBJ064777000000077", "PNT_SP_NO": 211768.0, "OBJ_KND_CD": "OBJ06", "OBJ_COM_DF": "OBJ0603", "PNT_SE": "03", "MAIN_ENTSE": "RM", "ENT_TY": null, "LMTT_HG": 0.0, "MVMN_DE": null, "JOB_SE_CD": null, "layer_ko": "지진해일긴급대피장소", "layer_en": "tsunami emergency evacuation site" }, "geometry": { "type": "Point", "coordinates": [ 129.427874206970699, 36.556529556449831 ] } },
{ "type": "Feature", "properties": { "OBJ_MNG_NO": "OBJ064777000000076", "PNT_SP_NO": 211770.0, "OBJ_KND_CD": "OBJ06", "OBJ_COM_DF": "OBJ0603", "PNT_SE": "03", "MAIN_ENTSE": "RM", "ENT_TY": null, "LMTT_HG": 0.0, "MVMN_DE": null, "JOB_SE_CD": null, "layer_ko": "지진해일긴급대피장소", "layer_en": "tsunami emergency evacuation site" }, "geometry": { "type": "Point", "coordinates": [ 129.42080035202585, 36.642121923488588 ] } },
{ "type": "Feature", "properties": { "OBJ_MNG_NO": "OBJ064777000000078", "PNT_SP_NO": 211769.0, "OBJ_KND_CD": "OBJ06", "OBJ_COM_DF": "OBJ0603", "PNT_SE": "03", "MAIN_ENTSE": "RM", "ENT_TY": null, "LMTT_HG": 0.0, "MVMN_DE": null, "JOB_SE_CD": null, "layer_ko": "지진해일긴급대피장소", "layer_en": "tsunami emergency evacuation site" }, "geometry": { "type": "Point", "coordinates": [ 129.438954888092525, 36.550173677007336 ] } },
{ "type": "Feature", "properties": { "OBJ_MNG_NO": "OBJ064777000000001", "PNT_SP_NO": 227429.0, "OBJ_KND_CD": "OBJ06", "OBJ_COM_DF": "OBJ0603", "PNT_SE": "03", "MAIN_ENTSE": "RM", "ENT_TY": null, "LMTT_HG": 0.0, "MVMN_DE": null, "JOB_SE_CD": null, "layer_ko": "지진해일긴급대피장소", "layer_en": "tsunami emergency evacuation site" }, "geometry": { "type": "Point", "coordinates": [ 129.400083569387505, 36.576511053008943 ] } },
{ "type": "Feature", "properties": { "OBJ_MNG_NO": "OBJ064777000000080", "PNT_SP_NO": 227422.0, "OBJ_KND_CD": "OBJ06", "OBJ_COM_DF": "OBJ0603", "PNT_SE": "03", "MAIN_ENTSE": "RM", "ENT_TY": null, "LMTT_HG": 0.0, "MVMN_DE": null, "JOB_SE_CD": null, "layer_ko": "지진해일긴급대피장소", "layer_en": "tsunami emergency evacuation site" }, "geometry": { "type": "Point", "coordinates": [ 129.404880758862333, 36.38217707776051 ] } },
{ "type": "Feature", "properties": { "OBJ_MNG_NO": "OBJ064777000000020", "PNT_SP_NO": 227527.0, "OBJ_KND_CD": "OBJ06", "OBJ_COM_DF": "OBJ0603", "PNT_SE": "03", "MAIN_ENTSE": "RM", "ENT_TY": null, "LMTT_HG": 0.0, "MVMN_DE": null, "JOB_SE_CD": null, "layer_ko": "지진해일긴급대피장소", "layer_en": "tsunami emergency evacuation site" }, "geometry": { "type": "Point", "coordinates": [ 129.379332385482456, 36.333731833318687 ] } },
{ "type": "Feature", "properties": { "OBJ_MNG_NO": "OBJ064777000000085", "PNT_SP_NO": 232107.0, "OBJ_KND_CD": "OBJ06", "OBJ_COM_DF": "OBJ0603", "PNT_SE": "03", "MAIN_ENTSE": "RM", "ENT_TY": null, "LMTT_HG": 0.0, "MVMN_DE": null, "JOB_SE_CD": null, "layer_ko": "지진해일긴급대피장소", "layer_en": "tsunami emergency evacuation site" }, "geometry": { "type": "Point", "coordinates": [ 129.386627926726845, 36.348737957093185 ] } },
{ "type": "Feature", "properties": { "OBJ_MNG_NO": "OBJ064777000000079", "PNT_SP_NO": 227404.0, "OBJ_KND_CD": "OBJ06", "OBJ_COM_DF": "OBJ0603", "PNT_SE": "03", "MAIN_ENTSE": "RM", "ENT_TY": null, "LMTT_HG": 0.0, "MVMN_DE": null, "JOB_SE_CD": null, "layer_ko": "지진해일긴급대피장소", "layer_en": "tsunami emergency evacuation site" }, "geometry": { "type": "Point", "coordinates": [ 129.409326826936592, 36.621025252681669 ] } },
{ "type": "Feature", "properties": { "OBJ_MNG_NO": "OBJ064777000000071", "PNT_SP_NO": 227508.0, "OBJ_KND_CD": "OBJ06", "OBJ_COM_DF": "OBJ0603", "PNT_SE": "03", "MAIN_ENTSE": "RM", "ENT_TY": null, "LMTT_HG": 0.0, "MVMN_DE": null, "JOB_SE_CD": null, "layer_ko": "지진해일긴급대피장소", "layer_en": "tsunami emergency evacuation site" }, "geometry": { "type": "Point", "coordinates": [ 129.412890758635228, 36.391975650041147 ] } },
{ "type": "Feature", "properties": { "OBJ_MNG_NO": "OBJ064777000000081", "PNT_SP_NO": 227424.0, "OBJ_KND_CD": "OBJ06", "OBJ_COM_DF": "OBJ0603", "PNT_SE": "03", "MAIN_ENTSE": "RM", "ENT_TY": null, "LMTT_HG": 0.0, "MVMN_DE": null, "JOB_SE_CD": null, "layer_ko": "지진해일긴급대피장소", "layer_en": "tsunami emergency evacuation site" }, "geometry": { "type": "Point", "coordinates": [ 129.377482530062508, 36.329245014312406 ] } },
{ "type": "Feature", "properties": { "OBJ_MNG_NO": "OBJ064777000000082", "PNT_SP_NO": 227425.0, "OBJ_KND_CD": "OBJ06", "OBJ_COM_DF": "OBJ0603", "PNT_SE": "03", "MAIN_ENTSE": "RM", "ENT_TY": null, "LMTT_HG": 0.0, "MVMN_DE": null, "JOB_SE_CD": null, "layer_ko": "지진해일긴급대피장소", "layer_en": "tsunami emergency evacuation site" }, "geometry": { "type": "Point", "coordinates": [ 129.431060378963139, 36.436467364594868 ] } },
{ "type": "Feature", "properties": { "OBJ_MNG_NO": "OBJ064777000000083", "PNT_SP_NO": 227426.0, "OBJ_KND_CD": "OBJ06", "OBJ_COM_DF": "OBJ0603", "PNT_SE": "03", "MAIN_ENTSE": "RM", "ENT_TY": null, "LMTT_HG": 0.0, "MVMN_DE": null, "JOB_SE_CD": null, "layer_ko": "지진해일긴급대피장소", "layer_en": "tsunami emergency evacuation site" }, "geometry": { "type": "Point", "coordinates": [ 129.428483482344234, 36.409212879922428 ] } },
{ "type": "Feature", "properties": { "OBJ_MNG_NO": "OBJ064777000000084", "PNT_SP_NO": 227428.0, "OBJ_KND_CD": "OBJ06", "OBJ_COM_DF": "OBJ0603", "PNT_SE": "03", "MAIN_ENTSE": "RM", "ENT_TY": null, "LMTT_HG": 0.0, "MVMN_DE": null, "JOB_SE_CD": null, "layer_ko": "지진해일긴급대피장소", "layer_en": "tsunami emergency evacuation site" }, "geometry": { "type": "Point", "coordinates": [ 129.402950938937181, 36.593733795437799 ] } },
{ "type": "Feature", "properties": { "OBJ_MNG_NO": "OBJ064777000000013", "PNT_SP_NO": 227431.0, "OBJ_KND_CD": "OBJ06", "OBJ_COM_DF": "OBJ0603", "PNT_SE": "03", "MAIN_ENTSE": "RM", "ENT_TY": null, "LMTT_HG": 0.0, "MVMN_DE": null, "JOB_SE_CD": null, "layer_ko": "지진해일긴급대피장소", "layer_en": "tsunami emergency evacuation site" }, "geometry": { "type": "Point", "coordinates": [ 129.379641861617415, 36.320706853258805 ] } },
{ "type": "Feature", "properties": { "OBJ_MNG_NO": "OBJ064777000000053", "PNT_SP_NO": 227437.0, "OBJ_KND_CD": "OBJ06", "OBJ_COM_DF": "OBJ0603", "PNT_SE": "03", "MAIN_ENTSE": "RM", "ENT_TY": null, "LMTT_HG": 0.0, "MVMN_DE": null, "JOB_SE_CD": null, "layer_ko": "지진해일긴급대피장소", "layer_en": "tsunami emergency evacuation site" }, "geometry": { "type": "Point", "coordinates": [ 129.385661498122573, 36.354499545436518 ] } },
{ "type": "Feature", "properties": { "OBJ_MNG_NO": "OBJ064777000000075", "PNT_SP_NO": 227434.0, "OBJ_KND_CD": "OBJ06", "OBJ_COM_DF": "OBJ0603", "PNT_SE": "03", "MAIN_ENTSE": "RM", "ENT_TY": null, "LMTT_HG": 0.0, "MVMN_DE": null, "JOB_SE_CD": null, "layer_ko": "지진해일긴급대피장소", "layer_en": "tsunami emergency evacuation site" }, "geometry": { "type": "Point", "coordinates": [ 129.434926707337723, 36.446708753638319 ] } },
{ "type": "Feature", "properties": { "OBJ_MNG_NO": "OBJ064777000000002", "PNT_SP_NO": 227435.0, "OBJ_KND_CD": "OBJ06", "OBJ_COM_DF": "OBJ0603", "PNT_SE": "03", "MAIN_ENTSE": "RM", "ENT_TY": null, "LMTT_HG": 0.0, "MVMN_DE": null, "JOB_SE_CD": null, "layer_ko": "지진해일긴급대피장소", "layer_en": "tsunami emergency evacuation site" }, "geometry": { "type": "Point", "coordinates": [ 129.411473654464032, 36.625672053987863 ] } },
{ "type": "Feature", "properties": { "OBJ_MNG_NO": "OBJ064777000000069", "PNT_SP_NO": 227438.0, "OBJ_KND_CD": "OBJ06", "OBJ_COM_DF": "OBJ0603", "PNT_SE": "03", "MAIN_ENTSE": "RM", "ENT_TY": null, "LMTT_HG": 0.0, "MVMN_DE": null, "JOB_SE_CD": null, "layer_ko": "지진해일긴급대피장소", "layer_en": "tsunami emergency evacuation site" }, "geometry": { "type": "Point", "coordinates": [ 129.408409658836746, 36.391815511170257 ] } },
{ "type": "Feature", "properties": { "OBJ_MNG_NO": "OBJ064777000000037", "PNT_SP_NO": 227440.0, "OBJ_KND_CD": "OBJ06", "OBJ_COM_DF": "OBJ0603", "PNT_SE": "03", "MAIN_ENTSE": "RM", "ENT_TY": null, "LMTT_HG": 0.0, "MVMN_DE": null, "JOB_SE_CD": null, "layer_ko": "지진해일긴급대피장소", "layer_en": "tsunami emergency evacuation site" }, "geometry": { "type": "Point", "coordinates": [ 129.368608249509123, 36.288313477886355 ] } },
{ "type": "Feature", "properties": { "OBJ_MNG_NO": "OBJ064777000000070", "PNT_SP_NO": 227498.0, "OBJ_KND_CD": "OBJ06", "OBJ_COM_DF": "OBJ0603", "PNT_SE": "03", "MAIN_ENTSE": "RM", "ENT_TY": null, "LMTT_HG": 0.0, "MVMN_DE": null, "JOB_SE_CD": null, "layer_ko": "지진해일긴급대피장소", "layer_en": "tsunami emergency evacuation site" }, "geometry": { "type": "Point", "coordinates": [ 129.442621071790654, 36.489963233760449 ] } }
]
}
