{
"type": "FeatureCollection",
"name": "samul_busst_point",
"crs": { "type": "name", "properties": { "name": "urn:ogc:def:crs:OGC:1.3:CRS84" } },
"features": [
{ "type": "Feature", "properties": { "OBJ_MNG_NO": "OBJ034777000148314", "PNT_SP_NO": 232081.0, "OBJ_KND_CD": "OBJ03", "OBJ_COM_DF": "OBJ0301", "PNT_SE": "04", "MAIN_ENTSE": "RM", "ENT_TY": null, "LMTT_HG": 0.0, "MVMN_DE": null, "JOB_SE_CD": null, "layer_ko": "버스정류장", "layer_en": "bus stop" }, "geometry": { "type": "Point", "coordinates": [ 129.272724225523177, 36.336111622303555 ] } },
{ "type": "Feature", "properties": { "OBJ_MNG_NO": "OBJ034777000148313", "PNT_SP_NO": 232078.0, "OBJ_KND_CD": "OBJ03", "OBJ_COM_DF": "OBJ0301", "PNT_SE": "04", "MAIN_ENTSE": "RM", "ENT_TY": null, "LMTT_HG": 0.0, "MVMN_DE": null, "JOB_SE_CD": null, "layer_ko": "버스정류장", "layer_en": "bus stop" }, "geometry": { "type": "Point", "coordinates": [ 129.377269124009302, 36.410681097872811 ] } },
{ "type": "Feature", "properties": { "OBJ_MNG_NO": "OBJ034777000148312", "PNT_SP_NO": 232077.0, "OBJ_KND_CD": "OBJ03", "OBJ_COM_DF": "OBJ0301", "PNT_SE": "04", "MAIN_ENTSE": "RM", "ENT_TY": null, "LMTT_HG": 0.0, "MVMN_DE": null, "JOB_SE_CD": null, "layer_ko": "버스정류장", "layer_en": "bus stop" }, "geometry": { "type": "Point", "coordinates": [ 129.36874725077223, 36.281418704535263 ] } }
]
}
