{
"type": "FeatureCollection",
"name": "samul_firehydr_point",
"crs": { "type": "name", "properties": { "name": "urn:ogc:def:crs:OGC:1.3:CRS84" } },
"features": [
{ "type": "Feature", "properties": { "OBJ_MNG_NO": "OBJ184792000000006", "PNT_SP_NO": 357567.0, "OBJ_KND_CD": "OBJ18", "OBJ_COM_DF": "OBJ1801", "PNT_SE": "04", "MAIN_ENTSE": "RM", "ENT_TY": null, "LMTT_HG": 0.0, "MVMN_DE": null, "JOB_SE_CD": null, "layer_ko": "소화전", "layer_en": "fire hydrant" }, "geometry": { "type": "Point", "coordinates": [ 128.823886428849704, 37.014719458258476 ] } },
{ "type": "Feature", "properties": { "OBJ_MNG_NO": "OBJ184792000000002", "PNT_SP_NO": 357563.0, "OBJ_KND_CD": "OBJ18", "OBJ_COM_DF": "OBJ1801", "PNT_SE": "04", "MAIN_ENTSE": "RM", "ENT_TY": null, "LMTT_HG": 0.0, "MVMN_DE": null, "JOB_SE_CD": null, "layer_ko": "소화전", "layer_en": "fire hydrant" }, "geometry": { "type": "Point", "coordinates": [ 128.739723944769736, 36.889727053328002 ] } },
{ "type": "Feature", "properties": { "OBJ_MNG_NO": "OBJ184792000000004", "PNT_SP_NO": 357565.0, "OBJ_KND_CD": "OBJ18", "OBJ_COM_DF": "OBJ1801", "PNT_SE": "04", "MAIN_ENTSE": "RM", "ENT_TY": null, "LMTT_HG": 0.0, "MVMN_DE": null, "JOB_SE_CD": null, "layer_ko": "소화전", "layer_en": "fire hydrant" }, "geometry": { "type": "Point", "coordinates": [ 129.058148757687746, 36.931976460307695 ] } },
{ "type": "Feature", "properties": { "OBJ_MNG_NO": "OBJ184792000000001", "PNT_SP_NO": 357562.0, "OBJ_KND_CD": "OBJ18", "OBJ_COM_DF": "OBJ1801", "PNT_SE": "04", "MAIN_ENTSE": "RM", "ENT_TY": null, "LMTT_HG": 0.0, "MVMN_DE": null, "JOB_SE_CD": null, "layer_ko": "소화전", "layer_en": "fire hydrant" }, "geometry": { "type": "Point", "coordinates": [ 128.816186755310667, 36.882900346697085 ] } },
{ "type": "Feature", "properties": { "OBJ_MNG_NO": "OBJ184792000000005", "PNT_SP_NO": 357566.0, "OBJ_KND_CD": "OBJ18", "OBJ_COM_DF": "OBJ1801", "PNT_SE": "04", "MAIN_ENTSE": "RM", "ENT_TY": null, "LMTT_HG": 0.0, "MVMN_DE": null, "JOB_SE_CD": null, "layer_ko": "소화전", "layer_en": "fire hydrant" }, "geometry": { "type": "Point", "coordinates": [ 128.849970549283057, 36.989569739051674 ] } },
{ "type": "Feature", "properties": { "OBJ_MNG_NO": "OBJ184792000000003", "PNT_SP_NO": 357564.0, "OBJ_KND_CD": "OBJ18", "OBJ_COM_DF": "OBJ1801", "PNT_SE": "04", "MAIN_ENTSE": "RM", "ENT_TY": null, "LMTT_HG": 0.0, "MVMN_DE": null, "JOB_SE_CD": null, "layer_ko": "소화전", "layer_en": "fire hydrant" }, "geometry": { "type": "Point", "coordinates": [ 128.735847111764087, 36.889841918036758 ] } }
]
}
