{
"type": "FeatureCollection",
"name": "shelters",
"crs": { "type": "name", "properties": { "name": "urn:ogc:def:crs:OGC:1.3:CRS84" } },
"features": [
{ "type": "Feature", "properties": { "element": "node", "id": 6054679983, "amenity": "shelter", "name": "Pavilion", "shelter_type": "lean_to", "ele": null, "leisure": null, "name:en": null }, "geometry": { "type": "Point", "coordinates": [ 129.3724043, 37.0992023 ] } },
{ "type": "Feature", "properties": { "element": "node", "id": 10252763993, "amenity": null, "name": "매화동산", "shelter_type": null, "ele": "48", "leisure": "park", "name:en": null }, "geometry": { "type": "Point", "coordinates": [ 129.3836688, 36.9266162 ] } },
{ "type": "Feature", "properties": { "element": "node", "id": 11434338110, "amenity": "shelter", "name": "불영정", "shelter_type": "gazebo", "ele": null, "leisure": null, "name:en": null }, "geometry": { "type": "Point", "coordinates": [ 129.3141766, 36.9608635 ] } },
{ "type": "Feature", "properties": { "element": "node", "id": 11435552552, "amenity": "shelter", "name": "선유정", "shelter_type": "gazebo", "ele": null, "leisure": null, "name:en": null }, "geometry": { "type": "Point", "coordinates": [ 129.30826540000001, 36.9597947 ] } },
{ "type": "Feature", "properties": { "element": "node", "id": 11470113880, "amenity": "shelter", "name": null, "shelter_type": "gazebo", "ele": null, "leisure": null, "name:en": null }, "geometry": { "type": "Point", "coordinates": [ 129.3855586, 37.0017041 ] } },
{ "type": "Feature", "properties": { "element": "node", "id": 11505317148, "amenity": "shelter", "name": "구산리청암정", "shelter_type": "gazebo", "ele": null, "leisure": null, "name:en": null }, "geometry": { "type": "Point", "coordinates": [ 129.3497092, 36.9301618 ] } },
{ "type": "Feature", "properties": { "element": "node", "id": 12123257139, "amenity": "shelter", "name": "정자", "shelter_type": "gazebo", "ele": null, "leisure": null, "name:en": null }, "geometry": { "type": "Point", "coordinates": [ 129.375166299999989, 36.9520814 ] } },
{ "type": "Feature", "properties": { "element": "node", "id": 12123257140, "amenity": "shelter", "name": "정자", "shelter_type": "gazebo", "ele": null, "leisure": null, "name:en": null }, "geometry": { "type": "Point", "coordinates": [ 129.375747, 36.952241 ] } },
{ "type": "Feature", "properties": { "element": "way", "id": 38485098, "amenity": null, "name": "봉평신라비사적공원", "shelter_type": null, "ele": null, "leisure": "park", "name:en": "Bongpyeongsillabisajeok Park" }, "geometry": { "type": "Point", "coordinates": [ 129.409302925241462, 37.043825231915136 ] } },
{ "type": "Feature", "properties": { "element": "way", "id": 484230343, "amenity": null, "name": "연호공원", "shelter_type": null, "ele": null, "leisure": "park", "name:en": null }, "geometry": { "type": "Point", "coordinates": [ 129.408295893361213, 36.994294486317933 ] } },
{ "type": "Feature", "properties": { "element": "way", "id": 528637449, "amenity": null, "name": "왕피천공원", "shelter_type": null, "ele": null, "leisure": "park", "name:en": null }, "geometry": { "type": "Point", "coordinates": [ 129.404269366362115, 36.970034473921544 ] } },
{ "type": "Feature", "properties": { "element": "way", "id": 1185229092, "amenity": null, "name": "영양국제밤하늘보호공원", "shelter_type": null, "ele": null, "leisure": "park", "name:en": null }, "geometry": { "type": "Point", "coordinates": [ 129.270282874474219, 36.837867169761068 ] } },
{ "type": "Feature", "properties": { "element": "way", "id": 1221074417, "amenity": null, "name": "흥부만세공원", "shelter_type": null, "ele": null, "leisure": "park", "name:en": null }, "geometry": { "type": "Point", "coordinates": [ 129.372719419689957, 37.106814035114326 ] } },
{ "type": "Feature", "properties": { "element": "way", "id": 1226640831, "amenity": null, "name": null, "shelter_type": null, "ele": null, "leisure": "park", "name:en": null }, "geometry": { "type": "Point", "coordinates": [ 129.417318538256211, 37.066286808460227 ] } },
{ "type": "Feature", "properties": { "element": "way", "id": 1226640832, "amenity": null, "name": null, "shelter_type": null, "ele": null, "leisure": "park", "name:en": null }, "geometry": { "type": "Point", "coordinates": [ 129.412875032825212, 37.06387484805235 ] } },
{ "type": "Feature", "properties": { "element": "way", "id": 1235566088, "amenity": null, "name": null, "shelter_type": null, "ele": null, "leisure": "park", "name:en": null }, "geometry": { "type": "Point", "coordinates": [ 129.385584234718607, 37.001685981527146 ] } },
{ "type": "Feature", "properties": { "element": "way", "id": 1236259705, "amenity": null, "name": "왕피천생태공원", "shelter_type": null, "ele": null, "leisure": "park", "name:en": null }, "geometry": { "type": "Point", "coordinates": [ 129.40424564630257, 36.96813023046672 ] } },
{ "type": "Feature", "properties": { "element": "way", "id": 1238127817, "amenity": null, "name": "격암남사고유적지공원", "shelter_type": null, "ele": null, "leisure": "park", "name:en": null }, "geometry": { "type": "Point", "coordinates": [ 129.360420849837112, 36.955597841701476 ] } },
{ "type": "Feature", "properties": { "element": "way", "id": 1238661779, "amenity": null, "name": "매화동산", "shelter_type": null, "ele": null, "leisure": "park", "name:en": null }, "geometry": { "type": "Point", "coordinates": [ 129.383696869716431, 36.926627856481304 ] } },
{ "type": "Feature", "properties": { "element": "way", "id": 1238661790, "amenity": null, "name": "울진기미독립만세공원", "shelter_type": null, "ele": null, "leisure": "park", "name:en": null }, "geometry": { "type": "Point", "coordinates": [ 129.383474877999561, 36.926095685615941 ] } },
{ "type": "Feature", "properties": { "element": "way", "id": 1238759449, "amenity": null, "name": "남벌열차카페공원", "shelter_type": null, "ele": null, "leisure": "park", "name:en": null }, "geometry": { "type": "Point", "coordinates": [ 129.379341486509475, 36.912570963397542 ] } },
{ "type": "Feature", "properties": { "element": "way", "id": 1241949000, "amenity": null, "name": "황금울진대게공원", "shelter_type": null, "ele": null, "leisure": "park", "name:en": null }, "geometry": { "type": "Point", "coordinates": [ 129.422454052339646, 36.860958737145907 ] } },
{ "type": "Feature", "properties": { "element": "way", "id": 1242421528, "amenity": null, "name": null, "shelter_type": null, "ele": null, "leisure": "park", "name:en": null }, "geometry": { "type": "Point", "coordinates": [ 129.44581098632824, 36.828207806111408 ] } },
{ "type": "Feature", "properties": { "element": "way", "id": 1266351757, "amenity": null, "name": "죽변등대공원", "shelter_type": null, "ele": null, "leisure": "park", "name:en": null }, "geometry": { "type": "Point", "coordinates": [ 129.428453214240335, 37.057937754227716 ] } },
{ "type": "Feature", "properties": { "element": "way", "id": 1272355332, "amenity": null, "name": "반딧불이생태숲공원", "shelter_type": null, "ele": null, "leisure": "park", "name:en": null }, "geometry": { "type": "Point", "coordinates": [ 129.264912655033982, 36.828626608376013 ] } },
{ "type": "Feature", "properties": { "element": "way", "id": 1284803361, "amenity": null, "name": "금강송에코리움", "shelter_type": null, "ele": null, "leisure": "park", "name:en": null }, "geometry": { "type": "Point", "coordinates": [ 129.212412044536848, 36.974570171948656 ] } }
]
}
