{
"type": "FeatureCollection",
"name": "shelters",
"crs": { "type": "name", "properties": { "name": "urn:ogc:def:crs:OGC:1.3:CRS84" } },
"features": [
{ "type": "Feature", "properties": { "element": "node", "id": 7836401327, "amenity": "community_centre", "name": "오상1리 마을회관", "shelter_type": null, "tourism": null, "leisure": null, "addr:city": null, "addr:country": null, "addr:housenumber": null, "addr:street": null, "addr:suburb": null, "name:ko": null, "building": null }, "geometry": { "type": "Point", "coordinates": [ 128.7514727, 36.3184581 ] } },
{ "type": "Feature", "properties": { "element": "node", "id": 7838335422, "amenity": "shelter", "name": null, "shelter_type": "gazebo", "tourism": null, "leisure": null, "addr:city": null, "addr:country": null, "addr:housenumber": null, "addr:street": null, "addr:suburb": null, "name:ko": null, "building": null }, "geometry": { "type": "Point", "coordinates": [ 128.757413500000013, 36.228977 ] } },
{ "type": "Feature", "properties": { "element": "node", "id": 8543222386, "amenity": "shelter", "name": "정자", "shelter_type": "gazebo", "tourism": "cabin", "leisure": null, "addr:city": null, "addr:country": null, "addr:housenumber": null, "addr:street": null, "addr:suburb": null, "name:ko": null, "building": null }, "geometry": { "type": "Point", "coordinates": [ 128.7853241, 36.2789917 ] } },
{ "type": "Feature", "properties": { "element": "node", "id": 8616626078, "amenity": "shelter", "name": "정자", "shelter_type": "gazebo", "tourism": "cabin", "leisure": null, "addr:city": null, "addr:country": null, "addr:housenumber": null, "addr:street": null, "addr:suburb": null, "name:ko": null, "building": null }, "geometry": { "type": "Point", "coordinates": [ 128.605133099999989, 36.247982 ] } },
{ "type": "Feature", "properties": { "element": "node", "id": 10216259833, "amenity": "shelter", "name": "문소루", "shelter_type": "gazebo", "tourism": null, "leisure": null, "addr:city": null, "addr:country": null, "addr:housenumber": null, "addr:street": null, "addr:suburb": null, "name:ko": null, "building": null }, "geometry": { "type": "Point", "coordinates": [ 128.69062790000001, 36.3549233 ] } },
{ "type": "Feature", "properties": { "element": "node", "id": 11179643370, "amenity": null, "name": "조문국 화장실", "shelter_type": null, "tourism": null, "leisure": "park", "addr:city": null, "addr:country": null, "addr:housenumber": null, "addr:street": null, "addr:suburb": null, "name:ko": null, "building": null }, "geometry": { "type": "Point", "coordinates": [ 128.6772509, 36.2734735 ] } },
{ "type": "Feature", "properties": { "element": "node", "id": 11182305540, "amenity": "shelter", "name": null, "shelter_type": "gazebo", "tourism": null, "leisure": null, "addr:city": null, "addr:country": null, "addr:housenumber": null, "addr:street": null, "addr:suburb": null, "name:ko": null, "building": null }, "geometry": { "type": "Point", "coordinates": [ 128.6767901, 36.2727163 ] } },
{ "type": "Feature", "properties": { "element": "node", "id": 11633930294, "amenity": "shelter", "name": "정자", "shelter_type": "gazebo", "tourism": null, "leisure": null, "addr:city": null, "addr:country": null, "addr:housenumber": null, "addr:street": null, "addr:suburb": null, "name:ko": null, "building": null }, "geometry": { "type": "Point", "coordinates": [ 128.6924167, 36.35522 ] } },
{ "type": "Feature", "properties": { "element": "node", "id": 11993380843, "amenity": "shelter", "name": "정자", "shelter_type": "gazebo", "tourism": null, "leisure": null, "addr:city": null, "addr:country": null, "addr:housenumber": null, "addr:street": null, "addr:suburb": null, "name:ko": null, "building": null }, "geometry": { "type": "Point", "coordinates": [ 128.66803680000001, 36.2913154 ] } },
{ "type": "Feature", "properties": { "element": "node", "id": 12432292778, "amenity": "shelter", "name": "정자", "shelter_type": "gazebo", "tourism": null, "leisure": null, "addr:city": null, "addr:country": null, "addr:housenumber": null, "addr:street": null, "addr:suburb": null, "name:ko": null, "building": null }, "geometry": { "type": "Point", "coordinates": [ 128.558958, 36.2387135 ] } },
{ "type": "Feature", "properties": { "element": "node", "id": 13076831314, "amenity": "shelter", "name": "정자", "shelter_type": "gazebo", "tourism": null, "leisure": null, "addr:city": null, "addr:country": null, "addr:housenumber": null, "addr:street": null, "addr:suburb": null, "name:ko": null, "building": null }, "geometry": { "type": "Point", "coordinates": [ 128.716, 36.2573725 ] } },
{ "type": "Feature", "properties": { "element": "node", "id": 13753839992, "amenity": "community_centre", "name": "노행2리 경로당", "shelter_type": null, "tourism": null, "leisure": null, "addr:city": "대구광역시", "addr:country": "KR", "addr:housenumber": "306.0", "addr:street": "노행길", "addr:suburb": "군위군 효령면", "name:ko": "노행2리 경로당", "building": null }, "geometry": { "type": "Point", "coordinates": [ 128.626740399999989, 36.2086914 ] } },
{ "type": "Feature", "properties": { "element": "node", "id": 13753840000, "amenity": "community_centre", "name": "정3리 경로당", "shelter_type": null, "tourism": null, "leisure": null, "addr:city": "대구광역시", "addr:country": "KR", "addr:housenumber": "Tue Jun 30 00:00:00 GMT+09:00 2026", "addr:street": "정3길", "addr:suburb": "군위군 군위읍", "name:ko": "정3리 경로당", "building": null }, "geometry": { "type": "Point", "coordinates": [ 128.5659641, 36.254448 ] } },
{ "type": "Feature", "properties": { "element": "node", "id": 13753853801, "amenity": "community_centre", "name": "하곡리 경로당", "shelter_type": null, "tourism": null, "leisure": null, "addr:city": "대구광역시", "addr:country": "KR", "addr:housenumber": "35.0", "addr:street": "하곡1길", "addr:suburb": "군위군 군위읍", "name:ko": "하곡리 경로당", "building": null }, "geometry": { "type": "Point", "coordinates": [ 128.584095, 36.2388278 ] } },
{ "type": "Feature", "properties": { "element": "node", "id": 13753853802, "amenity": "community_centre", "name": "하곡리(속골) 경로당", "shelter_type": null, "tourism": null, "leisure": null, "addr:city": "대구광역시", "addr:country": "KR", "addr:housenumber": "14.0", "addr:street": "하곡2길", "addr:suburb": "군위군 군위읍", "name:ko": "하곡리(속골) 경로당", "building": null }, "geometry": { "type": "Point", "coordinates": [ 128.5922529, 36.2308171 ] } },
{ "type": "Feature", "properties": { "element": "node", "id": 13753853803, "amenity": "community_centre", "name": "용대리 경로당", "shelter_type": null, "tourism": null, "leisure": null, "addr:city": "대구광역시", "addr:country": "KR", "addr:housenumber": "5.0", "addr:street": "용대2길", "addr:suburb": "군위군 군위읍", "name:ko": "용대리 경로당", "building": null }, "geometry": { "type": "Point", "coordinates": [ 128.6012079, 36.2319952 ] } },
{ "type": "Feature", "properties": { "element": "node", "id": 13753853804, "amenity": "community_centre", "name": "상곡리 경로당", "shelter_type": null, "tourism": null, "leisure": null, "addr:city": "대구광역시", "addr:country": "KR", "addr:housenumber": "194.0", "addr:street": "상곡길", "addr:suburb": "군위군 군위읍", "name:ko": "상곡리 경로당", "building": null }, "geometry": { "type": "Point", "coordinates": [ 128.6054297, 36.2475545 ] } },
{ "type": "Feature", "properties": { "element": "node", "id": 13753853805, "amenity": "community_centre", "name": "광현1리 경로당", "shelter_type": null, "tourism": null, "leisure": null, "addr:city": "대구광역시", "addr:country": "KR", "addr:housenumber": "617.0", "addr:street": "군위금성로", "addr:suburb": "군위군 군위읍", "name:ko": "광현1리 경로당", "building": null }, "geometry": { "type": "Point", "coordinates": [ 128.629965, 36.2467724 ] } },
{ "type": "Feature", "properties": { "element": "node", "id": 13753853806, "amenity": "community_centre", "name": "광현2리 경로당", "shelter_type": null, "tourism": null, "leisure": null, "addr:city": "대구광역시", "addr:country": "KR", "addr:housenumber": "66.0", "addr:street": "장대길", "addr:suburb": "군위군 군위읍", "name:ko": "광현2리 경로당", "building": null }, "geometry": { "type": "Point", "coordinates": [ 128.6210644, 36.2526421 ] } },
{ "type": "Feature", "properties": { "element": "node", "id": 13753853807, "amenity": "community_centre", "name": "광현3리 경로당", "shelter_type": null, "tourism": null, "leisure": null, "addr:city": "대구광역시", "addr:country": "KR", "addr:housenumber": "23.0", "addr:street": "광현길", "addr:suburb": "군위군 군위읍", "name:ko": "광현3리 경로당", "building": null }, "geometry": { "type": "Point", "coordinates": [ 128.6117012, 36.2376664 ] } },
{ "type": "Feature", "properties": { "element": "node", "id": 13753853817, "amenity": "community_centre", "name": "대북1리 경로당", "shelter_type": null, "tourism": null, "leisure": null, "addr:city": "대구광역시", "addr:country": "KR", "addr:housenumber": "8.0", "addr:street": "대북1길", "addr:suburb": "군위군 군위읍", "name:ko": "대북1리 경로당", "building": null }, "geometry": { "type": "Point", "coordinates": [ 128.564655499999986, 36.2691708 ] } },
{ "type": "Feature", "properties": { "element": "node", "id": 13753853818, "amenity": "community_centre", "name": "대북2리 경로당", "shelter_type": null, "tourism": null, "leisure": null, "addr:city": "대구광역시", "addr:country": "KR", "addr:housenumber": "Wed Apr 01 00:00:00 GMT+09:00 1970", "addr:street": "대북길", "addr:suburb": "군위군 군위읍", "name:ko": "대북2리 경로당", "building": null }, "geometry": { "type": "Point", "coordinates": [ 128.5589851, 36.2593238 ] } },
{ "type": "Feature", "properties": { "element": "node", "id": 13753853819, "amenity": "community_centre", "name": "오곡리 경로당", "shelter_type": null, "tourism": null, "leisure": null, "addr:city": "대구광역시", "addr:country": "KR", "addr:housenumber": "Fri Apr 01 00:00:00 GMT+09:00 1960", "addr:street": "오곡길", "addr:suburb": "군위군 군위읍", "name:ko": "오곡리 경로당", "building": null }, "geometry": { "type": "Point", "coordinates": [ 128.5833356, 36.2750885 ] } },
{ "type": "Feature", "properties": { "element": "node", "id": 13753853820, "amenity": "community_centre", "name": "정1리 경로당", "shelter_type": null, "tourism": null, "leisure": null, "addr:city": "대구광역시", "addr:country": "KR", "addr:housenumber": "Wed Dec 16 00:00:00 GMT+09:00 2026", "addr:street": "정1길", "addr:suburb": "군위군 군위읍", "name:ko": "정1리 경로당", "building": null }, "geometry": { "type": "Point", "coordinates": [ 128.5704925, 36.247234 ] } },
{ "type": "Feature", "properties": { "element": "node", "id": 13753853821, "amenity": "community_centre", "name": "정2리 경로당", "shelter_type": null, "tourism": null, "leisure": null, "addr:city": "대구광역시", "addr:country": "KR", "addr:housenumber": "18.0", "addr:street": "정2길", "addr:suburb": "군위군 군위읍", "name:ko": "정2리 경로당", "building": null }, "geometry": { "type": "Point", "coordinates": [ 128.5694177, 36.249672 ] } },
{ "type": "Feature", "properties": { "element": "way", "id": 481321095, "amenity": null, "name": "군위 생활체육공원", "shelter_type": null, "tourism": null, "leisure": "park", "addr:city": null, "addr:country": null, "addr:housenumber": null, "addr:street": null, "addr:suburb": null, "name:ko": null, "building": null }, "geometry": { "type": "Point", "coordinates": [ 128.562039714402317, 36.240236831535803 ] } },
{ "type": "Feature", "properties": { "element": "way", "id": 777890475, "amenity": null, "name": null, "shelter_type": null, "tourism": null, "leisure": "park", "addr:city": null, "addr:country": null, "addr:housenumber": null, "addr:street": null, "addr:suburb": null, "name:ko": null, "building": null }, "geometry": { "type": "Point", "coordinates": [ 128.823326187967723, 36.257570584380531 ] } },
{ "type": "Feature", "properties": { "element": "way", "id": 1083753464, "amenity": null, "name": "조문국 사적지", "shelter_type": null, "tourism": null, "leisure": "park", "addr:city": null, "addr:country": null, "addr:housenumber": null, "addr:street": null, "addr:suburb": null, "name:ko": null, "building": null }, "geometry": { "type": "Point", "coordinates": [ 128.675585508942333, 36.274278227368953 ] } },
{ "type": "Feature", "properties": { "element": "way", "id": 1251530667, "amenity": null, "name": null, "shelter_type": null, "tourism": null, "leisure": "park", "addr:city": null, "addr:country": null, "addr:housenumber": null, "addr:street": null, "addr:suburb": null, "name:ko": null, "building": null }, "geometry": { "type": "Point", "coordinates": [ 128.691423567874921, 36.354487016973522 ] } },
{ "type": "Feature", "properties": { "element": "way", "id": 1251530669, "amenity": "shelter", "name": "정자", "shelter_type": "gazebo", "tourism": null, "leisure": null, "addr:city": null, "addr:country": null, "addr:housenumber": null, "addr:street": null, "addr:suburb": null, "name:ko": null, "building": "yes" }, "geometry": { "type": "Point", "coordinates": [ 128.695399711808875, 36.341402430655094 ] } },
{ "type": "Feature", "properties": { "element": "way", "id": 1251530671, "amenity": null, "name": null, "shelter_type": null, "tourism": null, "leisure": "park", "addr:city": null, "addr:country": null, "addr:housenumber": null, "addr:street": null, "addr:suburb": null, "name:ko": null, "building": null }, "geometry": { "type": "Point", "coordinates": [ 128.691658216436281, 36.350509079804077 ] } },
{ "type": "Feature", "properties": { "element": "way", "id": 1251530672, "amenity": null, "name": null, "shelter_type": null, "tourism": null, "leisure": "park", "addr:city": null, "addr:country": null, "addr:housenumber": null, "addr:street": null, "addr:suburb": null, "name:ko": null, "building": null }, "geometry": { "type": "Point", "coordinates": [ 128.692156158264936, 36.347556345321273 ] } },
{ "type": "Feature", "properties": { "element": "way", "id": 1343635573, "amenity": null, "name": "군위힐링도시숲", "shelter_type": null, "tourism": null, "leisure": "park", "addr:city": null, "addr:country": null, "addr:housenumber": null, "addr:street": null, "addr:suburb": null, "name:ko": null, "building": null }, "geometry": { "type": "Point", "coordinates": [ 128.559375950388926, 36.238267517758558 ] } },
{ "type": "Feature", "properties": { "element": "way", "id": 1422937644, "amenity": null, "name": null, "shelter_type": null, "tourism": null, "leisure": "park", "addr:city": null, "addr:country": null, "addr:housenumber": null, "addr:street": null, "addr:suburb": null, "name:ko": null, "building": null }, "geometry": { "type": "Point", "coordinates": [ 128.717289562034239, 36.257017661741273 ] } }
]
}
