{
"type": "FeatureCollection",
"name": "shelters",
"crs": { "type": "name", "properties": { "name": "urn:ogc:def:crs:OGC:1.3:CRS84" } },
"features": [
{ "type": "Feature", "properties": { "element": "node", "id": 8941051650, "amenity": "shelter", "name": "정자", "shelter_type": "gazebo", "tourism": "cabin", "description": null, "leisure": null, "name:ko": null, "name:en": null, "building": null }, "geometry": { "type": "Point", "coordinates": [ 129.2829437, 36.3234177 ] } },
{ "type": "Feature", "properties": { "element": "node", "id": 11735676098, "amenity": "shelter", "name": "고래불 봉송정", "shelter_type": "gazebo", "tourism": null, "description": null, "leisure": null, "name:ko": null, "name:en": null, "building": null }, "geometry": { "type": "Point", "coordinates": [ 129.4184415, 36.5725297 ] } },
{ "type": "Feature", "properties": { "element": "node", "id": 11752227672, "amenity": "shelter", "name": "도해단", "shelter_type": "gazebo", "tourism": null, "description": null, "leisure": null, "name:ko": null, "name:en": null, "building": null }, "geometry": { "type": "Point", "coordinates": [ 129.4322604, 36.5603215 ] } },
{ "type": "Feature", "properties": { "element": "node", "id": 11753488309, "amenity": "shelter", "name": "관어대", "shelter_type": "gazebo", "tourism": null, "description": null, "leisure": null, "name:ko": null, "name:en": null, "building": null }, "geometry": { "type": "Point", "coordinates": [ 129.4251462, 36.5610466 ] } },
{ "type": "Feature", "properties": { "element": "node", "id": 11755003590, "amenity": "shelter", "name": null, "shelter_type": "gazebo", "tourism": null, "description": null, "leisure": null, "name:ko": null, "name:en": null, "building": null }, "geometry": { "type": "Point", "coordinates": [ 129.431554799999986, 36.5274234 ] } },
{ "type": "Feature", "properties": { "element": "node", "id": 11755003676, "amenity": "shelter", "name": null, "shelter_type": "gazebo", "tourism": null, "description": null, "leisure": null, "name:ko": null, "name:en": null, "building": null }, "geometry": { "type": "Point", "coordinates": [ 129.43203840000001, 36.5199418 ] } },
{ "type": "Feature", "properties": { "element": "node", "id": 11768349565, "amenity": "shelter", "name": "만호정", "shelter_type": "gazebo", "tourism": null, "description": null, "leisure": null, "name:ko": null, "name:en": null, "building": null }, "geometry": { "type": "Point", "coordinates": [ 129.4525844, 36.5087291 ] } },
{ "type": "Feature", "properties": { "element": "node", "id": 11936363088, "amenity": "shelter", "name": null, "shelter_type": "gazebo", "tourism": null, "description": null, "leisure": null, "name:ko": null, "name:en": null, "building": null }, "geometry": { "type": "Point", "coordinates": [ 129.4022349, 36.4192236 ] } },
{ "type": "Feature", "properties": { "element": "node", "id": 12014304659, "amenity": "shelter", "name": "경북대종각", "shelter_type": "gazebo", "tourism": null, "description": null, "leisure": null, "name:ko": null, "name:en": null, "building": null }, "geometry": { "type": "Point", "coordinates": [ 129.3850445, 36.3504452 ] } },
{ "type": "Feature", "properties": { "element": "node", "id": 12019767990, "amenity": "shelter", "name": null, "shelter_type": null, "tourism": null, "description": null, "leisure": null, "name:ko": null, "name:en": null, "building": null }, "geometry": { "type": "Point", "coordinates": [ 129.407446099999987, 36.3895592 ] } },
{ "type": "Feature", "properties": { "element": "node", "id": 12187916345, "amenity": "shelter", "name": "침수정", "shelter_type": "gazebo", "tourism": null, "description": null, "leisure": null, "name:ko": null, "name:en": null, "building": null }, "geometry": { "type": "Point", "coordinates": [ 129.2668521, 36.3306992 ] } },
{ "type": "Feature", "properties": { "element": "node", "id": 12187916547, "amenity": "shelter", "name": null, "shelter_type": "gazebo", "tourism": null, "description": null, "leisure": null, "name:ko": null, "name:en": null, "building": null }, "geometry": { "type": "Point", "coordinates": [ 129.259917699999988, 36.328687 ] } },
{ "type": "Feature", "properties": { "element": "node", "id": 12334567646, "amenity": "shelter", "name": null, "shelter_type": "gazebo", "tourism": null, "description": "정자", "leisure": null, "name:ko": null, "name:en": null, "building": null }, "geometry": { "type": "Point", "coordinates": [ 129.3470067, 36.5658907 ] } },
{ "type": "Feature", "properties": { "element": "node", "id": 12334567647, "amenity": "shelter", "name": null, "shelter_type": "gazebo", "tourism": null, "description": "정자", "leisure": null, "name:ko": null, "name:en": null, "building": null }, "geometry": { "type": "Point", "coordinates": [ 129.3447074, 36.5655441 ] } },
{ "type": "Feature", "properties": { "element": "node", "id": 12697899496, "amenity": "shelter", "name": null, "shelter_type": "gazebo", "tourism": null, "description": null, "leisure": null, "name:ko": null, "name:en": null, "building": null }, "geometry": { "type": "Point", "coordinates": [ 129.4019773, 36.5076284 ] } },
{ "type": "Feature", "properties": { "element": "way", "id": 636454265, "amenity": null, "name": "우곡공원", "shelter_type": null, "tourism": null, "description": null, "leisure": "park", "name:ko": null, "name:en": null, "building": null }, "geometry": { "type": "Point", "coordinates": [ 129.374953499333913, 36.408035349848973 ] } },
{ "type": "Feature", "properties": { "element": "way", "id": 651645183, "amenity": null, "name": "영덕해파랑공원", "shelter_type": null, "tourism": null, "description": null, "leisure": "park", "name:ko": "영덕해파랑공원", "name:en": null, "building": null }, "geometry": { "type": "Point", "coordinates": [ 129.3930052104526, 36.360501336716034 ] } },
{ "type": "Feature", "properties": { "element": "way", "id": 651840236, "amenity": null, "name": "삼사해상공원", "shelter_type": null, "tourism": null, "description": null, "leisure": "park", "name:ko": "삼사해상공원", "name:en": "Samsa Marine Park", "building": null }, "geometry": { "type": "Point", "coordinates": [ 129.385277725230594, 36.348555285574584 ] } },
{ "type": "Feature", "properties": { "element": "way", "id": 1262214883, "amenity": null, "name": "경북동해안지질공원(고래불 해안)", "shelter_type": null, "tourism": null, "description": null, "leisure": "park", "name:ko": null, "name:en": null, "building": null }, "geometry": { "type": "Point", "coordinates": [ 129.412675146802826, 36.599614574301299 ] } },
{ "type": "Feature", "properties": { "element": "way", "id": 1263116405, "amenity": "shelter", "name": "고래불 봉송정", "shelter_type": "gazebo", "tourism": null, "description": null, "leisure": null, "name:ko": null, "name:en": null, "building": "yes" }, "geometry": { "type": "Point", "coordinates": [ 129.418443451853221, 36.572524632463939 ] } },
{ "type": "Feature", "properties": { "element": "way", "id": 1263354657, "amenity": null, "name": "거무역리공원", "shelter_type": null, "tourism": null, "description": null, "leisure": "park", "name:ko": null, "name:en": null, "building": null }, "geometry": { "type": "Point", "coordinates": [ 129.394804060114296, 36.583948957994522 ] } },
{ "type": "Feature", "properties": { "element": "way", "id": 1265056082, "amenity": null, "name": null, "shelter_type": null, "tourism": null, "description": null, "leisure": "park", "name:ko": null, "name:en": null, "building": null }, "geometry": { "type": "Point", "coordinates": [ 129.432671840739715, 36.559173780368525 ] } },
{ "type": "Feature", "properties": { "element": "way", "id": 1265243318, "amenity": "shelter", "name": "관어대", "shelter_type": "gazebo", "tourism": null, "description": null, "leisure": null, "name:ko": null, "name:en": null, "building": "yes" }, "geometry": { "type": "Point", "coordinates": [ 129.425203764314773, 36.561034767522479 ] } },
{ "type": "Feature", "properties": { "element": "way", "id": 1265243366, "amenity": null, "name": null, "shelter_type": null, "tourism": null, "description": null, "leisure": "park", "name:ko": null, "name:en": null, "building": null }, "geometry": { "type": "Point", "coordinates": [ 129.43406310467816, 36.557559429644471 ] } },
{ "type": "Feature", "properties": { "element": "way", "id": 1265261945, "amenity": null, "name": null, "shelter_type": null, "tourism": null, "description": null, "leisure": "park", "name:ko": null, "name:en": null, "building": null }, "geometry": { "type": "Point", "coordinates": [ 129.405164217563367, 36.550860938914653 ] } },
{ "type": "Feature", "properties": { "element": "way", "id": 1265261971, "amenity": null, "name": null, "shelter_type": null, "tourism": null, "description": null, "leisure": "park", "name:ko": null, "name:en": null, "building": null }, "geometry": { "type": "Point", "coordinates": [ 129.415059098009607, 36.543066438065054 ] } },
{ "type": "Feature", "properties": { "element": "way", "id": 1265682697, "amenity": null, "name": null, "shelter_type": null, "tourism": null, "description": null, "leisure": "park", "name:ko": null, "name:en": null, "building": null }, "geometry": { "type": "Point", "coordinates": [ 129.424433805089194, 36.55523351106303 ] } },
{ "type": "Feature", "properties": { "element": "way", "id": 1266349002, "amenity": null, "name": null, "shelter_type": null, "tourism": null, "description": null, "leisure": "park", "name:ko": null, "name:en": null, "building": null }, "geometry": { "type": "Point", "coordinates": [ 129.404230004651595, 36.530600652015956 ] } },
{ "type": "Feature", "properties": { "element": "way", "id": 1266349003, "amenity": null, "name": "전통생활 정신문화 체험지구공원", "shelter_type": null, "tourism": null, "description": null, "leisure": "park", "name:ko": null, "name:en": null, "building": null }, "geometry": { "type": "Point", "coordinates": [ 129.413328679703795, 36.538704098588859 ] } },
{ "type": "Feature", "properties": { "element": "way", "id": 1268306636, "amenity": null, "name": "경북동해안국가지질공원(경정리 해안)", "shelter_type": null, "tourism": null, "description": null, "leisure": "park", "name:ko": null, "name:en": null, "building": null }, "geometry": { "type": "Point", "coordinates": [ 129.44228637078146, 36.4878860685766 ] } },
{ "type": "Feature", "properties": { "element": "way", "id": 1268814324, "amenity": null, "name": null, "shelter_type": null, "tourism": null, "description": null, "leisure": "park", "name:ko": null, "name:en": null, "building": null }, "geometry": { "type": "Point", "coordinates": [ 129.346965777247391, 36.546660645930857 ] } },
{ "type": "Feature", "properties": { "element": "way", "id": 1274680328, "amenity": null, "name": "지품팡팡놀이터", "shelter_type": null, "tourism": null, "description": null, "leisure": "park", "name:ko": null, "name:en": null, "building": null }, "geometry": { "type": "Point", "coordinates": [ 129.28211841483602, 36.449585393440323 ] } },
{ "type": "Feature", "properties": { "element": "way", "id": 1275355367, "amenity": null, "name": null, "shelter_type": null, "tourism": null, "description": null, "leisure": "park", "name:ko": null, "name:en": null, "building": null }, "geometry": { "type": "Point", "coordinates": [ 129.403172493765965, 36.519213978280746 ] } },
{ "type": "Feature", "properties": { "element": "way", "id": 1275355419, "amenity": null, "name": "신돌석장군공원", "shelter_type": null, "tourism": null, "description": null, "leisure": "park", "name:ko": null, "name:en": null, "building": null }, "geometry": { "type": "Point", "coordinates": [ 129.396007468171092, 36.514475019557487 ] } },
{ "type": "Feature", "properties": { "element": "way", "id": 1275355443, "amenity": null, "name": "고래산마을", "shelter_type": null, "tourism": null, "description": null, "leisure": "park", "name:ko": null, "name:en": null, "building": null }, "geometry": { "type": "Point", "coordinates": [ 129.404077698230111, 36.509035743604336 ] } },
{ "type": "Feature", "properties": { "element": "way", "id": 1283821428, "amenity": null, "name": "영덕해맞이공원", "shelter_type": null, "tourism": null, "description": null, "leisure": "park", "name:ko": "영덕해맞이공원", "name:en": "Haemajigongwon (Sunset Park)", "building": null }, "geometry": { "type": "Point", "coordinates": [ 129.434841630602108, 36.427491143762545 ] } },
{ "type": "Feature", "properties": { "element": "way", "id": 1286176691, "amenity": null, "name": "영덕군산림생태문화체험공원", "shelter_type": null, "tourism": null, "description": null, "leisure": "park", "name:ko": null, "name:en": null, "building": null }, "geometry": { "type": "Point", "coordinates": [ 129.417170650773784, 36.421411810485701 ] } },
{ "type": "Feature", "properties": { "element": "way", "id": 1289252510, "amenity": null, "name": null, "shelter_type": null, "tourism": null, "description": null, "leisure": "park", "name:ko": null, "name:en": null, "building": null }, "geometry": { "type": "Point", "coordinates": [ 129.376891299720569, 36.413224069439266 ] } },
{ "type": "Feature", "properties": { "element": "way", "id": 1290813833, "amenity": null, "name": null, "shelter_type": null, "tourism": null, "description": null, "leisure": "park", "name:ko": null, "name:en": null, "building": null }, "geometry": { "type": "Point", "coordinates": [ 129.374751637673455, 36.408609211402911 ] } },
{ "type": "Feature", "properties": { "element": "way", "id": 1292563202, "amenity": null, "name": "삼각주공원", "shelter_type": null, "tourism": null, "description": null, "leisure": "park", "name:ko": null, "name:en": null, "building": null }, "geometry": { "type": "Point", "coordinates": [ 129.371407068812829, 36.40532811695897 ] } },
{ "type": "Feature", "properties": { "element": "way", "id": 1292902413, "amenity": null, "name": null, "shelter_type": null, "tourism": null, "description": null, "leisure": "park", "name:ko": null, "name:en": null, "building": null }, "geometry": { "type": "Point", "coordinates": [ 129.369565789554741, 36.398488471470905 ] } },
{ "type": "Feature", "properties": { "element": "way", "id": 1292902462, "amenity": null, "name": null, "shelter_type": null, "tourism": null, "description": null, "leisure": "park", "name:ko": null, "name:en": null, "building": null }, "geometry": { "type": "Point", "coordinates": [ 129.368851471296779, 36.38937691928129 ] } },
{ "type": "Feature", "properties": { "element": "way", "id": 1292902466, "amenity": null, "name": null, "shelter_type": null, "tourism": null, "description": null, "leisure": "park", "name:ko": null, "name:en": null, "building": null }, "geometry": { "type": "Point", "coordinates": [ 129.366783839957407, 36.390317868374439 ] } },
{ "type": "Feature", "properties": { "element": "way", "id": 1293643930, "amenity": null, "name": "천전공원", "shelter_type": null, "tourism": null, "description": null, "leisure": "park", "name:ko": null, "name:en": null, "building": null }, "geometry": { "type": "Point", "coordinates": [ 129.358192924855189, 36.422707092530452 ] } },
{ "type": "Feature", "properties": { "element": "way", "id": 1295989981, "amenity": null, "name": null, "shelter_type": null, "tourism": null, "description": null, "leisure": "park", "name:ko": null, "name:en": null, "building": null }, "geometry": { "type": "Point", "coordinates": [ 129.376806550031574, 36.361984970854422 ] } },
{ "type": "Feature", "properties": { "element": "way", "id": 1300788864, "amenity": null, "name": "송이생태공원", "shelter_type": null, "tourism": null, "description": null, "leisure": "park", "name:ko": null, "name:en": null, "building": null }, "geometry": { "type": "Point", "coordinates": [ 129.283330939146396, 36.448289639555057 ] } },
{ "type": "Feature", "properties": { "element": "way", "id": 1300788876, "amenity": null, "name": "송이광장", "shelter_type": null, "tourism": null, "description": null, "leisure": "park", "name:ko": null, "name:en": null, "building": null }, "geometry": { "type": "Point", "coordinates": [ 129.279286201541595, 36.449167289050521 ] } },
{ "type": "Feature", "properties": { "element": "way", "id": 1302991028, "amenity": null, "name": null, "shelter_type": null, "tourism": null, "description": null, "leisure": "park", "name:ko": null, "name:en": null, "building": null }, "geometry": { "type": "Point", "coordinates": [ 129.329544749777142, 36.324349669783295 ] } },
{ "type": "Feature", "properties": { "element": "way", "id": 1316890838, "amenity": null, "name": "옥계솟대공원", "shelter_type": null, "tourism": null, "description": null, "leisure": "park", "name:ko": null, "name:en": null, "building": null }, "geometry": { "type": "Point", "coordinates": [ 129.259739796200648, 36.328662550097071 ] } },
{ "type": "Feature", "properties": { "element": "way", "id": 1361063359, "amenity": null, "name": "영덕군민공원", "shelter_type": null, "tourism": null, "description": null, "leisure": "park", "name:ko": null, "name:en": null, "building": null }, "geometry": { "type": "Point", "coordinates": [ 129.369939654668997, 36.418431274367187 ] } }
]
}
