{
"type": "FeatureCollection",
"name": "buildings",
"crs": { "type": "name", "properties": { "name": "urn:ogc:def:crs:OGC:1.3:CRS84" } },
"features": [
{ "type": "Feature", "properties": { "element": "relation", "id": 17749092, "building": "yes", "building:levels": null, "name": null, "name:ko": null, "name:en": null, "amenity": null, "shop": null, "office": null, "tourism": null, "healthcare": null, "addr:street": null, "addr:housenumber": null, "start_date": null, "centroid_x_5179": 1169631.5152904568, "centroid_y_5179": 1819642.8904629138, "footprint_area_m2": 1017.2297914040922 }, "geometry": { "type": "Polygon", "coordinates": [ [ [ 129.3906642, 36.3594899 ], [ 129.3909265, 36.3592084 ], [ 129.3907374, 36.3590872 ], [ 129.3903309, 36.3592329 ], [ 129.3903695, 36.3592902 ], [ 129.3904142, 36.3593328 ], [ 129.3904732, 36.3593753 ], [ 129.3906642, 36.3594899 ] ], [ [ 129.390589, 36.3593393 ], [ 129.3905504, 36.3593066 ], [ 129.390511800000013, 36.3592558 ], [ 129.3907415, 36.3591789 ], [ 129.39078520000001, 36.35921 ], [ 129.390638599999988, 36.3593594 ], [ 129.390589, 36.3593393 ] ] ] } },
{ "type": "Feature", "properties": { "element": "way", "id": 545750039, "building": "yes", "building:levels": null, "name": "영덕버스터미널", "name:ko": null, "name:en": null, "amenity": "bus_station", "shop": null, "office": null, "tourism": null, "healthcare": null, "addr:street": null, "addr:housenumber": null, "start_date": null, "centroid_x_5179": 1167895.2020155664, "centroid_y_5179": 1825735.5168886746, "footprint_area_m2": 1073.6648427518912 }, "geometry": { "type": "Polygon", "coordinates": [ [ [ 129.3723081, 36.4144008 ], [ 129.372323599999987, 36.4145835 ], [ 129.372617, 36.4145674 ], [ 129.3729113, 36.4145512 ], [ 129.372895699999987, 36.4143684 ], [ 129.3726227, 36.4143835 ], [ 129.3723081, 36.4144008 ] ] ] } },
{ "type": "Feature", "properties": { "element": "way", "id": 545750040, "building": "public", "building:levels": null, "name": "지품면사무소", "name:ko": "지품면사무소", "name:en": null, "amenity": "townhall", "shop": null, "office": "government", "tourism": null, "healthcare": null, "addr:street": "경동로", "addr:housenumber": "7153", "start_date": null, "centroid_x_5179": 1159684.3768605278, "centroid_y_5179": 1829351.378892422, "footprint_area_m2": 337.69595609445787 }, "geometry": { "type": "Polygon", "coordinates": [ [ [ 129.2816522, 36.4485531 ], [ 129.28173670000001, 36.4486081 ], [ 129.281980800000014, 36.448365 ], [ 129.2818963, 36.4483101 ], [ 129.2816522, 36.4485531 ] ] ] } },
{ "type": "Feature", "properties": { "element": "way", "id": 555875235, "building": "train_station", "building:levels": null, "name": null, "name:ko": null, "name:en": null, "amenity": null, "shop": null, "office": null, "tourism": null, "healthcare": null, "addr:street": null, "addr:housenumber": null, "start_date": null, "centroid_x_5179": 1167967.1346949693, "centroid_y_5179": 1818835.9420319751, "footprint_area_m2": 829.10855023513022 }, "geometry": { "type": "Polygon", "coordinates": [ [ [ 129.371810399999987, 36.352474 ], [ 129.371794200000011, 36.3521221 ], [ 129.3720305, 36.3521151 ], [ 129.3720466, 36.352467 ], [ 129.371810399999987, 36.352474 ] ] ] } },
{ "type": "Feature", "properties": { "element": "way", "id": 637152579, "building": "yes", "building:levels": null, "name": null, "name:ko": null, "name:en": null, "amenity": "marketplace", "shop": null, "office": null, "tourism": null, "healthcare": null, "addr:street": null, "addr:housenumber": null, "start_date": null, "centroid_x_5179": 1167646.8956511745, "centroid_y_5179": 1824862.4422913606, "footprint_area_m2": 3152.5097841776192 }, "geometry": { "type": "Polygon", "coordinates": [ [ [ 129.3700859, 36.4065165 ], [ 129.3699134, 36.4062734 ], [ 129.3693441, 36.4065562 ], [ 129.369266900000014, 36.4067254 ], [ 129.3695093, 36.4070385 ], [ 129.3699082, 36.4068353 ], [ 129.3697693, 36.4066668 ], [ 129.3699535, 36.4065793 ], [ 129.3700859, 36.4065165 ] ] ] } },
{ "type": "Feature", "properties": { "element": "way", "id": 651645186, "building": "school", "building:levels": null, "name": "강구초등학교", "name:ko": "강구초등학교", "name:en": "Ganggu Elementary School", "amenity": null, "shop": null, "office": null, "tourism": null, "healthcare": null, "addr:street": null, "addr:housenumber": null, "start_date": null, "centroid_x_5179": 1168553.8421646843, "centroid_y_5179": 1819336.6221279162, "footprint_area_m2": 2311.0895991891748 }, "geometry": { "type": "Polygon", "coordinates": [ [ [ 129.3780734, 36.3565228 ], [ 129.378307799999988, 36.3565106 ], [ 129.3788477, 36.3565026 ], [ 129.378847900000011, 36.3566114 ], [ 129.3789416, 36.35663 ], [ 129.379032099999989, 36.3569759 ], [ 129.378798, 36.3570247 ], [ 129.378698899999989, 36.3566183 ], [ 129.3783056, 36.356624 ], [ 129.378321, 36.3568516 ], [ 129.3780898, 36.3568593 ], [ 129.3780734, 36.3565228 ] ] ] } },
{ "type": "Feature", "properties": { "element": "way", "id": 651645190, "building": "school", "building:levels": null, "name": "강구중학교", "name:ko": "강구중학교", "name:en": "Ganggu Middle School", "amenity": null, "shop": null, "office": null, "tourism": null, "healthcare": null, "addr:street": "신강구1길", "addr:housenumber": "45-5", "start_date": null, "centroid_x_5179": 1168683.5806190211, "centroid_y_5179": 1818968.6967581485, "footprint_area_m2": 1115.5895606500978 }, "geometry": { "type": "Polygon", "coordinates": [ [ [ 129.3793976, 36.3533872 ], [ 129.3804391, 36.3532393 ], [ 129.380462, 36.3533436 ], [ 129.3794205, 36.3534915 ], [ 129.3793976, 36.3533872 ] ] ] } },
{ "type": "Feature", "properties": { "element": "way", "id": 651645191, "building": "school", "building:levels": null, "name": "강구정보고등학교", "name:ko": "강구정보고등학교", "name:en": "Ganggu Information High School", "amenity": null, "shop": null, "office": null, "tourism": null, "healthcare": null, "addr:street": "신강구1길", "addr:housenumber": "45-5", "start_date": null, "centroid_x_5179": 1168685.5928791096, "centroid_y_5179": 1818937.3116650688, "footprint_area_m2": 707.78335565093118 }, "geometry": { "type": "Polygon", "coordinates": [ [ [ 129.3795285, 36.3531003 ], [ 129.3803431, 36.3529798 ], [ 129.3803623, 36.3530642 ], [ 129.379547800000012, 36.3531847 ], [ 129.3795285, 36.3531003 ] ] ] } },
{ "type": "Feature", "properties": { "element": "way", "id": 678973008, "building": "yes", "building:levels": null, "name": "강구119안전센터", "name:ko": null, "name:en": null, "amenity": "fire_station", "shop": null, "office": null, "tourism": null, "healthcare": null, "addr:street": null, "addr:housenumber": null, "start_date": null, "centroid_x_5179": 1168215.3250354098, "centroid_y_5179": 1818738.4658495658, "footprint_area_m2": 288.2095453767663 }, "geometry": { "type": "Polygon", "coordinates": [ [ [ 129.3745303, 36.3513199 ], [ 129.3746387, 36.3512546 ], [ 129.374797699999988, 36.3514259 ], [ 129.3746893, 36.3514911 ], [ 129.3745303, 36.3513199 ] ] ] } },
{ "type": "Feature", "properties": { "element": "way", "id": 678973010, "building": "yes", "building:levels": null, "name": "강구성당", "name:ko": null, "name:en": null, "amenity": "place_of_worship", "shop": null, "office": null, "tourism": null, "healthcare": null, "addr:street": null, "addr:housenumber": null, "start_date": null, "centroid_x_5179": 1168465.1584085803, "centroid_y_5179": 1818668.9730671025, "footprint_area_m2": 417.82664165090739 }, "geometry": { "type": "Polygon", "coordinates": [ [ [ 129.377253200000013, 36.3506998 ], [ 129.3775472, 36.3508223 ], [ 129.3776114, 36.350708 ], [ 129.37731740000001, 36.3505828 ], [ 129.377253200000013, 36.3506998 ] ] ] } },
{ "type": "Feature", "properties": { "element": "way", "id": 834801273, "building": "public", "building:levels": null, "name": "영덕경찰서", "name:ko": "경북 영덕경찰서", "name:en": "Yeongdeok Police Station", "amenity": "police", "shop": null, "office": null, "tourism": null, "healthcare": null, "addr:street": null, "addr:housenumber": null, "start_date": null, "centroid_x_5179": 1167692.4627206228, "centroid_y_5179": 1824202.6020836497, "footprint_area_m2": 1340.1642379398988 }, "geometry": { "type": "Polygon", "coordinates": [ [ [ 129.3701164, 36.4005778 ], [ 129.3701237, 36.4005233 ], [ 129.3699622, 36.4005093 ], [ 129.36995490000001, 36.4005638 ], [ 129.3698113, 36.4005513 ], [ 129.3698028, 36.4006142 ], [ 129.3697727, 36.4006116 ], [ 129.3697616, 36.4006938 ], [ 129.3697918, 36.4006965 ], [ 129.3697853, 36.4007453 ], [ 129.3698847, 36.4007539 ], [ 129.3698676, 36.4008817 ], [ 129.3701227, 36.4009038 ], [ 129.3701398, 36.400776 ], [ 129.3702453, 36.4007852 ], [ 129.370271300000013, 36.4005913 ], [ 129.3701164, 36.4005778 ] ] ] } },
{ "type": "Feature", "properties": { "element": "way", "id": 862761311, "building": "yes", "building:levels": null, "name": "영덕요금소", "name:ko": null, "name:en": null, "amenity": null, "shop": null, "office": null, "tourism": null, "healthcare": null, "addr:street": null, "addr:housenumber": null, "start_date": null, "centroid_x_5179": 1167262.2641167124, "centroid_y_5179": 1822086.372422277, "footprint_area_m2": 4181.8074319227062 }, "geometry": { "type": "Polygon", "coordinates": [ [ [ 129.364366600000011, 36.3819731 ], [ 129.3644701, 36.381621 ], [ 129.36449540000001, 36.3815351 ], [ 129.364558100000011, 36.3813218 ], [ 129.365168899999986, 36.3814383 ], [ 129.3651059, 36.3816523 ], [ 129.3650783, 36.3817461 ], [ 129.3649773, 36.3820895 ], [ 129.364366600000011, 36.3819731 ] ] ] } },
{ "type": "Feature", "properties": { "element": "way", "id": 888407571, "building": "public", "building:levels": null, "name": "영덕 교육지원청", "name:ko": null, "name:en": null, "amenity": null, "shop": null, "office": null, "tourism": null, "healthcare": null, "addr:street": null, "addr:housenumber": null, "start_date": null, "centroid_x_5179": 1168022.9299196491, "centroid_y_5179": 1825120.7027181659, "footprint_area_m2": 1090.9830395627616 }, "geometry": { "type": "Polygon", "coordinates": [ [ [ 129.374253, 36.4088559 ], [ 129.3735629, 36.4088139 ], [ 129.3735481, 36.4089719 ], [ 129.3742382, 36.4090138 ], [ 129.374253, 36.4088559 ] ] ] } },
{ "type": "Feature", "properties": { "element": "way", "id": 977495794, "building": "train_station", "building:levels": null, "name": "영덕역", "name:ko": null, "name:en": null, "amenity": null, "shop": null, "office": null, "tourism": null, "healthcare": null, "addr:street": null, "addr:housenumber": null, "start_date": null, "centroid_x_5179": 1168322.0285219224, "centroid_y_5179": 1825269.2828045418, "footprint_area_m2": 1964.134992325726 }, "geometry": { "type": "Polygon", "coordinates": [ [ [ 129.3771179, 36.4104662 ], [ 129.377228300000013, 36.4103628 ], [ 129.377287, 36.4102231 ], [ 129.3772576, 36.410136 ], [ 129.3772193, 36.4100815 ], [ 129.3771021, 36.4100706 ], [ 129.3769758, 36.4101396 ], [ 129.376942, 36.4101977 ], [ 129.3768518, 36.4101632 ], [ 129.3769916, 36.4099854 ], [ 129.3771878, 36.4098983 ], [ 129.377323, 36.4099219 ], [ 129.377438, 36.4099981 ], [ 129.3775034, 36.4101087 ], [ 129.3774876, 36.4103138 ], [ 129.3774515, 36.4104136 ], [ 129.3773253, 36.410546 ], [ 129.3772193, 36.4106059 ], [ 129.3771179, 36.4104662 ] ] ] } },
{ "type": "Feature", "properties": { "element": "way", "id": 978064887, "building": "yes", "building:levels": null, "name": null, "name:ko": null, "name:en": null, "amenity": null, "shop": null, "office": null, "tourism": null, "healthcare": null, "addr:street": null, "addr:housenumber": null, "start_date": null, "centroid_x_5179": 1170728.391990246, "centroid_y_5179": 1821926.8251478197, "footprint_area_m2": 934.87026696299063 }, "geometry": { "type": "Polygon", "coordinates": [ [ [ 129.4030874, 36.3793529 ], [ 129.4030807, 36.3794762 ], [ 129.4030861, 36.3795097 ], [ 129.4031055, 36.3795394 ], [ 129.403573599999987, 36.3799324 ], [ 129.4036902, 36.3798342 ], [ 129.403200700000014, 36.3794832 ], [ 129.4032034, 36.3793774 ], [ 129.4030874, 36.3793529 ] ] ] } },
{ "type": "Feature", "properties": { "element": "way", "id": 997924302, "building": "yes", "building:levels": null, "name": null, "name:ko": null, "name:en": null, "amenity": null, "shop": null, "office": null, "tourism": null, "healthcare": null, "addr:street": null, "addr:housenumber": null, "start_date": null, "centroid_x_5179": 1170927.3654393409, "centroid_y_5179": 1829955.2981411994, "footprint_area_m2": 405.13379920140318 }, "geometry": { "type": "Polygon", "coordinates": [ [ [ 129.4071524, 36.4520239 ], [ 129.4071509, 36.4519182 ], [ 129.4074362, 36.4519157 ], [ 129.4074357, 36.4518804 ], [ 129.407522199999988, 36.4518796 ], [ 129.4075239, 36.4520002 ], [ 129.4074451, 36.4520009 ], [ 129.4074454, 36.4520212 ], [ 129.4071524, 36.4520239 ] ] ] } },
{ "type": "Feature", "properties": { "element": "way", "id": 997924309, "building": "yes", "building:levels": null, "name": null, "name:ko": null, "name:en": null, "amenity": null, "shop": null, "office": null, "tourism": null, "healthcare": null, "addr:street": null, "addr:housenumber": null, "start_date": null, "centroid_x_5179": 1171161.2427388055, "centroid_y_5179": 1829775.1320934631, "footprint_area_m2": 127.68046988683098 }, "geometry": { "type": "Polygon", "coordinates": [ [ [ 129.4098632, 36.4503638 ], [ 129.409861799999987, 36.4502315 ], [ 129.4099589, 36.4502309 ], [ 129.4099602, 36.4503631 ], [ 129.4098632, 36.4503638 ] ] ] } },
{ "type": "Feature", "properties": { "element": "way", "id": 997924310, "building": "yes", "building:levels": null, "name": null, "name:ko": null, "name:en": null, "amenity": null, "shop": null, "office": null, "tourism": null, "healthcare": null, "addr:street": null, "addr:housenumber": null, "start_date": null, "centroid_x_5179": 1171186.0711873039, "centroid_y_5179": 1829759.6545116769, "footprint_area_m2": 945.67275975478469 }, "geometry": { "type": "Polygon", "coordinates": [ [ [ 129.4098385, 36.4502154 ], [ 129.4098429, 36.4500772 ], [ 129.410530599999987, 36.4500915 ], [ 129.4105262, 36.4502296 ], [ 129.4098385, 36.4502154 ] ] ] } },
{ "type": "Feature", "properties": { "element": "way", "id": 997924311, "building": "yes", "building:levels": "3.5", "name": null, "name:ko": null, "name:en": null, "amenity": null, "shop": null, "office": null, "tourism": null, "healthcare": null, "addr:street": null, "addr:housenumber": null, "start_date": null, "centroid_x_5179": 1171048.6041775567, "centroid_y_5179": 1829759.0936817308, "footprint_area_m2": 267.21483213544548 }, "geometry": { "type": "Polygon", "coordinates": [ [ [ 129.4085767, 36.4502578 ], [ 129.408564899999988, 36.4500896 ], [ 129.4086941, 36.4500838 ], [ 129.4086962, 36.4501138 ], [ 129.4087328, 36.4501121 ], [ 129.4087424, 36.4502503 ], [ 129.4085767, 36.4502578 ] ] ] } },
{ "type": "Feature", "properties": { "element": "way", "id": 997924312, "building": "yes", "building:levels": null, "name": null, "name:ko": null, "name:en": null, "amenity": null, "shop": null, "office": null, "tourism": null, "healthcare": null, "addr:street": null, "addr:housenumber": null, "start_date": null, "centroid_x_5179": 1171081.5221684594, "centroid_y_5179": 1829792.5440615097, "footprint_area_m2": 1408.4743973675863 }, "geometry": { "type": "Polygon", "coordinates": [ [ [ 129.408544799999987, 36.450556 ], [ 129.408538, 36.45041 ], [ 129.4095068, 36.4503809 ], [ 129.4095136, 36.4505268 ], [ 129.408544799999987, 36.450556 ] ] ] } },
{ "type": "Feature", "properties": { "element": "way", "id": 997924313, "building": "yes", "building:levels": "3", "name": null, "name:ko": null, "name:en": null, "amenity": null, "shop": null, "office": null, "tourism": null, "healthcare": null, "addr:street": null, "addr:housenumber": null, "start_date": null, "centroid_x_5179": 1170977.836397473, "centroid_y_5179": 1829705.9123730869, "footprint_area_m2": 158.00449276343858 }, "geometry": { "type": "Polygon", "coordinates": [ [ [ 129.407756799999987, 36.4497678 ], [ 129.4077297, 36.4497006 ], [ 129.4079437, 36.4496449 ], [ 129.4079707, 36.4497121 ], [ 129.407756799999987, 36.4497678 ] ] ] } },
{ "type": "Feature", "properties": { "element": "way", "id": 997924314, "building": "yes", "building:levels": "1.7", "name": null, "name:ko": null, "name:en": null, "amenity": null, "shop": null, "office": null, "tourism": null, "healthcare": null, "addr:street": null, "addr:housenumber": null, "start_date": null, "centroid_x_5179": 1171002.065334046, "centroid_y_5179": 1829732.2160920801, "footprint_area_m2": 396.04240421416205 }, "geometry": { "type": "Polygon", "coordinates": [ [ [ 129.408098200000012, 36.4500686 ], [ 129.4079877, 36.4498692 ], [ 129.4081543, 36.4498095 ], [ 129.408264800000012, 36.4500088 ], [ 129.408098200000012, 36.4500686 ] ] ] } },
{ "type": "Feature", "properties": { "element": "way", "id": 997924315, "building": "yes", "building:levels": "2", "name": null, "name:ko": null, "name:en": null, "amenity": null, "shop": null, "office": null, "tourism": null, "healthcare": null, "addr:street": null, "addr:housenumber": null, "start_date": null, "centroid_x_5179": 1170990.5034966404, "centroid_y_5179": 1829759.5105030655, "footprint_area_m2": 860.80658033861573 }, "geometry": { "type": "Polygon", "coordinates": [ [ [ 129.407765899999987, 36.4502921 ], [ 129.407746, 36.4501187 ], [ 129.4082407, 36.4500819 ], [ 129.4082606, 36.4502554 ], [ 129.407765899999987, 36.4502921 ] ] ] } },
{ "type": "Feature", "properties": { "element": "way", "id": 1027002800, "building": "yes", "building:levels": "3", "name": null, "name:ko": null, "name:en": null, "amenity": null, "shop": null, "office": null, "tourism": null, "healthcare": null, "addr:street": null, "addr:housenumber": null, "start_date": null, "centroid_x_5179": 1166987.6916213727, "centroid_y_5179": 1826274.8948874923, "footprint_area_m2": 193.29519015215647 }, "geometry": { "type": "Polygon", "coordinates": [ [ [ 129.3625189, 36.4195467 ], [ 129.3625154, 36.4194384 ], [ 129.3626597, 36.4194354 ], [ 129.362661, 36.4194736 ], [ 129.362715, 36.4194725 ], [ 129.362717300000014, 36.4195425 ], [ 129.3625189, 36.4195467 ] ] ] } },
{ "type": "Feature", "properties": { "element": "way", "id": 1027002812, "building": "yes", "building:levels": "2", "name": null, "name:ko": null, "name:en": null, "amenity": null, "shop": null, "office": null, "tourism": null, "healthcare": null, "addr:street": null, "addr:housenumber": null, "start_date": null, "centroid_x_5179": 1166744.3951776824, "centroid_y_5179": 1826734.9057543119, "footprint_area_m2": 210.26573306858381 }, "geometry": { "type": "Polygon", "coordinates": [ [ [ 129.359905700000013, 36.4237288 ], [ 129.359913799999987, 36.4236977 ], [ 129.3598883, 36.4236935 ], [ 129.359901799999989, 36.4236413 ], [ 129.3599322, 36.4236463 ], [ 129.3599418, 36.4236093 ], [ 129.3600956, 36.423635 ], [ 129.3600645, 36.4237554 ], [ 129.359905700000013, 36.4237288 ] ] ] } },
{ "type": "Feature", "properties": { "element": "way", "id": 1057524447, "building": "yes", "building:levels": null, "name": "송아펜션", "name:ko": null, "name:en": null, "amenity": null, "shop": null, "office": null, "tourism": "guest_house", "healthcare": null, "addr:street": "영덕대게로", "addr:housenumber": "1199", "start_date": null, "centroid_x_5179": 1173120.349190806, "centroid_y_5179": 1828730.1728527306, "footprint_area_m2": 329.66994370112934 }, "geometry": { "type": "Polygon", "coordinates": [ [ [ 129.4313746, 36.4406024 ], [ 129.4313827, 36.4404881 ], [ 129.4316804, 36.4404622 ], [ 129.4316938, 36.4405593 ], [ 129.431594600000011, 36.4405657 ], [ 129.431594600000011, 36.4405916 ], [ 129.4315463, 36.4405852 ], [ 129.431535599999989, 36.4405679 ], [ 129.431514099999987, 36.4405679 ], [ 129.431506, 36.4405873 ], [ 129.4314336, 36.4405916 ], [ 129.4314283, 36.4406154 ], [ 129.4313746, 36.4406024 ] ] ] } },
{ "type": "Feature", "properties": { "element": "way", "id": 1159633835, "building": "yes", "building:levels": null, "name": "카페제이", "name:ko": null, "name:en": null, "amenity": "cafe", "shop": null, "office": null, "tourism": null, "healthcare": null, "addr:street": "영덕대게로", "addr:housenumber": "254", "start_date": null, "centroid_x_5179": 1170222.5024123495, "centroid_y_5179": 1820850.4265376653, "footprint_area_m2": 122.22408572524537 }, "geometry": { "type": "Polygon", "coordinates": [ [ [ 129.397400800000014, 36.3700719 ], [ 129.397446800000012, 36.3699857 ], [ 129.397567, 36.3700273 ], [ 129.397521, 36.3701135 ], [ 129.397400800000014, 36.3700719 ] ] ] } },
{ "type": "Feature", "properties": { "element": "way", "id": 1159633836, "building": "yes", "building:levels": null, "name": "무브온 커피", "name:ko": null, "name:en": null, "amenity": "cafe", "shop": null, "office": null, "tourism": null, "healthcare": null, "addr:street": "영덕대게로", "addr:housenumber": "411", "start_date": null, "centroid_x_5179": 1170924.468807617, "centroid_y_5179": 1822221.5599752297, "footprint_area_m2": 183.74604615233656 }, "geometry": { "type": "Polygon", "coordinates": [ [ [ 129.405673, 36.3822107 ], [ 129.4055468, 36.3822037 ], [ 129.4055386, 36.3823498 ], [ 129.4056682, 36.3823527 ], [ 129.405673, 36.3822107 ] ] ] } },
{ "type": "Feature", "properties": { "element": "way", "id": 1187068298, "building": "school", "building:levels": null, "name": null, "name:ko": null, "name:en": null, "amenity": null, "shop": null, "office": null, "tourism": null, "healthcare": null, "addr:street": null, "addr:housenumber": null, "start_date": null, "centroid_x_5179": 1167561.3321564638, "centroid_y_5179": 1825968.7481402606, "footprint_area_m2": 522.33632831602029 }, "geometry": { "type": "Polygon", "coordinates": [ [ [ 129.3686773, 36.4166616 ], [ 129.369152899999989, 36.416514 ], [ 129.369198899999986, 36.41661 ], [ 129.368873900000011, 36.416711 ], [ 129.3687233, 36.4167577 ], [ 129.3686773, 36.4166616 ] ] ] } },
{ "type": "Feature", "properties": { "element": "way", "id": 1187068299, "building": "school", "building:levels": null, "name": null, "name:ko": null, "name:en": null, "amenity": null, "shop": null, "office": null, "tourism": null, "healthcare": null, "addr:street": null, "addr:housenumber": null, "start_date": null, "centroid_x_5179": 1167578.5692462164, "centroid_y_5179": 1825930.6412729181, "footprint_area_m2": 1213.2665715827363 }, "geometry": { "type": "Polygon", "coordinates": [ [ [ 129.3685846, 36.4163692 ], [ 129.3689783, 36.4162599 ], [ 129.3689608, 36.416219 ], [ 129.369122, 36.4161742 ], [ 129.369144299999988, 36.4162261 ], [ 129.3695167, 36.4161227 ], [ 129.369573699999989, 36.4162558 ], [ 129.369458900000012, 36.4162876 ], [ 129.3694494, 36.4162656 ], [ 129.3692218, 36.4163289 ], [ 129.369255, 36.4164061 ], [ 129.3691232, 36.4164427 ], [ 129.369071600000012, 36.4163225 ], [ 129.3686186, 36.4164484 ], [ 129.3685846, 36.4163692 ] ] ] } },
{ "type": "Feature", "properties": { "element": "way", "id": 1187068300, "building": "school", "building:levels": null, "name": null, "name:ko": null, "name:en": null, "amenity": null, "shop": null, "office": null, "tourism": null, "healthcare": null, "addr:street": null, "addr:housenumber": null, "start_date": null, "centroid_x_5179": 1167650.7995417546, "centroid_y_5179": 1825948.2459924605, "footprint_area_m2": 277.83441525269541 }, "geometry": { "type": "Polygon", "coordinates": [ [ [ 129.36978, 36.4164187 ], [ 129.370047199999988, 36.416356 ], [ 129.3700821, 36.4164523 ], [ 129.3698149, 36.416515 ], [ 129.36978, 36.4164187 ] ] ] } },
{ "type": "Feature", "properties": { "element": "way", "id": 1187068301, "building": "school", "building:levels": null, "name": null, "name:ko": null, "name:en": null, "amenity": null, "shop": null, "office": null, "tourism": null, "healthcare": null, "addr:street": null, "addr:housenumber": null, "start_date": null, "centroid_x_5179": 1167642.1860410618, "centroid_y_5179": 1825912.4983458018, "footprint_area_m2": 265.52927801776684 }, "geometry": { "type": "Polygon", "coordinates": [ [ [ 129.3697015, 36.4160822 ], [ 129.36990560000001, 36.4160292 ], [ 129.3699531, 36.4161476 ], [ 129.369749, 36.4162006 ], [ 129.3697015, 36.4160822 ] ] ] } },
{ "type": "Feature", "properties": { "element": "way", "id": 1187068302, "building": "school", "building:levels": null, "name": null, "name:ko": null, "name:en": null, "amenity": null, "shop": null, "office": null, "tourism": null, "healthcare": null, "addr:street": null, "addr:housenumber": null, "start_date": null, "centroid_x_5179": 1167683.0647043742, "centroid_y_5179": 1825917.5021347771, "footprint_area_m2": 1211.9026744281243 }, "geometry": { "type": "Polygon", "coordinates": [ [ [ 129.3700785, 36.4160076 ], [ 129.3702889, 36.415947 ], [ 129.370312899999988, 36.4160007 ], [ 129.370363700000013, 36.4159861 ], [ 129.3703913, 36.4160481 ], [ 129.370430199999987, 36.4160369 ], [ 129.370445600000011, 36.4160715 ], [ 129.3704938, 36.4160576 ], [ 129.370528400000012, 36.4161354 ], [ 129.3704865, 36.4161475 ], [ 129.3705074, 36.4161945 ], [ 129.3704434, 36.416213 ], [ 129.3704735, 36.4162808 ], [ 129.370181699999989, 36.4163648 ], [ 129.3700728, 36.4161201 ], [ 129.3701222, 36.4161059 ], [ 129.3700785, 36.4160076 ] ] ] } },
{ "type": "Feature", "properties": { "element": "way", "id": 1187068303, "building": "school", "building:levels": null, "name": null, "name:ko": null, "name:en": null, "amenity": null, "shop": null, "office": null, "tourism": null, "healthcare": null, "addr:street": null, "addr:housenumber": null, "start_date": null, "centroid_x_5179": 1167613.3514514198, "centroid_y_5179": 1825804.4372661409, "footprint_area_m2": 299.02179797484979 }, "geometry": { "type": "Polygon", "coordinates": [ [ [ 129.3693481, 36.4151132 ], [ 129.369565200000011, 36.4150548 ], [ 129.369616900000011, 36.4151793 ], [ 129.3693998, 36.4152377 ], [ 129.3693481, 36.4151132 ] ] ] } },
{ "type": "Feature", "properties": { "element": "way", "id": 1187068304, "building": "school", "building:levels": null, "name": null, "name:ko": null, "name:en": null, "amenity": null, "shop": null, "office": null, "tourism": null, "healthcare": null, "addr:street": null, "addr:housenumber": null, "start_date": null, "centroid_x_5179": 1167609.6709763529, "centroid_y_5179": 1825840.4571548144, "footprint_area_m2": 44.974843595889489 }, "geometry": { "type": "Polygon", "coordinates": [ [ [ 129.3694032, 36.4154503 ], [ 129.3694739, 36.4154337 ], [ 129.369495300000011, 36.4154926 ], [ 129.3694246, 36.4155092 ], [ 129.3694032, 36.4154503 ] ] ] } },
{ "type": "Feature", "properties": { "element": "way", "id": 1187068318, "building": "school", "building:levels": null, "name": null, "name:ko": null, "name:en": null, "amenity": null, "shop": null, "office": null, "tourism": null, "healthcare": null, "addr:street": null, "addr:housenumber": null, "start_date": null, "centroid_x_5179": 1168143.662084572, "centroid_y_5179": 1825612.1984341403, "footprint_area_m2": 1073.0563352190056 }, "geometry": { "type": "Polygon", "coordinates": [ [ [ 129.3748037, 36.4134339 ], [ 129.3758611, 36.413119 ], [ 129.3759023, 36.4132086 ], [ 129.3748449, 36.4135237 ], [ 129.3748037, 36.4134339 ] ] ] } },
{ "type": "Feature", "properties": { "element": "way", "id": 1187068319, "building": "school", "building:levels": null, "name": null, "name:ko": null, "name:en": null, "amenity": null, "shop": null, "office": null, "tourism": null, "healthcare": null, "addr:street": null, "addr:housenumber": null, "start_date": null, "centroid_x_5179": 1168078.8886496346, "centroid_y_5179": 1825618.2364218459, "footprint_area_m2": 851.36852353527695 }, "geometry": { "type": "Polygon", "coordinates": [ [ [ 129.374424800000014, 36.4132556 ], [ 129.3746229, 36.4131749 ], [ 129.3748393, 36.4135186 ], [ 129.374641200000013, 36.4135993 ], [ 129.374424800000014, 36.4132556 ] ] ] } },
{ "type": "Feature", "properties": { "element": "way", "id": 1187068320, "building": "school", "building:levels": null, "name": null, "name:ko": null, "name:en": null, "amenity": null, "shop": null, "office": null, "tourism": null, "healthcare": null, "addr:street": null, "addr:housenumber": null, "start_date": null, "centroid_x_5179": 1168068.1210945956, "centroid_y_5179": 1825642.7185562537, "footprint_area_m2": 198.0977853840883 }, "geometry": { "type": "Polygon", "coordinates": [ [ [ 129.374448, 36.4135725 ], [ 129.3745639, 36.4135224 ], [ 129.3746285, 36.4136191 ], [ 129.374447300000014, 36.4136975 ], [ 129.374425300000013, 36.4136646 ], [ 129.374448, 36.4135725 ] ] ] } },
{ "type": "Feature", "properties": { "element": "way", "id": 1187068321, "building": "school", "building:levels": null, "name": null, "name:ko": null, "name:en": null, "amenity": null, "shop": null, "office": null, "tourism": null, "healthcare": null, "addr:street": null, "addr:housenumber": null, "start_date": null, "centroid_x_5179": 1168155.4034095719, "centroid_y_5179": 1825624.417843302, "footprint_area_m2": 143.03882679000748 }, "geometry": { "type": "Polygon", "coordinates": [ [ [ 129.3755961, 36.4134328 ], [ 129.37556330000001, 36.4133663 ], [ 129.37537660000001, 36.413426 ], [ 129.375409499999989, 36.4134925 ], [ 129.3755961, 36.4134328 ] ] ] } },
{ "type": "Feature", "properties": { "element": "way", "id": 1187068322, "building": "school", "building:levels": null, "name": null, "name:ko": null, "name:en": null, "amenity": null, "shop": null, "office": null, "tourism": null, "healthcare": null, "addr:street": null, "addr:housenumber": null, "start_date": null, "centroid_x_5179": 1168193.3905974296, "centroid_y_5179": 1825612.3327984586, "footprint_area_m2": 75.567085064177817 }, "geometry": { "type": "Polygon", "coordinates": [ [ [ 129.3759738, 36.4132852 ], [ 129.3759741, 36.4133421 ], [ 129.3758406, 36.4133425 ], [ 129.375840399999987, 36.4132856 ], [ 129.3759738, 36.4132852 ] ] ] } },
{ "type": "Feature", "properties": { "element": "way", "id": 1187068323, "building": "school", "building:levels": null, "name": null, "name:ko": null, "name:en": null, "amenity": null, "shop": null, "office": null, "tourism": null, "healthcare": null, "addr:street": null, "addr:housenumber": null, "start_date": null, "centroid_x_5179": 1168179.9351122866, "centroid_y_5179": 1825584.5772413912, "footprint_area_m2": 56.356694665396191 }, "geometry": { "type": "Polygon", "coordinates": [ [ [ 129.375695900000011, 36.4130482 ], [ 129.3757814, 36.4130247 ], [ 129.37580650000001, 36.4130841 ], [ 129.375721, 36.4131075 ], [ 129.375695900000011, 36.4130482 ] ] ] } },
{ "type": "Feature", "properties": { "element": "way", "id": 1187068988, "building": "yes", "building:levels": null, "name": "영덕군청", "name:ko": null, "name:en": null, "amenity": null, "shop": null, "office": "government", "tourism": null, "healthcare": null, "addr:street": null, "addr:housenumber": null, "start_date": null, "centroid_x_5179": 1167235.4519501734, "centroid_y_5179": 1825783.4308715549, "footprint_area_m2": 910.48621781187023 }, "geometry": { "type": "Polygon", "coordinates": [ [ [ 129.3650059, 36.4149307 ], [ 129.3655292, 36.4149403 ], [ 129.3655243, 36.415115 ], [ 129.365001, 36.4151055 ], [ 129.3650059, 36.4149307 ] ] ] } },
{ "type": "Feature", "properties": { "element": "way", "id": 1187068989, "building": "yes", "building:levels": null, "name": null, "name:ko": null, "name:en": null, "amenity": null, "shop": null, "office": "government", "tourism": null, "healthcare": null, "addr:street": null, "addr:housenumber": null, "start_date": null, "centroid_x_5179": 1167275.7472091559, "centroid_y_5179": 1825789.2568743562, "footprint_area_m2": 332.09436180840203 }, "geometry": { "type": "Polygon", "coordinates": [ [ [ 129.3656552, 36.4149333 ], [ 129.3657792, 36.4149343 ], [ 129.365775899999988, 36.4152034 ], [ 129.365651899999989, 36.4152024 ], [ 129.3656552, 36.4149333 ] ] ] } },
{ "type": "Feature", "properties": { "element": "way", "id": 1187068990, "building": "yes", "building:levels": null, "name": null, "name:ko": null, "name:en": null, "amenity": null, "shop": null, "office": "government", "tourism": null, "healthcare": null, "addr:street": null, "addr:housenumber": null, "start_date": null, "centroid_x_5179": 1167310.1260180331, "centroid_y_5179": 1825788.1305489724, "footprint_area_m2": 1104.1955568986887 }, "geometry": { "type": "Polygon", "coordinates": [ [ [ 129.3658178, 36.4149607 ], [ 129.366030599999988, 36.4149629 ], [ 129.3660313, 36.4149198 ], [ 129.366149799999988, 36.414921 ], [ 129.366149, 36.4149652 ], [ 129.366383899999988, 36.4149676 ], [ 129.366381, 36.4151539 ], [ 129.36581480000001, 36.4151481 ], [ 129.3658178, 36.4149607 ] ] ] } },
{ "type": "Feature", "properties": { "element": "way", "id": 1187068991, "building": "yes", "building:levels": null, "name": null, "name:ko": null, "name:en": null, "amenity": null, "shop": null, "office": "government", "tourism": null, "healthcare": null, "addr:street": null, "addr:housenumber": null, "start_date": null, "centroid_x_5179": 1167311.941935458, "centroid_y_5179": 1825808.362908789, "footprint_area_m2": 146.57873997662256 }, "geometry": { "type": "Polygon", "coordinates": [ [ [ 129.3662478, 36.4152647 ], [ 129.3662486, 36.4152058 ], [ 129.365998499999989, 36.4152037 ], [ 129.3659978, 36.4152626 ], [ 129.3662478, 36.4152647 ] ] ] } },
{ "type": "Feature", "properties": { "element": "way", "id": 1187068992, "building": "yes", "building:levels": null, "name": null, "name:ko": null, "name:en": null, "amenity": null, "shop": null, "office": "government", "tourism": null, "healthcare": null, "addr:street": null, "addr:housenumber": null, "start_date": null, "centroid_x_5179": 1167335.6959260113, "centroid_y_5179": 1825808.5423041689, "footprint_area_m2": 80.507357786814765 }, "geometry": { "type": "Polygon", "coordinates": [ [ [ 129.3664594, 36.4152611 ], [ 129.3664612, 36.4152052 ], [ 129.3663167, 36.4152022 ], [ 129.3663149, 36.4152582 ], [ 129.3664594, 36.4152611 ] ] ] } },
{ "type": "Feature", "properties": { "element": "way", "id": 1187068993, "building": "yes", "building:levels": null, "name": "영덕군의회", "name:ko": null, "name:en": null, "amenity": null, "shop": null, "office": "government", "tourism": null, "healthcare": null, "addr:street": null, "addr:housenumber": null, "start_date": null, "centroid_x_5179": 1167278.7637808365, "centroid_y_5179": 1825870.1479842784, "footprint_area_m2": 716.48925715516975 }, "geometry": { "type": "Polygon", "coordinates": [ [ [ 129.3656121, 36.4156954 ], [ 129.365713699999986, 36.415696 ], [ 129.3657139, 36.4156732 ], [ 129.365848699999987, 36.415674 ], [ 129.3658485, 36.415697 ], [ 129.36594740000001, 36.4156976 ], [ 129.365946, 36.4158638 ], [ 129.365810900000014, 36.4158631 ], [ 129.365810399999987, 36.4159286 ], [ 129.3656102, 36.4159275 ], [ 129.3656121, 36.4156954 ] ] ] } },
{ "type": "Feature", "properties": { "element": "way", "id": 1258089197, "building": "yes", "building:levels": null, "name": null, "name:ko": null, "name:en": null, "amenity": null, "shop": null, "office": null, "tourism": null, "healthcare": null, "addr:street": null, "addr:housenumber": null, "start_date": null, "centroid_x_5179": 1165038.2398096183, "centroid_y_5179": 1820744.2308080092, "footprint_area_m2": 198.74899474067621 }, "geometry": { "type": "Polygon", "coordinates": [ [ [ 129.3397359, 36.3701021 ], [ 129.3398142, 36.3700553 ], [ 129.3396626, 36.3698908 ], [ 129.3395844, 36.3699375 ], [ 129.3397359, 36.3701021 ] ] ] } },
{ "type": "Feature", "properties": { "element": "way", "id": 1263116405, "building": "yes", "building:levels": null, "name": "고래불 봉송정", "name:ko": null, "name:en": null, "amenity": "shelter", "shop": null, "office": null, "tourism": null, "healthcare": null, "addr:street": null, "addr:housenumber": null, "start_date": null, "centroid_x_5179": 1171655.7349681382, "centroid_y_5179": 1843350.5141349942, "footprint_area_m2": 211.78118182249011 }, "geometry": { "type": "Polygon", "coordinates": [ [ [ 129.418339, 36.5725736 ], [ 129.4184321, 36.5724279 ], [ 129.4185479, 36.5724756 ], [ 129.4184548, 36.5726214 ], [ 129.418339, 36.5725736 ] ] ] } },
{ "type": "Feature", "properties": { "element": "way", "id": 1265243318, "building": "yes", "building:levels": null, "name": "관어대", "name:ko": null, "name:en": null, "amenity": "shelter", "shop": null, "office": null, "tourism": null, "healthcare": null, "addr:street": null, "addr:housenumber": null, "start_date": null, "centroid_x_5179": 1172286.218390228, "centroid_y_5179": 1842087.8835395302, "footprint_area_m2": 156.36929558378287 }, "geometry": { "type": "Polygon", "coordinates": [ [ [ 129.4252669, 36.560965 ], [ 129.4253108, 36.5610412 ], [ 129.4251406, 36.5611045 ], [ 129.425096700000012, 36.5610284 ], [ 129.4252669, 36.560965 ] ] ] } },
{ "type": "Feature", "properties": { "element": "way", "id": 1265682717, "building": "yes", "building:levels": null, "name": "영해버스터미널", "name:ko": null, "name:en": null, "amenity": "bus_station", "shop": null, "office": null, "tourism": null, "healthcare": null, "addr:street": null, "addr:housenumber": null, "start_date": null, "centroid_x_5179": 1170498.2266089087, "centroid_y_5179": 1839562.789275934, "footprint_area_m2": 472.96877903704177 }, "geometry": { "type": "Polygon", "coordinates": [ [ [ 129.4044692, 36.5384649 ], [ 129.4047909, 36.538563 ], [ 129.4048852, 36.5387829 ], [ 129.404808800000012, 36.538804 ], [ 129.4047416, 36.5386472 ], [ 129.4044283, 36.5385517 ], [ 129.4044692, 36.5384649 ] ] ] } },
{ "type": "Feature", "properties": { "element": "way", "id": 1265682723, "building": "yes", "building:levels": null, "name": null, "name:ko": null, "name:en": null, "amenity": null, "shop": null, "office": null, "tourism": null, "healthcare": "yes", "addr:street": null, "addr:housenumber": null, "start_date": null, "centroid_x_5179": 1170629.6322529218, "centroid_y_5179": 1839890.5057670318, "footprint_area_m2": 234.51456062962905 }, "geometry": { "type": "Polygon", "coordinates": [ [ [ 129.406361299999986, 36.5415256 ], [ 129.406314900000012, 36.5414474 ], [ 129.4060691, 36.5415415 ], [ 129.4061156, 36.5416198 ], [ 129.406361299999986, 36.5415256 ] ] ] } },
{ "type": "Feature", "properties": { "element": "way", "id": 1265682728, "building": "apartments", "building:levels": null, "name": "골드캐슬아파트", "name:ko": null, "name:en": null, "amenity": null, "shop": null, "office": null, "tourism": null, "healthcare": null, "addr:street": null, "addr:housenumber": null, "start_date": null, "centroid_x_5179": 1170525.0318501804, "centroid_y_5179": 1839723.2857800671, "footprint_area_m2": 371.65063040882069 }, "geometry": { "type": "Polygon", "coordinates": [ [ [ 129.4050604, 36.5399296 ], [ 129.4051584, 36.5400758 ], [ 129.404960100000011, 36.5401616 ], [ 129.4048621, 36.5400153 ], [ 129.4050604, 36.5399296 ] ] ] } },
{ "type": "Feature", "properties": { "element": "way", "id": 1265682734, "building": "yes", "building:levels": null, "name": "영덕영해우체국", "name:ko": null, "name:en": null, "amenity": "post_office", "shop": null, "office": null, "tourism": null, "healthcare": null, "addr:street": null, "addr:housenumber": null, "start_date": null, "centroid_x_5179": 1170626.0810490742, "centroid_y_5179": 1839728.2053948429, "footprint_area_m2": 218.63044484161173 }, "geometry": { "type": "Polygon", "coordinates": [ [ [ 129.4062075, 36.5399886 ], [ 129.406224400000013, 36.5401336 ], [ 129.4060398, 36.5401475 ], [ 129.4060347, 36.5401036 ], [ 129.406083700000011, 36.5400999 ], [ 129.4060719, 36.5399988 ], [ 129.4062075, 36.5399886 ] ] ] } },
{ "type": "Feature", "properties": { "element": "way", "id": 1265981561, "building": "apartments", "building:levels": null, "name": "영해동보팰리스오피스텔", "name:ko": null, "name:en": null, "amenity": null, "shop": null, "office": null, "tourism": null, "healthcare": null, "addr:street": null, "addr:housenumber": null, "start_date": null, "centroid_x_5179": 1170485.77750033, "centroid_y_5179": 1839666.2148287422, "footprint_area_m2": 641.75186622522574 }, "geometry": { "type": "Polygon", "coordinates": [ [ [ 129.4042351, 36.5394651 ], [ 129.4048851, 36.5395079 ], [ 129.4048732, 36.5396245 ], [ 129.4046997, 36.5396131 ], [ 129.404703899999987, 36.5395716 ], [ 129.4045281, 36.5395601 ], [ 129.404523899999987, 36.5396013 ], [ 129.404424299999988, 36.5395948 ], [ 129.4044288, 36.5395505 ], [ 129.4043317, 36.5395442 ], [ 129.404327200000012, 36.5395883 ], [ 129.4042232, 36.5395815 ], [ 129.4042351, 36.5394651 ] ] ] } },
{ "type": "Feature", "properties": { "element": "way", "id": 1265981589, "building": "apartments", "building:levels": null, "name": "예주비치아파트", "name:ko": null, "name:en": null, "amenity": null, "shop": null, "office": null, "tourism": null, "healthcare": null, "addr:street": null, "addr:housenumber": null, "start_date": null, "centroid_x_5179": 1171095.5321491212, "centroid_y_5179": 1839878.7040753169, "footprint_area_m2": 390.06333042383773 }, "geometry": { "type": "Polygon", "coordinates": [ [ [ 129.4116985, 36.5413779 ], [ 129.4116799, 36.5413011 ], [ 129.411499600000013, 36.5413293 ], [ 129.4114904, 36.5412913 ], [ 129.4112935, 36.5413212 ], [ 129.4112811, 36.5412915 ], [ 129.411126599999989, 36.5413156 ], [ 129.4111441, 36.5413881 ], [ 129.4113247, 36.5413599 ], [ 129.411332, 36.5413902 ], [ 129.4115309, 36.5413591 ], [ 129.4115414, 36.5414025 ], [ 129.4116985, 36.5413779 ] ] ] } },
{ "type": "Feature", "properties": { "element": "way", "id": 1266004262, "building": "apartments", "building:levels": null, "name": "유성랑스빌아파트", "name:ko": null, "name:en": null, "amenity": null, "shop": null, "office": null, "tourism": null, "healthcare": null, "addr:street": null, "addr:housenumber": null, "start_date": null, "centroid_x_5179": 1170358.7712436467, "centroid_y_5179": 1839550.9012786804, "footprint_area_m2": 609.60899898677621 }, "geometry": { "type": "Polygon", "coordinates": [ [ [ 129.4033413, 36.5385956 ], [ 129.4033473, 36.5384616 ], [ 129.4028902, 36.5384484 ], [ 129.402884199999988, 36.5385825 ], [ 129.4033413, 36.5385956 ] ] ] } },
{ "type": "Feature", "properties": { "element": "way", "id": 1266004301, "building": "apartments", "building:levels": null, "name": "궁전아파트", "name:ko": null, "name:en": null, "amenity": null, "shop": null, "office": null, "tourism": null, "healthcare": null, "addr:street": null, "addr:housenumber": null, "start_date": null, "centroid_x_5179": 1170994.1083039385, "centroid_y_5179": 1839558.6348920753, "footprint_area_m2": 1057.669967527449 }, "geometry": { "type": "Polygon", "coordinates": [ [ [ 129.410360700000012, 36.5381584 ], [ 129.4102182, 36.53882 ], [ 129.4100621, 36.5387983 ], [ 129.4102044, 36.5381366 ], [ 129.410360700000012, 36.5381584 ] ] ] } },
{ "type": "Feature", "properties": { "element": "way", "id": 1266348957, "building": "yes", "building:levels": null, "name": "영해파출소", "name:ko": null, "name:en": null, "amenity": "police", "shop": null, "office": null, "tourism": null, "healthcare": null, "addr:street": null, "addr:housenumber": null, "start_date": null, "centroid_x_5179": 1170762.4955365004, "centroid_y_5179": 1839379.5526745927, "footprint_area_m2": 75.314500006790794 }, "geometry": { "type": "Polygon", "coordinates": [ [ [ 129.40755870000001, 36.5368553 ], [ 129.4076471, 36.5368814 ], [ 129.4076126, 36.5369569 ], [ 129.407524099999989, 36.5369308 ], [ 129.40755870000001, 36.5368553 ] ] ] } },
{ "type": "Feature", "properties": { "element": "way", "id": 1266348960, "building": "yes", "building:levels": null, "name": "영해면사무소", "name:ko": null, "name:en": null, "amenity": null, "shop": null, "office": "government", "tourism": null, "healthcare": null, "addr:street": null, "addr:housenumber": null, "start_date": null, "centroid_x_5179": 1170717.5566736362, "centroid_y_5179": 1839451.1184924832, "footprint_area_m2": 447.55178337665541 }, "geometry": { "type": "Polygon", "coordinates": [ [ [ 129.4069528, 36.5374798 ], [ 129.4069461, 36.5376295 ], [ 129.4072466, 36.5376381 ], [ 129.4072533, 36.5374884 ], [ 129.4069528, 36.5374798 ] ] ] } },
{ "type": "Feature", "properties": { "element": "way", "id": 1266349005, "building": "yes", "building:levels": null, "name": null, "name:ko": null, "name:en": null, "amenity": null, "shop": null, "office": null, "tourism": null, "healthcare": null, "addr:street": null, "addr:housenumber": null, "start_date": null, "centroid_x_5179": 1171279.8750930491, "centroid_y_5179": 1839630.8382330812, "footprint_area_m2": 915.74523339546829 }, "geometry": { "type": "Polygon", "coordinates": [ [ [ 129.4138849, 36.5389834 ], [ 129.413844399999988, 36.5388957 ], [ 129.4129792, 36.5391535 ], [ 129.4130214, 36.539245 ], [ 129.4131782, 36.5391983 ], [ 129.413203399999986, 36.5392528 ], [ 129.4132816, 36.5392295 ], [ 129.41325470000001, 36.5391711 ], [ 129.4138849, 36.5389834 ] ] ] } },
{ "type": "Feature", "properties": { "element": "way", "id": 1266585405, "building": "yes", "building:levels": null, "name": "영덕창수우체국", "name:ko": null, "name:en": null, "amenity": "post_office", "shop": null, "office": null, "tourism": null, "healthcare": null, "addr:street": null, "addr:housenumber": null, "start_date": null, "centroid_x_5179": 1165471.7650152235, "centroid_y_5179": 1840226.4654303063, "footprint_area_m2": 140.68105506253565 }, "geometry": { "type": "Polygon", "coordinates": [ [ [ 129.3487092, 36.5453916 ], [ 129.3487882, 36.5454571 ], [ 129.3486767, 36.5455439 ], [ 129.3485977, 36.5454784 ], [ 129.3487092, 36.5453916 ] ] ] } },
{ "type": "Feature", "properties": { "element": "way", "id": 1266585406, "building": "yes", "building:levels": null, "name": "창수면사무소", "name:ko": null, "name:en": null, "amenity": null, "shop": null, "office": "government", "tourism": null, "healthcare": null, "addr:street": null, "addr:housenumber": null, "start_date": null, "centroid_x_5179": 1165431.6260693057, "centroid_y_5179": 1840314.6910628246, "footprint_area_m2": 283.23283097763181 }, "geometry": { "type": "Polygon", "coordinates": [ [ [ 129.3483896, 36.5463239 ], [ 129.34826, 36.5461549 ], [ 129.3481377, 36.5462154 ], [ 129.3482673, 36.5463844 ], [ 129.3483896, 36.5463239 ] ] ] } },
{ "type": "Feature", "properties": { "element": "way", "id": 1266585407, "building": "yes", "building:levels": null, "name": "신기정류소", "name:ko": null, "name:en": null, "amenity": "bus_station", "shop": null, "office": null, "tourism": null, "healthcare": null, "addr:street": null, "addr:housenumber": null, "start_date": null, "centroid_x_5179": 1165393.7242766239, "centroid_y_5179": 1840293.4200171845, "footprint_area_m2": 99.515769101636579 }, "geometry": { "type": "Polygon", "coordinates": [ [ [ 129.3478728, 36.5460252 ], [ 129.3479184, 36.5460875 ], [ 129.3477988, 36.5461439 ], [ 129.3477533, 36.5460816 ], [ 129.3478728, 36.5460252 ] ] ] } },
{ "type": "Feature", "properties": { "element": "way", "id": 1267017116, "building": "apartments", "building:levels": null, "name": "축산동보팰리스아파트", "name:ko": null, "name:en": null, "amenity": null, "shop": null, "office": null, "tourism": null, "healthcare": null, "addr:street": null, "addr:housenumber": null, "start_date": null, "centroid_x_5179": 1174320.145670064, "centroid_y_5179": 1836161.4395115392, "footprint_area_m2": 477.00259111853649 }, "geometry": { "type": "Polygon", "coordinates": [ [ [ 129.4468177, 36.5072727 ], [ 129.446784, 36.5071709 ], [ 129.4463438, 36.5072651 ], [ 129.4463776, 36.5073669 ], [ 129.4468177, 36.5072727 ] ] ] } },
{ "type": "Feature", "properties": { "element": "way", "id": 1267017125, "building": "yes", "building:levels": null, "name": "영덕축산우체국", "name:ko": null, "name:en": null, "amenity": "post_office", "shop": null, "office": null, "tourism": null, "healthcare": null, "addr:street": null, "addr:housenumber": null, "start_date": null, "centroid_x_5179": 1174065.5796921218, "centroid_y_5179": 1836187.6833987003, "footprint_area_m2": 254.70397964669525 }, "geometry": { "type": "Polygon", "coordinates": [ [ [ 129.443871800000011, 36.5075492 ], [ 129.4437486, 36.5074502 ], [ 129.4436192, 36.5075542 ], [ 129.4437424, 36.5076532 ], [ 129.443871800000011, 36.5075492 ] ] ] } },
{ "type": "Feature", "properties": { "element": "way", "id": 1267017149, "building": "yes", "building:levels": null, "name": "축산파출소", "name:ko": null, "name:en": null, "amenity": "police", "shop": null, "office": null, "tourism": null, "healthcare": null, "addr:street": null, "addr:housenumber": null, "start_date": null, "centroid_x_5179": 1173905.0953195849, "centroid_y_5179": 1835947.8460476815, "footprint_area_m2": 83.690827168868822 }, "geometry": { "type": "Polygon", "coordinates": [ [ [ 129.441941500000013, 36.5053721 ], [ 129.4419593, 36.5054537 ], [ 129.44185920000001, 36.5054678 ], [ 129.441841399999987, 36.5053862 ], [ 129.441941500000013, 36.5053721 ] ] ] } },
{ "type": "Feature", "properties": { "element": "way", "id": 1268814315, "building": "yes", "building:levels": null, "name": "창수보건지소", "name:ko": null, "name:en": null, "amenity": null, "shop": null, "office": null, "tourism": null, "healthcare": "yes", "addr:street": null, "addr:housenumber": null, "start_date": null, "centroid_x_5179": 1165534.2213448295, "centroid_y_5179": 1840310.6091292556, "footprint_area_m2": 215.44753034318251 }, "geometry": { "type": "Polygon", "coordinates": [ [ [ 129.349473, 36.546126 ], [ 129.349536300000011, 36.5462066 ], [ 129.349344, 36.5463042 ], [ 129.349280599999986, 36.5462236 ], [ 129.349473, 36.546126 ] ] ] } },
{ "type": "Feature", "properties": { "element": "way", "id": 1268814332, "building": "school", "building:levels": null, "name": "창수초등학교", "name:ko": null, "name:en": null, "amenity": null, "shop": null, "office": null, "tourism": null, "healthcare": null, "addr:street": null, "addr:housenumber": null, "start_date": null, "centroid_x_5179": 1164883.617219572, "centroid_y_5179": 1840218.32230013, "footprint_area_m2": 687.80610583615112 }, "geometry": { "type": "Polygon", "coordinates": [ [ [ 129.3419754, 36.5452573 ], [ 129.3423757, 36.5456693 ], [ 129.3422713, 36.5457348 ], [ 129.341871, 36.5453228 ], [ 129.3419754, 36.5452573 ] ] ] } },
{ "type": "Feature", "properties": { "element": "way", "id": 1275355469, "building": "yes", "building:levels": null, "name": "축산면사무소", "name:ko": null, "name:en": null, "amenity": null, "shop": null, "office": "government", "tourism": null, "healthcare": null, "addr:street": null, "addr:housenumber": null, "start_date": null, "centroid_x_5179": 1171423.3441809411, "centroid_y_5179": 1836289.532599038, "footprint_area_m2": 359.04348542250142 }, "geometry": { "type": "Polygon", "coordinates": [ [ [ 129.414453900000012, 36.5089216 ], [ 129.4143812, 36.5088292 ], [ 129.414102, 36.5089712 ], [ 129.4141747, 36.5090636 ], [ 129.414453900000012, 36.5089216 ] ] ] } },
{ "type": "Feature", "properties": { "element": "way", "id": 1286176688, "building": "yes", "building:levels": null, "name": null, "name:ko": null, "name:en": null, "amenity": null, "shop": null, "office": null, "tourism": null, "healthcare": null, "addr:street": null, "addr:housenumber": null, "start_date": null, "centroid_x_5179": 1172159.5175778072, "centroid_y_5179": 1827015.6978016007, "footprint_area_m2": 161.4457359575083 }, "geometry": { "type": "Polygon", "coordinates": [ [ [ 129.4204019, 36.4251744 ], [ 129.420547, 36.4252854 ], [ 129.420501800000011, 36.4253236 ], [ 129.4204646, 36.4252951 ], [ 129.420432, 36.4253227 ], [ 129.420324099999988, 36.4252403 ], [ 129.4204019, 36.4251744 ] ] ] } },
{ "type": "Feature", "properties": { "element": "way", "id": 1286463699, "building": "yes", "building:levels": null, "name": null, "name:ko": null, "name:en": null, "amenity": null, "shop": null, "office": null, "tourism": null, "healthcare": null, "addr:street": null, "addr:housenumber": null, "start_date": null, "centroid_x_5179": 1172178.1340199404, "centroid_y_5179": 1826948.9358180861, "footprint_area_m2": 162.33168274634966 }, "geometry": { "type": "Polygon", "coordinates": [ [ [ 129.4206156, 36.4247387 ], [ 129.4205366, 36.4245748 ], [ 129.42059, 36.4245582 ], [ 129.420682, 36.4246379 ], [ 129.4207155, 36.4247075 ], [ 129.4206156, 36.4247387 ] ] ] } },
{ "type": "Feature", "properties": { "element": "way", "id": 1286463700, "building": "yes", "building:levels": null, "name": "영덕풍력발전주식회사", "name:ko": null, "name:en": null, "amenity": null, "shop": null, "office": "company", "tourism": null, "healthcare": null, "addr:street": null, "addr:housenumber": null, "start_date": null, "centroid_x_5179": 1172175.1766507598, "centroid_y_5179": 1826901.6426608623, "footprint_area_m2": 334.65561629175414 }, "geometry": { "type": "Polygon", "coordinates": [ [ [ 129.420631899999989, 36.424346 ], [ 129.4207342, 36.4242586 ], [ 129.4205301, 36.4241041 ], [ 129.4204279, 36.4241915 ], [ 129.420631899999989, 36.424346 ] ] ] } },
{ "type": "Feature", "properties": { "element": "way", "id": 1286463701, "building": "yes", "building:levels": null, "name": null, "name:ko": null, "name:en": null, "amenity": null, "shop": null, "office": null, "tourism": null, "healthcare": null, "addr:street": null, "addr:housenumber": null, "start_date": null, "centroid_x_5179": 1172089.2546871421, "centroid_y_5179": 1826706.1371920472, "footprint_area_m2": 1280.9012244054252 }, "geometry": { "type": "Polygon", "coordinates": [ [ [ 129.419827700000013, 36.4226074 ], [ 129.4198216, 36.4223173 ], [ 129.4196302, 36.4223485 ], [ 129.419578199999989, 36.422357 ], [ 129.419303899999989, 36.422357 ], [ 129.4193101, 36.4224685 ], [ 129.4195566, 36.4224661 ], [ 129.4195535, 36.4224958 ], [ 129.4191961, 36.4225181 ], [ 129.4191992, 36.4225603 ], [ 129.419458, 36.4225627 ], [ 129.419458, 36.4226297 ], [ 129.419670599999989, 36.4226346 ], [ 129.4196737, 36.4226024 ], [ 129.419827700000013, 36.4226074 ] ] ] } },
{ "type": "Feature", "properties": { "element": "way", "id": 1288962407, "building": "hospital", "building:levels": null, "name": "영덕군보건소", "name:ko": null, "name:en": null, "amenity": null, "shop": null, "office": null, "tourism": null, "healthcare": "hospital", "addr:street": null, "addr:housenumber": null, "start_date": null, "centroid_x_5179": 1167976.983902836, "centroid_y_5179": 1825629.4599095723, "footprint_area_m2": 1624.5784776579685 }, "geometry": { "type": "Polygon", "coordinates": [ [ [ 129.3736892, 36.4137536 ], [ 129.3737576, 36.4136209 ], [ 129.3733901, 36.4134946 ], [ 129.3738113, 36.4134633 ], [ 129.373877, 36.4133295 ], [ 129.3731823, 36.4133716 ], [ 129.3732091, 36.4135961 ], [ 129.3736892, 36.4137536 ] ] ] } },
{ "type": "Feature", "properties": { "element": "way", "id": 1289252485, "building": "fire_station", "building:levels": null, "name": "영덕소방서", "name:ko": null, "name:en": null, "amenity": null, "shop": null, "office": null, "tourism": null, "healthcare": null, "addr:street": null, "addr:housenumber": null, "start_date": null, "centroid_x_5179": 1167748.9233691636, "centroid_y_5179": 1825975.5874918199, "footprint_area_m2": 1440.0150558776493 }, "geometry": { "type": "Polygon", "coordinates": [ [ [ 129.37138010000001, 36.4166487 ], [ 129.371253200000012, 36.4164474 ], [ 129.3706817, 36.4166806 ], [ 129.3708087, 36.4168821 ], [ 129.37138010000001, 36.4166487 ] ] ] } },
{ "type": "Feature", "properties": { "element": "way", "id": 1289252502, "building": "yes", "building:levels": null, "name": "영덕전문장례식장", "name:ko": null, "name:en": null, "amenity": null, "shop": "funeral_directors", "office": null, "tourism": null, "healthcare": null, "addr:street": null, "addr:housenumber": null, "start_date": null, "centroid_x_5179": 1168626.4606219572, "centroid_y_5179": 1825819.3887644943, "footprint_area_m2": 538.01328066529493 }, "geometry": { "type": "Polygon", "coordinates": [ [ [ 129.3808598, 36.4152372 ], [ 129.380933, 36.415021 ], [ 129.3807003, 36.4149699 ], [ 129.380627, 36.4151861 ], [ 129.3808598, 36.4152372 ] ] ] } },
{ "type": "Feature", "properties": { "element": "way", "id": 1289430922, "building": "apartments", "building:levels": null, "name": "혜광신세계타운아파트", "name:ko": null, "name:en": null, "amenity": null, "shop": null, "office": null, "tourism": null, "healthcare": null, "addr:street": null, "addr:housenumber": null, "start_date": null, "centroid_x_5179": 1168214.6135319513, "centroid_y_5179": 1825422.7313928655, "footprint_area_m2": 1189.7302315654847 }, "geometry": { "type": "Polygon", "coordinates": [ [ [ 129.376506, 36.4117208 ], [ 129.376459899999986, 36.4118249 ], [ 129.375939, 36.4116753 ], [ 129.3759191, 36.4117158 ], [ 129.375808, 36.4116828 ], [ 129.375937099999987, 36.411373 ], [ 129.3760103, 36.4113945 ], [ 129.376037599999989, 36.4113135 ], [ 129.376159, 36.4113418 ], [ 129.3760954, 36.4115169 ], [ 129.3760111, 36.4114959 ], [ 129.3759851, 36.4115713 ], [ 129.376506, 36.4117208 ] ] ] } },
{ "type": "Feature", "properties": { "element": "way", "id": 1290813817, "building": "apartments", "building:levels": null, "name": "마이다스빌아파트", "name:ko": null, "name:en": null, "amenity": null, "shop": null, "office": null, "tourism": null, "healthcare": null, "addr:street": null, "addr:housenumber": null, "start_date": null, "centroid_x_5179": 1168107.9691130389, "centroid_y_5179": 1825133.1545920575, "footprint_area_m2": 824.62346603400113 }, "geometry": { "type": "Polygon", "coordinates": [ [ [ 129.3748263, 36.4093277 ], [ 129.375005, 36.4087191 ], [ 129.3748761, 36.4086946 ], [ 129.3746973, 36.4093032 ], [ 129.3748263, 36.4093277 ] ] ] } },
{ "type": "Feature", "properties": { "element": "way", "id": 1290813818, "building": "yes", "building:levels": null, "name": "영덕읍사무소", "name:ko": null, "name:en": null, "amenity": null, "shop": null, "office": "government", "tourism": null, "healthcare": null, "addr:street": null, "addr:housenumber": null, "start_date": null, "centroid_x_5179": 1167919.099025921, "centroid_y_5179": 1825178.0774528384, "footprint_area_m2": 470.61864175418037 }, "geometry": { "type": "Polygon", "coordinates": [ [ [ 129.372921, 36.4093523 ], [ 129.372909099999987, 36.4095255 ], [ 129.3725464, 36.4095093 ], [ 129.3725535, 36.4094059 ], [ 129.372778, 36.409416 ], [ 129.37278280000001, 36.4093461 ], [ 129.372921, 36.4093523 ] ] ] } },
{ "type": "Feature", "properties": { "element": "way", "id": 1290813837, "building": "apartments", "building:levels": null, "name": "상아아파트", "name:ko": null, "name:en": null, "amenity": null, "shop": null, "office": null, "tourism": null, "healthcare": null, "addr:street": null, "addr:housenumber": null, "start_date": null, "centroid_x_5179": 1167900.7920364123, "centroid_y_5179": 1825408.5065027277, "footprint_area_m2": 370.55280785412344 }, "geometry": { "type": "Polygon", "coordinates": [ [ [ 129.372700400000014, 36.4116742 ], [ 129.3727419, 36.4116382 ], [ 129.3727187, 36.4116209 ], [ 129.3727436, 36.4115992 ], [ 129.3727149, 36.4115778 ], [ 129.3727419, 36.4115543 ], [ 129.3725259, 36.4113933 ], [ 129.3724324, 36.4114746 ], [ 129.372700400000014, 36.4116742 ] ] ] } },
{ "type": "Feature", "properties": { "element": "way", "id": 1290813844, "building": "yes", "building:levels": null, "name": "한국전력공사 대구본부 영덕지사", "name:ko": null, "name:en": null, "amenity": null, "shop": null, "office": "energy_supplier", "tourism": null, "healthcare": null, "addr:street": null, "addr:housenumber": null, "start_date": null, "centroid_x_5179": 1168150.9687486072, "centroid_y_5179": 1825390.3447266903, "footprint_area_m2": 537.91253583291927 }, "geometry": { "type": "Polygon", "coordinates": [ [ [ 129.375207, 36.4112609 ], [ 129.37537660000001, 36.4112899 ], [ 129.375401, 36.4111974 ], [ 129.3755573, 36.4112241 ], [ 129.3755028, 36.4114309 ], [ 129.375176900000014, 36.4113753 ], [ 129.375207, 36.4112609 ] ] ] } },
{ "type": "Feature", "properties": { "element": "way", "id": 1290813847, "building": "apartments", "building:levels": null, "name": "홍안행복타운아파트", "name:ko": null, "name:en": null, "amenity": null, "shop": null, "office": null, "tourism": null, "healthcare": null, "addr:street": null, "addr:housenumber": null, "start_date": null, "centroid_x_5179": 1168222.9375726066, "centroid_y_5179": 1825339.1299773729, "footprint_area_m2": 768.15508943310306 }, "geometry": { "type": "Polygon", "coordinates": [ [ [ 129.3762571, 36.4111196 ], [ 129.3763251, 36.4107009 ], [ 129.3759398, 36.4106604 ], [ 129.3759253, 36.41075 ], [ 129.3761849, 36.4107774 ], [ 129.3761314, 36.4111064 ], [ 129.3762571, 36.4111196 ] ] ] } },
{ "type": "Feature", "properties": { "element": "way", "id": 1290813867, "building": "apartments", "building:levels": null, "name": "동보팰리스아파트", "name:ko": null, "name:en": null, "amenity": null, "shop": null, "office": null, "tourism": null, "healthcare": null, "addr:street": null, "addr:housenumber": null, "start_date": null, "centroid_x_5179": 1167866.4965024702, "centroid_y_5179": 1824815.100434545, "footprint_area_m2": 623.73748148702214 }, "geometry": { "type": "Polygon", "coordinates": [ [ [ 129.372333, 36.4061524 ], [ 129.372250900000012, 36.4060337 ], [ 129.3719342, 36.4061755 ], [ 129.3718601, 36.4063048 ], [ 129.3718915, 36.4063502 ], [ 129.372333, 36.4061524 ] ] ] } },
{ "type": "Feature", "properties": { "element": "way", "id": 1290813873, "building": "apartments", "building:levels": null, "name": "남영로얄타운", "name:ko": null, "name:en": null, "amenity": null, "shop": null, "office": null, "tourism": null, "healthcare": null, "addr:street": null, "addr:housenumber": null, "start_date": null, "centroid_x_5179": 1167927.6967730185, "centroid_y_5179": 1824896.4070338276, "footprint_area_m2": 846.35917080848571 }, "geometry": { "type": "Polygon", "coordinates": [ [ [ 129.3730787, 36.4066567 ], [ 129.3731574, 36.4067354 ], [ 129.3724733, 36.4071781 ], [ 129.3724319, 36.4071367 ], [ 129.372492200000011, 36.4070978 ], [ 129.3724547, 36.4070603 ], [ 129.3730787, 36.4066567 ] ] ] } },
{ "type": "Feature", "properties": { "element": "way", "id": 1290813874, "building": "apartments", "building:levels": null, "name": "궁전아파트", "name:ko": null, "name:en": null, "amenity": null, "shop": null, "office": null, "tourism": null, "healthcare": null, "addr:street": null, "addr:housenumber": null, "start_date": null, "centroid_x_5179": 1167932.0082421368, "centroid_y_5179": 1824925.5159325472, "footprint_area_m2": 753.66046517009102 }, "geometry": { "type": "Polygon", "coordinates": [ [ [ 129.3730377, 36.4069614 ], [ 129.3731339, 36.407053 ], [ 129.372652, 36.4073807 ], [ 129.3725557, 36.4072889 ], [ 129.3730377, 36.4069614 ] ] ] } },
{ "type": "Feature", "properties": { "element": "way", "id": 1290813880, "building": "apartments", "building:levels": null, "name": "가", "name:ko": null, "name:en": null, "amenity": null, "shop": null, "office": null, "tourism": null, "healthcare": null, "addr:street": null, "addr:housenumber": null, "start_date": null, "centroid_x_5179": 1167920.458017312, "centroid_y_5179": 1825012.6179809954, "footprint_area_m2": 753.9824634247575 }, "geometry": { "type": "Polygon", "coordinates": [ [ [ 129.3730921, 36.4079238 ], [ 129.373083, 36.4080307 ], [ 129.3723776, 36.407992 ], [ 129.3723867, 36.4078851 ], [ 129.3730921, 36.4079238 ] ] ] } },
{ "type": "Feature", "properties": { "element": "way", "id": 1290813881, "building": "apartments", "building:levels": null, "name": "나", "name:ko": null, "name:en": null, "amenity": null, "shop": null, "office": null, "tourism": null, "healthcare": null, "addr:street": null, "addr:housenumber": null, "start_date": null, "centroid_x_5179": 1167918.3552015556, "centroid_y_5179": 1825038.691152375, "footprint_area_m2": 753.9802063963474 }, "geometry": { "type": "Polygon", "coordinates": [ [ [ 129.373074300000013, 36.4081591 ], [ 129.373065200000013, 36.408266 ], [ 129.3723598, 36.4082273 ], [ 129.3723689, 36.4081204 ], [ 129.373074300000013, 36.4081591 ] ] ] } },
{ "type": "Feature", "properties": { "element": "way", "id": 1290813897, "building": "apartments", "building:levels": null, "name": "한동맘에듬아파트", "name:ko": null, "name:en": null, "amenity": null, "shop": null, "office": null, "tourism": null, "healthcare": null, "addr:street": null, "addr:housenumber": null, "start_date": null, "centroid_x_5179": 1167780.1347394292, "centroid_y_5179": 1825099.6464263638, "footprint_area_m2": 481.01853295889191 }, "geometry": { "type": "Polygon", "coordinates": [ [ [ 129.3710834, 36.4086218 ], [ 129.3713567, 36.4087611 ], [ 129.371338900000012, 36.4087838 ], [ 129.3713665, 36.4087979 ], [ 129.3713421, 36.408829 ], [ 129.371377599999988, 36.4088471 ], [ 129.3713519, 36.4088798 ], [ 129.371225, 36.4088152 ], [ 129.3711591, 36.408899 ], [ 129.3710601, 36.4088485 ], [ 129.371128700000014, 36.4087614 ], [ 129.3710179, 36.4087049 ], [ 129.3710834, 36.4086218 ] ] ] } },
{ "type": "Feature", "properties": { "element": "way", "id": 1290813898, "building": "yes", "building:levels": null, "name": "삼화사우나", "name:ko": null, "name:en": null, "amenity": "public_bath", "shop": null, "office": null, "tourism": null, "healthcare": null, "addr:street": null, "addr:housenumber": null, "start_date": null, "centroid_x_5179": 1167800.1017927506, "centroid_y_5179": 1825002.9889327723, "footprint_area_m2": 647.54278723920891 }, "geometry": { "type": "Polygon", "coordinates": [ [ [ 129.3715952, 36.4079592 ], [ 129.3712626, 36.4080159 ], [ 129.371209099999987, 36.4078126 ], [ 129.3714905, 36.4077645 ], [ 129.3715182, 36.4078695 ], [ 129.3715693, 36.4078608 ], [ 129.3715952, 36.4079592 ] ] ] } },
{ "type": "Feature", "properties": { "element": "way", "id": 1290813905, "building": "yes", "building:levels": null, "name": "영덕파출소", "name:ko": null, "name:en": null, "amenity": "police", "shop": null, "office": null, "tourism": null, "healthcare": null, "addr:street": null, "addr:housenumber": null, "start_date": null, "centroid_x_5179": 1167684.4473337855, "centroid_y_5179": 1825297.7248525075, "footprint_area_m2": 78.064700311293549 }, "geometry": { "type": "Polygon", "coordinates": [ [ [ 129.3701271, 36.4106153 ], [ 129.370102, 36.4105442 ], [ 129.3702041, 36.4105209 ], [ 129.370229200000011, 36.410592 ], [ 129.3701271, 36.4106153 ] ] ] } },
{ "type": "Feature", "properties": { "element": "way", "id": 1291855880, "building": "yes", "building:levels": null, "name": "영덕우체국", "name:ko": null, "name:en": null, "amenity": "post_office", "shop": null, "office": null, "tourism": null, "healthcare": null, "addr:street": null, "addr:housenumber": null, "start_date": null, "centroid_x_5179": 1167638.8655135066, "centroid_y_5179": 1825451.6326111665, "footprint_area_m2": 424.93414434802327 }, "geometry": { "type": "Polygon", "coordinates": [ [ [ 129.3697947, 36.4118566 ], [ 129.3698504, 36.412005 ], [ 129.3695868, 36.4120691 ], [ 129.369531, 36.4119207 ], [ 129.3697947, 36.4118566 ] ] ] } },
{ "type": "Feature", "properties": { "element": "way", "id": 1291855889, "building": "apartments", "building:levels": null, "name": "스마트타워아파트", "name:ko": null, "name:en": null, "amenity": null, "shop": null, "office": null, "tourism": null, "healthcare": null, "addr:street": null, "addr:housenumber": null, "start_date": null, "centroid_x_5179": 1167909.6554609893, "centroid_y_5179": 1825658.4202937346, "footprint_area_m2": 583.99433680233903 }, "geometry": { "type": "Polygon", "coordinates": [ [ [ 129.372996300000011, 36.4139028 ], [ 129.3729911, 36.4137823 ], [ 129.3727596, 36.4137888 ], [ 129.372608899999989, 36.4135792 ], [ 129.3725077, 36.4136263 ], [ 129.3726646, 36.4138445 ], [ 129.3727479, 36.4138057 ], [ 129.3727524, 36.4139096 ], [ 129.372996300000011, 36.4139028 ] ] ] } },
{ "type": "Feature", "properties": { "element": "way", "id": 1291855891, "building": "apartments", "building:levels": null, "name": "106", "name:ko": null, "name:en": null, "amenity": null, "shop": null, "office": null, "tourism": null, "healthcare": null, "addr:street": null, "addr:housenumber": null, "start_date": null, "centroid_x_5179": 1168070.4773344563, "centroid_y_5179": 1825182.4703702019, "footprint_area_m2": 325.13576569220618 }, "geometry": { "type": "Polygon", "coordinates": [ [ [ 129.374581799999987, 36.4094011 ], [ 129.3744781, 36.4094254 ], [ 129.374401400000011, 36.409367 ], [ 129.374272499999989, 36.4094767 ], [ 129.374373600000013, 36.4095538 ], [ 129.37448040000001, 36.409463 ], [ 129.3745035, 36.4095269 ], [ 129.3746176, 36.4095003 ], [ 129.374581799999987, 36.4094011 ] ] ] } },
{ "type": "Feature", "properties": { "element": "way", "id": 1291855893, "building": "apartments", "building:levels": null, "name": "103", "name:ko": null, "name:en": null, "amenity": null, "shop": null, "office": null, "tourism": null, "healthcare": null, "addr:street": null, "addr:housenumber": null, "start_date": null, "centroid_x_5179": 1168075.7134759983, "centroid_y_5179": 1825223.9513923465, "footprint_area_m2": 451.33064532426823 }, "geometry": { "type": "Polygon", "coordinates": [ [ [ 129.374743599999988, 36.4098239 ], [ 129.3744898, 36.4098069 ], [ 129.3744044, 36.4097095 ], [ 129.374279300000012, 36.4097805 ], [ 129.3743737, 36.4098882 ], [ 129.37448040000001, 36.4098275 ], [ 129.3744726, 36.409903 ], [ 129.374733600000013, 36.4099206 ], [ 129.374743599999988, 36.4098239 ] ] ] } },
{ "type": "Feature", "properties": { "element": "way", "id": 1291855895, "building": "apartments", "building:levels": null, "name": "102", "name:ko": null, "name:en": null, "amenity": null, "shop": null, "office": null, "tourism": null, "healthcare": null, "addr:street": null, "addr:housenumber": null, "start_date": null, "centroid_x_5179": 1168025.400595661, "centroid_y_5179": 1825223.9223170232, "footprint_area_m2": 249.15271919769191 }, "geometry": { "type": "Polygon", "coordinates": [ [ [ 129.374073, 36.4099001 ], [ 129.37408210000001, 36.4098022 ], [ 129.373827799999987, 36.4097869 ], [ 129.373818699999987, 36.4098848 ], [ 129.374073, 36.4099001 ] ] ] } },
{ "type": "Feature", "properties": { "element": "way", "id": 1291855896, "building": "apartments", "building:levels": null, "name": "101", "name:ko": null, "name:en": null, "amenity": null, "shop": null, "office": null, "tourism": null, "healthcare": null, "addr:street": null, "addr:housenumber": null, "start_date": null, "centroid_x_5179": 1167991.263622581, "centroid_y_5179": 1825216.8139795319, "footprint_area_m2": 322.58743635100768 }, "geometry": { "type": "Polygon", "coordinates": [ [ [ 129.3736212, 36.4096753 ], [ 129.373719200000011, 36.4097862 ], [ 129.3736025, 36.4098802 ], [ 129.3735523, 36.4098416 ], [ 129.373399299999988, 36.4098294 ], [ 129.373411, 36.4097543 ], [ 129.373516099999989, 36.4097599 ], [ 129.3736212, 36.4096753 ] ] ] } },
{ "type": "Feature", "properties": { "element": "way", "id": 1291855897, "building": "apartments", "building:levels": null, "name": "105", "name:ko": null, "name:en": null, "amenity": null, "shop": null, "office": null, "tourism": null, "healthcare": null, "addr:street": null, "addr:housenumber": null, "start_date": null, "centroid_x_5179": 1168027.8366204307, "centroid_y_5179": 1825184.8652059475, "footprint_area_m2": 249.14477815165787 }, "geometry": { "type": "Polygon", "coordinates": [ [ [ 129.3740917, 36.4095477 ], [ 129.3741008, 36.4094498 ], [ 129.373846500000013, 36.4094346 ], [ 129.373837400000014, 36.4095325 ], [ 129.3740917, 36.4095477 ] ] ] } },
{ "type": "Feature", "properties": { "element": "way", "id": 1291855898, "building": "apartments", "building:levels": null, "name": "104", "name:ko": null, "name:en": null, "amenity": null, "shop": null, "office": null, "tourism": null, "healthcare": null, "addr:street": null, "addr:housenumber": null, "start_date": null, "centroid_x_5179": 1167993.3183475395, "centroid_y_5179": 1825181.0866262191, "footprint_area_m2": 322.67678345292364 }, "geometry": { "type": "Polygon", "coordinates": [ [ [ 129.373636299999987, 36.409353 ], [ 129.373734399999989, 36.4094639 ], [ 129.373617700000011, 36.4095579 ], [ 129.3735675, 36.4095194 ], [ 129.3734145, 36.4095071 ], [ 129.373426200000011, 36.409432 ], [ 129.3735313, 36.4094376 ], [ 129.373636299999987, 36.409353 ] ] ] } },
{ "type": "Feature", "properties": { "element": "way", "id": 1291855921, "building": "school", "building:levels": null, "name": "영덕야성초등학교", "name:ko": null, "name:en": null, "amenity": null, "shop": null, "office": null, "tourism": null, "healthcare": null, "addr:street": null, "addr:housenumber": null, "start_date": null, "centroid_x_5179": 1167565.9020112909, "centroid_y_5179": 1825563.0803229245, "footprint_area_m2": 1236.4240738788835 }, "geometry": { "type": "Polygon", "coordinates": [ [ [ 129.369421499999987, 36.4130585 ], [ 129.3694351, 36.412968 ], [ 129.3684222, 36.4128697 ], [ 129.3684012, 36.4130098 ], [ 129.3685207, 36.4130214 ], [ 129.3685276, 36.4129751 ], [ 129.36869, 36.4129909 ], [ 129.3686832, 36.4130361 ], [ 129.3691839, 36.4130848 ], [ 129.369191199999989, 36.4130361 ], [ 129.369421499999987, 36.4130585 ] ] ] } },
{ "type": "Feature", "properties": { "element": "way", "id": 1291855938, "building": "apartments", "building:levels": null, "name": "동문아파트", "name:ko": null, "name:en": null, "amenity": null, "shop": null, "office": null, "tourism": null, "healthcare": null, "addr:street": null, "addr:housenumber": null, "start_date": null, "centroid_x_5179": 1167258.2492482802, "centroid_y_5179": 1825662.6071478545, "footprint_area_m2": 605.00347283113013 }, "geometry": { "type": "Polygon", "coordinates": [ [ [ 129.3655225, 36.4137344 ], [ 129.3656234, 36.4140973 ], [ 129.365463799999986, 36.414126 ], [ 129.365363, 36.4137631 ], [ 129.3655225, 36.4137344 ] ] ] } },
{ "type": "Feature", "properties": { "element": "way", "id": 1291855945, "building": "yes", "building:levels": null, "name": null, "name:ko": null, "name:en": null, "amenity": null, "shop": null, "office": "government", "tourism": null, "healthcare": null, "addr:street": null, "addr:housenumber": null, "start_date": null, "centroid_x_5179": 1167242.2948672476, "centroid_y_5179": 1825803.2148786937, "footprint_area_m2": 436.64531621537378 }, "geometry": { "type": "Polygon", "coordinates": [ [ [ 129.365518400000013, 36.4151378 ], [ 129.3655164, 36.4152655 ], [ 129.3651729, 36.4152621 ], [ 129.3651748, 36.4151344 ], [ 129.365518400000013, 36.4151378 ] ] ] } },
{ "type": "Feature", "properties": { "element": "way", "id": 1291855979, "building": "yes", "building:levels": null, "name": "영덕국민체육센터", "name:ko": null, "name:en": null, "amenity": null, "shop": null, "office": null, "tourism": null, "healthcare": null, "addr:street": null, "addr:housenumber": null, "start_date": null, "centroid_x_5179": 1167254.1105530122, "centroid_y_5179": 1826071.6637985127, "footprint_area_m2": 1697.1560251394794 }, "geometry": { "type": "Polygon", "coordinates": [ [ [ 129.3658638, 36.4175439 ], [ 129.365587299999987, 36.4173457 ], [ 129.3652066, 36.4176896 ], [ 129.3654832, 36.4178878 ], [ 129.3658638, 36.4175439 ] ] ] } },
{ "type": "Feature", "properties": { "element": "way", "id": 1291868501, "building": "yes", "building:levels": null, "name": "대구지방법원 영덕지원", "name:ko": null, "name:en": null, "amenity": "courthouse", "shop": null, "office": null, "tourism": null, "healthcare": null, "addr:street": null, "addr:housenumber": null, "start_date": null, "centroid_x_5179": 1167315.6971924605, "centroid_y_5179": 1826330.1379289459, "footprint_area_m2": 1991.2471654217461 }, "geometry": { "type": "Polygon", "coordinates": [ [ [ 129.3666308, 36.4197051 ], [ 129.3665273, 36.4198389 ], [ 129.3664508, 36.4198006 ], [ 129.3662933, 36.4200041 ], [ 129.3664455, 36.4200803 ], [ 129.3663053, 36.4202615 ], [ 129.3661842, 36.4202009 ], [ 129.3661458, 36.4202505 ], [ 129.3659389, 36.4201469 ], [ 129.3661964, 36.4198139 ], [ 129.3661755, 36.4198034 ], [ 129.3663574, 36.4195681 ], [ 129.3666308, 36.4197051 ] ] ] } },
{ "type": "Feature", "properties": { "element": "way", "id": 1291868502, "building": "yes", "building:levels": null, "name": "대구지방검찰청 영덕지청", "name:ko": null, "name:en": null, "amenity": null, "shop": null, "office": "government", "tourism": null, "healthcare": null, "addr:street": null, "addr:housenumber": null, "start_date": null, "centroid_x_5179": 1167262.7473678081, "centroid_y_5179": 1826422.4967736227, "footprint_area_m2": 1825.0149076161065 }, "geometry": { "type": "Polygon", "coordinates": [ [ [ 129.3655067, 36.4211003 ], [ 129.365808, 36.4207211 ], [ 129.3660558, 36.4208486 ], [ 129.3661606, 36.4207168 ], [ 129.365721799999989, 36.4204911 ], [ 129.365315900000013, 36.4210022 ], [ 129.3655067, 36.4211003 ] ] ] } },
{ "type": "Feature", "properties": { "element": "way", "id": 1291868504, "building": "hospital", "building:levels": null, "name": "영덕효요양병원", "name:ko": null, "name:en": null, "amenity": null, "shop": null, "office": null, "tourism": null, "healthcare": null, "addr:street": null, "addr:housenumber": null, "start_date": null, "centroid_x_5179": 1167954.4982501438, "centroid_y_5179": 1824269.1118727406, "footprint_area_m2": 1051.8850148199583 }, "geometry": { "type": "Polygon", "coordinates": [ [ [ 129.3732231, 36.4011749 ], [ 129.3730066, 36.4013194 ], [ 129.373049400000014, 36.4013609 ], [ 129.3728763, 36.4014764 ], [ 129.3726869, 36.4012926 ], [ 129.3730765, 36.4010326 ], [ 129.3732231, 36.4011749 ] ] ] } },
{ "type": "Feature", "properties": { "element": "way", "id": 1292563208, "building": "yes", "building:levels": null, "name": "영덕문화체육센터", "name:ko": null, "name:en": null, "amenity": "arts_centre", "shop": null, "office": null, "tourism": null, "healthcare": null, "addr:street": null, "addr:housenumber": null, "start_date": null, "centroid_x_5179": 1166930.4441782651, "centroid_y_5179": 1826332.105721287, "footprint_area_m2": 1348.3411630712681 }, "geometry": { "type": "Polygon", "coordinates": [ [ [ 129.3623408, 36.4198338 ], [ 129.3624072, 36.4199886 ], [ 129.361624799999987, 36.4202058 ], [ 129.3615584, 36.4200511 ], [ 129.3623408, 36.4198338 ] ] ] } },
{ "type": "Feature", "properties": { "element": "way", "id": 1292902408, "building": "yes", "building:levels": null, "name": "영덕세무서", "name:ko": null, "name:en": null, "amenity": null, "shop": null, "office": "government", "tourism": null, "healthcare": null, "addr:street": null, "addr:housenumber": null, "start_date": null, "centroid_x_5179": 1167634.7133304554, "centroid_y_5179": 1824008.5630099666, "footprint_area_m2": 697.87866086430176 }, "geometry": { "type": "Polygon", "coordinates": [ [ [ 129.369520099999988, 36.3991587 ], [ 129.3695554, 36.3989007 ], [ 129.368991099999988, 36.3988507 ], [ 129.368980099999987, 36.3989309 ], [ 129.36932920000001, 36.3989619 ], [ 129.3693213, 36.3990199 ], [ 129.3694404, 36.3990305 ], [ 129.369424, 36.3991502 ], [ 129.369520099999988, 36.3991587 ] ] ] } },
{ "type": "Feature", "properties": { "element": "way", "id": 1295018838, "building": "yes", "building:levels": null, "name": "영덕강구우체국", "name:ko": null, "name:en": null, "amenity": "post_office", "shop": null, "office": null, "tourism": null, "healthcare": null, "addr:street": null, "addr:housenumber": null, "start_date": null, "centroid_x_5179": 1168944.2351444981, "centroid_y_5179": 1819567.9603407171, "footprint_area_m2": 207.16574675084487 }, "geometry": { "type": "Polygon", "coordinates": [ [ [ 129.3829979, 36.3586319 ], [ 129.383068, 36.3587557 ], [ 129.3829289, 36.3588068 ], [ 129.3828588, 36.358683 ], [ 129.3829979, 36.3586319 ] ] ] } },
{ "type": "Feature", "properties": { "element": "way", "id": 1295989988, "building": "yes", "building:levels": null, "name": "강구파출소", "name:ko": null, "name:en": null, "amenity": "police", "shop": null, "office": null, "tourism": null, "healthcare": null, "addr:street": null, "addr:housenumber": null, "start_date": null, "centroid_x_5179": 1168736.2354381536, "centroid_y_5179": 1819421.1669728009, "footprint_area_m2": 65.269187659614886 }, "geometry": { "type": "Polygon", "coordinates": [ [ [ 129.380675200000013, 36.3574169 ], [ 129.380642, 36.3574797 ], [ 129.3805537, 36.3574495 ], [ 129.3805869, 36.3573866 ], [ 129.380675200000013, 36.3574169 ] ] ] } },
{ "type": "Feature", "properties": { "element": "way", "id": 1295989996, "building": "yes", "building:levels": null, "name": "강구버스터미널", "name:ko": null, "name:en": null, "amenity": "bus_station", "shop": null, "office": null, "tourism": null, "healthcare": null, "addr:street": null, "addr:housenumber": null, "start_date": null, "centroid_x_5179": 1168618.8421898945, "centroid_y_5179": 1819553.9240383198, "footprint_area_m2": 398.29017985838391 }, "geometry": { "type": "Polygon", "coordinates": [ [ [ 129.3794829, 36.3585647 ], [ 129.3793862, 36.358766 ], [ 129.379164, 36.3586968 ], [ 129.3792092, 36.3586026 ], [ 129.3793021, 36.3586315 ], [ 129.3793535, 36.3585244 ], [ 129.3794829, 36.3585647 ] ] ] } },
{ "type": "Feature", "properties": { "element": "way", "id": 1295990019, "building": "commercial", "building:levels": null, "name": "강구농협하나로마트", "name:ko": null, "name:en": null, "amenity": null, "shop": null, "office": null, "tourism": null, "healthcare": null, "addr:street": null, "addr:housenumber": null, "start_date": null, "centroid_x_5179": 1168532.3926542304, "centroid_y_5179": 1819654.664044061, "footprint_area_m2": 1556.4885433412028 }, "geometry": { "type": "Polygon", "coordinates": [ [ [ 129.378238, 36.3593534 ], [ 129.378633900000011, 36.3594093 ], [ 129.378550499999989, 36.3597923 ], [ 129.3781545, 36.3597363 ], [ 129.378238, 36.3593534 ] ] ] } },
{ "type": "Feature", "properties": { "element": "way", "id": 1295990022, "building": "yes", "building:levels": null, "name": "강구면보건지소", "name:ko": null, "name:en": null, "amenity": null, "shop": null, "office": null, "tourism": null, "healthcare": "yes", "addr:street": null, "addr:housenumber": null, "start_date": null, "centroid_x_5179": 1168562.9524342155, "centroid_y_5179": 1819487.0736862214, "footprint_area_m2": 288.51907686338882 }, "geometry": { "type": "Polygon", "coordinates": [ [ [ 129.3787145, 36.3579491 ], [ 129.3788334, 36.3580487 ], [ 129.3786823, 36.3581657 ], [ 129.3785633, 36.3580661 ], [ 129.3787145, 36.3579491 ] ] ] } },
{ "type": "Feature", "properties": { "element": "way", "id": 1298858010, "building": "yes", "building:levels": null, "name": "달산보건지소", "name:ko": null, "name:en": null, "amenity": null, "shop": null, "office": null, "tourism": null, "healthcare": "yes", "addr:street": null, "addr:housenumber": null, "start_date": null, "centroid_x_5179": 1161566.7957734498, "centroid_y_5179": 1824132.9978323057, "footprint_area_m2": 337.20356058598196 }, "geometry": { "type": "Polygon", "coordinates": [ [ [ 129.3017639, 36.4010632 ], [ 129.3018634, 36.4011372 ], [ 129.301743, 36.4012421 ], [ 129.3015825, 36.4011227 ], [ 129.3017322, 36.4009925 ], [ 129.301785099999989, 36.4010318 ], [ 129.3017639, 36.4010632 ] ] ] } },
{ "type": "Feature", "properties": { "element": "way", "id": 1298858015, "building": "yes", "building:levels": null, "name": "달산면사무소", "name:ko": null, "name:en": null, "amenity": null, "shop": null, "office": "government", "tourism": null, "healthcare": null, "addr:street": null, "addr:housenumber": null, "start_date": null, "centroid_x_5179": 1161711.4323396722, "centroid_y_5179": 1823911.2269583519, "footprint_area_m2": 348.14520815528283 }, "geometry": { "type": "Polygon", "coordinates": [ [ [ 129.3034557, 36.3991014 ], [ 129.3034083, 36.399198 ], [ 129.303118500000011, 36.3991058 ], [ 129.3031641, 36.399013 ], [ 129.3032639, 36.3990448 ], [ 129.3032799, 36.3990123 ], [ 129.3033721, 36.3990416 ], [ 129.303358, 36.3990704 ], [ 129.3034557, 36.3991014 ] ] ] } },
{ "type": "Feature", "properties": { "element": "way", "id": 1298858017, "building": "yes", "building:levels": null, "name": "영덕달산우체국", "name:ko": null, "name:en": null, "amenity": "post_office", "shop": null, "office": null, "tourism": null, "healthcare": null, "addr:street": null, "addr:housenumber": null, "start_date": null, "centroid_x_5179": 1161747.7476455683, "centroid_y_5179": 1823870.1499836538, "footprint_area_m2": 103.10603924027831 }, "geometry": { "type": "Polygon", "coordinates": [ [ [ 129.3037487, 36.3986814 ], [ 129.3037333, 36.3987757 ], [ 129.303625399999987, 36.3987644 ], [ 129.303640699999988, 36.39867 ], [ 129.3037487, 36.3986814 ] ] ] } },
{ "type": "Feature", "properties": { "element": "way", "id": 1298858019, "building": "yes", "building:levels": null, "name": "달산파출소", "name:ko": null, "name:en": null, "amenity": "police", "shop": null, "office": null, "tourism": null, "healthcare": null, "addr:street": null, "addr:housenumber": null, "start_date": null, "centroid_x_5179": 1161754.9891411648, "centroid_y_5179": 1823853.7884590661, "footprint_area_m2": 125.01624858764617 }, "geometry": { "type": "Polygon", "coordinates": [ [ [ 129.303732700000012, 36.3985008 ], [ 129.3038095, 36.3985237 ], [ 129.3037918, 36.3985621 ], [ 129.3038441, 36.3985777 ], [ 129.3038151, 36.3986404 ], [ 129.3036861, 36.3986019 ], [ 129.303732700000012, 36.3985008 ] ] ] } },
{ "type": "Feature", "properties": { "element": "way", "id": 1298908906, "building": "yes", "building:levels": null, "name": null, "name:ko": null, "name:en": null, "amenity": "police", "shop": null, "office": null, "tourism": null, "healthcare": null, "addr:street": null, "addr:housenumber": null, "start_date": null, "centroid_x_5179": 1159807.7087414346, "centroid_y_5179": 1829137.7547699723, "footprint_area_m2": 111.35382798493168 }, "geometry": { "type": "Polygon", "coordinates": [ [ [ 129.283145, 36.4464452 ], [ 129.283228900000012, 36.4464923 ], [ 129.283151, 36.446582 ], [ 129.283067100000011, 36.4465349 ], [ 129.283145, 36.4464452 ] ] ] } },
{ "type": "Feature", "properties": { "element": "way", "id": 1298908911, "building": "yes", "building:levels": null, "name": "영덕지품우체국", "name:ko": null, "name:en": null, "amenity": "post_office", "shop": null, "office": null, "tourism": null, "healthcare": null, "addr:street": null, "addr:housenumber": null, "start_date": null, "centroid_x_5179": 1159714.226644594, "centroid_y_5179": 1829264.2693333609, "footprint_area_m2": 152.43378124523096 }, "geometry": { "type": "Polygon", "coordinates": [ [ [ 129.2820294, 36.4476581 ], [ 129.2821639, 36.4477478 ], [ 129.2822335, 36.4476802 ], [ 129.282099, 36.4475906 ], [ 129.2820294, 36.4476581 ] ] ] } },
{ "type": "Feature", "properties": { "element": "way", "id": 1347732406, "building": "train_station", "building:levels": null, "name": "영해역", "name:ko": "영해역", "name:en": null, "amenity": null, "shop": null, "office": null, "tourism": null, "healthcare": null, "addr:street": null, "addr:housenumber": null, "start_date": "2025-01-01", "centroid_x_5179": 1169774.558068349, "centroid_y_5179": 1839517.9221009966, "footprint_area_m2": 1049.1525622596705 }, "geometry": { "type": "Polygon", "coordinates": [ [ [ 129.3964507, 36.5385664 ], [ 129.396664, 36.5385821 ], [ 129.39672, 36.5380913 ], [ 129.3965066, 36.5380756 ], [ 129.3964507, 36.5385664 ] ] ] } },
{ "type": "Feature", "properties": { "element": "way", "id": 1347732408, "building": "fire_station", "building:levels": null, "name": "영해119안전센터", "name:ko": "영해119안전센터", "name:en": null, "amenity": null, "shop": null, "office": null, "tourism": null, "healthcare": null, "addr:street": null, "addr:housenumber": null, "start_date": null, "centroid_x_5179": 1169720.5532877001, "centroid_y_5179": 1839980.3522324313, "footprint_area_m2": 654.77712689683074 }, "geometry": { "type": "Polygon", "coordinates": [ [ [ 129.395857, 36.5425733 ], [ 129.395862, 36.5424267 ], [ 129.396311200000014, 36.5424367 ], [ 129.3963062, 36.5425833 ], [ 129.395857, 36.5425733 ] ] ] } },
{ "type": "Feature", "properties": { "element": "way", "id": 1499373186, "building": "yes", "building:levels": null, "name": null, "name:ko": null, "name:en": null, "amenity": null, "shop": null, "office": null, "tourism": null, "healthcare": null, "addr:street": null, "addr:housenumber": null, "start_date": null, "centroid_x_5179": 1157316.7505243197, "centroid_y_5179": 1816111.451272992, "footprint_area_m2": 343.92992962934159 }, "geometry": { "type": "Polygon", "coordinates": [ [ [ 129.2528303, 36.3296247 ], [ 129.252895, 36.3295256 ], [ 129.252714, 36.329449 ], [ 129.25267740000001, 36.3295052 ], [ 129.2526178, 36.3294799 ], [ 129.252557700000011, 36.3295722 ], [ 129.2526447, 36.329609 ], [ 129.2526523, 36.3295973 ], [ 129.2527129, 36.3296229 ], [ 129.2527374, 36.3295854 ], [ 129.2528303, 36.3296247 ] ] ] } },
{ "type": "Feature", "properties": { "element": "way", "id": 1543933692, "building": "yes", "building:levels": null, "name": null, "name:ko": null, "name:en": null, "amenity": null, "shop": null, "office": null, "tourism": null, "healthcare": null, "addr:street": null, "addr:housenumber": null, "start_date": null, "centroid_x_5179": 1157883.2544086326, "centroid_y_5179": 1816136.5396367759, "footprint_area_m2": 28.512866869440089 }, "geometry": { "type": "Polygon", "coordinates": [ [ [ 129.2590434, 36.3297112 ], [ 129.2590841, 36.3296745 ], [ 129.2590408, 36.3296433 ], [ 129.259, 36.32968 ], [ 129.2590434, 36.3297112 ] ] ] } },
{ "type": "Feature", "properties": { "element": "way", "id": 1543933693, "building": "yes", "building:levels": null, "name": null, "name:ko": null, "name:en": null, "amenity": null, "shop": null, "office": null, "tourism": null, "healthcare": null, "addr:street": null, "addr:housenumber": null, "start_date": null, "centroid_x_5179": 1157872.630193796, "centroid_y_5179": 1816140.5860254222, "footprint_area_m2": 239.50866175429013 }, "geometry": { "type": "Polygon", "coordinates": [ [ [ 129.2589535, 36.3298205 ], [ 129.2590291, 36.3297414 ], [ 129.258957900000013, 36.3296973 ], [ 129.2590041, 36.3296489 ], [ 129.2589298, 36.3296029 ], [ 129.258808, 36.3297303 ], [ 129.2589535, 36.3298205 ] ] ] } }
]
}
