<?xml version="1.0" encoding="UTF-8"?>
<kml xmlns="http://www.opengis.net/kml/2.2"><Document>
<name>k2_vehicle0</name>
<description>이 화면은 2025년 3월 25일 영덕 산불의 커밋된 예측장(routing_demo_canonical.npz)과 2026-07-24 도로망 스냅샷으로 만든 재생(replay)입니다. 실시간 도구가 아니고, 출동 기록도 아닙니다. 지점은 건물이며 가구가 아닙니다. 규칙과 한계는 docs/truck_crew_replay.md.</description>
<Placemark><name>ingress v0 #0</name><description>{"leg": "ingress", "vehicle": 0, "seq": 0, "drive_node": 2884948782, "n_buildings": 1, "eta_min": 71.07, "abort_min": -12.0, "aborted_by_rule": true, "closing_min": 0.0}</description><LineString><coordinates>129.371154,36.416189,0 129.370808,36.414319,0 129.371075,36.414297,0 129.371465,36.414273,0 129.371084,36.412801,0 129.371038,36.41227,0 129.371042,36.411521,0 129.370939,36.410486,0 129.371427,36.410362,0 129.371004,36.409007,0 129.370916,36.408567,0 129.370425,36.408574,0 129.370655,36.40702,0 129.370759,36.406694,0 129.371904,36.406072,0 129.372389,36.405858,0 129.372633,36.4058,0 129.374106,36.40492,0 129.374371,36.40433,0 129.374277,36.404133,0 129.372263,36.401073,0 129.371928,36.400565,0 129.37096,36.398795,0 129.370662,36.397988,0 129.370495,36.397522,0 129.370292,36.396976,0 129.370159,36.395148,0 129.369927,36.392925,0 129.369669,36.390531,0 129.369573,36.389776,0 129.369473,36.38884,0 129.372998,36.383358,0 129.375922,36.377949,0 129.377834,36.374449,0 129.37912,36.370489,0 129.378336,36.368915,0 129.377205,36.3664,0 129.377051,36.365528,0 129.377428,36.363143,0 129.377757,36.362443,0 129.377537,36.362113,0 129.377761,36.361695,0 129.377816,36.360721,0 129.37799,36.360078,0 129.378178,36.35912,0 129.377524,36.358796,0 129.378132,36.358129,0 129.378389,36.357674,0 129.378012,36.356382,0 129.377912,36.355906,0 129.377804,36.355592,0 129.37765,36.352917,0 129.375957,36.351988,0 129.373087,36.352205,0 129.371976,36.352826,0 129.371712,36.352947,0 129.366487,36.35723,0 129.366,36.357805,0 129.357124,36.361837,0 129.356774,36.362113,0 129.351772,36.367807,0 129.349548,36.369446,0 129.309743,36.384721,0 129.309187,36.38528,0 129.305235,36.384041,0 129.302788,36.384772,0 129.303997,36.387413,0 129.306725,36.393988,0 129.304423,36.397142,0 129.300631,36.40341,0 129.295896,36.413243,0 129.292953,36.419147,0 129.28407,36.416936,0 129.283647,36.417492,0 129.281716,36.419838,0 129.277496,36.42064,0 129.272571,36.422336,0 129.250048,36.432079,0</coordinates></LineString></Placemark>
<Placemark><name>egress v0 #0</name><description>{"leg": "egress", "vehicle": 0, "seq": 0, "drive_node": 2884948782, "n_buildings": 1, "eta_min": 71.07, "abort_min": -12.0, "aborted_by_rule": true, "closing_min": 0.0}</description><LineString><coordinates>129.250048,36.432079,0 129.272571,36.422336,0 129.277496,36.42064,0 129.281716,36.419838,0 129.281817,36.420386,0 129.2863,36.433984,0 129.287348,36.433951,0 129.288584,36.438241,0 129.289997,36.442447,0 129.282703,36.445946,0 129.281894,36.447634,0 129.282506,36.449013,0 129.282897,36.449071,0</coordinates></LineString></Placemark>
<Placemark><name>pickup v0 #0</name><description>{"kind": "pickup", "vehicle": 0, "seq": 0, "drive_node": 2884948782, "n_buildings": 1, "eta_min": 71.07, "abort_min": -12.0}</description><Point><coordinates>129.250046,36.432074,0</coordinates></Point></Placemark>
<Placemark><name>ingress v0 #1</name><description>{"leg": "ingress", "vehicle": 0, "seq": 1, "drive_node": 4706963721, "n_buildings": 3, "eta_min": 176.91, "abort_min": -12.0, "aborted_by_rule": true, "closing_min": 0.0}</description><LineString><coordinates>129.282897,36.449071,0 129.282506,36.449013,0 129.281894,36.447634,0 129.282703,36.445946,0 129.289997,36.442447,0 129.288584,36.438241,0 129.287348,36.433951,0 129.2863,36.433984,0 129.281817,36.420386,0 129.281716,36.419838,0 129.283647,36.417492,0 129.28407,36.416936,0 129.292953,36.419147,0 129.295896,36.413243,0 129.300631,36.40341,0 129.304423,36.397142,0 129.306725,36.393988,0 129.303997,36.387413,0 129.302788,36.384772,0 129.305235,36.384041,0 129.309187,36.38528,0 129.309743,36.384721,0 129.349548,36.369446,0 129.351772,36.367807,0 129.356774,36.362113,0 129.357124,36.361837,0 129.366,36.357805,0 129.366487,36.35723,0 129.371712,36.352947,0 129.371976,36.352826,0 129.373087,36.352205,0 129.375957,36.351988,0 129.37765,36.352917,0 129.378038,36.353722,0 129.378403,36.354555,0 129.378378,36.354889,0 129.378346,36.35498,0 129.378182,36.355541,0 129.378123,36.355893,0 129.378012,36.356382,0 129.378389,36.357674,0 129.380335,36.357499,0 129.380425,36.357552,0 129.380382,36.357625,0 129.379158,36.359997,0 129.382157,36.360499,0 129.382358,36.361902,0 129.392324,36.363394,0 129.393676,36.365843,0 129.394116,36.36561,0 129.403357,36.37847,0 129.406985,36.389184,0 129.40755,36.389518,0 129.408605,36.390258,0 129.416502,36.397207,0 129.428016,36.408352,0 129.429328,36.40999,0 129.429615,36.410787,0 129.429643,36.411913,0 129.434768,36.427866,0 129.434127,36.428562,0 129.43324,36.435525,0 129.432585,36.437005,0 129.432369,36.440885,0 129.432083,36.441043,0 129.430148,36.44084,0 129.429766,36.440738,0 129.424409,36.445178,0 129.42075,36.444741,0 129.420193,36.444777,0 129.417836,36.445103,0 129.404286,36.451233,0 129.403558,36.451128,0 129.401209,36.449966,0</coordinates></LineString></Placemark>
<Placemark><name>egress v0 #1</name><description>{"leg": "egress", "vehicle": 0, "seq": 1, "drive_node": 4706963721, "n_buildings": 3, "eta_min": 176.91, "abort_min": -12.0, "aborted_by_rule": true, "closing_min": 0.0}</description><LineString><coordinates>129.401209,36.449966,0 129.390265,36.439919,0 129.391298,36.441579,0 129.390199,36.439965,0 129.377341,36.417471,0 129.377752,36.415076,0 129.377623,36.414339,0 129.3773,36.413911,0 129.377128,36.413697,0 129.376818,36.413351,0</coordinates></LineString></Placemark>
<Placemark><name>pickup v0 #1</name><description>{"kind": "pickup", "vehicle": 0, "seq": 1, "drive_node": 4706963721, "n_buildings": 3, "eta_min": 176.91, "abort_min": -12.0}</description><Point><coordinates>129.401208,36.449968,0</coordinates></Point></Placemark>
<Placemark><name>ingress v0 #2</name><description>{"leg": "ingress", "vehicle": 0, "seq": 2, "drive_node": 436594363, "n_buildings": 5, "eta_min": 206.57, "abort_min": null, "aborted_by_rule": false, "closing_min": null}</description><LineString><coordinates>129.376818,36.413351,0 129.376461,36.413347,0 129.374488,36.411963,0 129.37282,36.411268,0 129.371563,36.411396,0 129.371042,36.411521,0 129.371038,36.41227,0 129.371084,36.412801,0 129.371465,36.414273,0 129.371075,36.414297,0 129.370808,36.414319,0 129.371154,36.416189,0</coordinates></LineString></Placemark>
<Placemark><name>egress v0 #2</name><description>{"leg": "egress", "vehicle": 0, "seq": 2, "drive_node": 436594363, "n_buildings": 5, "eta_min": 206.57, "abort_min": null, "aborted_by_rule": false, "closing_min": null}</description><LineString><coordinates>129.371154,36.416189,0 129.367366,36.417726,0</coordinates></LineString></Placemark>
<Placemark><name>pickup v0 #2</name><description>{"kind": "pickup", "vehicle": 0, "seq": 2, "drive_node": 436594363, "n_buildings": 5, "eta_min": 206.57, "abort_min": null}</description><Point><coordinates>129.371154,36.41619,0</coordinates></Point></Placemark>
<Placemark><name>ingress v0 #3</name><description>{"leg": "ingress", "vehicle": 0, "seq": 3, "drive_node": 436594565, "n_buildings": 4, "eta_min": 268.26, "abort_min": null, "aborted_by_rule": false, "closing_min": null}</description><LineString><coordinates>129.367366,36.417726,0 129.36705,36.417569,0 129.367098,36.417271,0 129.367126,36.417036,0 129.367272,36.41615,0 129.367268,36.415997,0 129.367286,36.41579,0 129.367339,36.415203,0 129.367404,36.414679,0 129.367444,36.41448,0 129.367878,36.413022,0 129.368114,36.412189,0 129.368191,36.411196,0 129.368211,36.410655,0 129.368271,36.409897,0 129.368765,36.409556,0 129.368819,36.409501,0 129.370425,36.408574,0 129.370655,36.40702,0 129.370759,36.406694,0 129.371904,36.406072,0 129.372389,36.405858,0 129.372633,36.4058,0 129.374106,36.40492,0 129.374238,36.404846,0 129.374433,36.404609,0 129.374444,36.404572,0 129.374598,36.404507,0 129.374643,36.404515,0 129.374864,36.404422,0 129.374985,36.404348,0 129.3767,36.402878,0 129.377301,36.395883,0 129.377479,36.395394,0 129.377639,36.395085,0 129.379846,36.390903,0 129.38054,36.389153,0 129.381338,36.387139,0 129.38137,36.387067,0 129.381805,36.386131,0 129.382159,36.385107,0 129.383704,36.378917,0 129.384097,36.37718,0 129.384639,36.374242,0 129.384729,36.373817,0 129.385056,36.372099,0 129.384579,36.366681,0 129.38404,36.365103,0 129.382358,36.361902,0 129.382157,36.360499,0 129.379158,36.359997,0 129.379058,36.359998,0 129.380271,36.357644,0 129.380335,36.357499,0 129.380567,36.356973,0 129.379586,36.355537,0 129.379552,36.355528,0 129.378726,36.355496,0 129.378182,36.355541,0 129.377804,36.355592,0 129.37765,36.352917,0 129.375957,36.351988,0 129.373087,36.352205,0 129.371976,36.352826,0 129.371712,36.352947,0 129.366487,36.35723,0 129.366,36.357805,0 129.357124,36.361837,0 129.356774,36.362113,0 129.351772,36.367807,0 129.349548,36.369446,0 129.309743,36.384721,0 129.309187,36.38528,0 129.305235,36.384041,0 129.302788,36.384772,0 129.303997,36.387413,0 129.306725,36.393988,0 129.304423,36.397142,0 129.300631,36.40341,0 129.295896,36.413243,0 129.292953,36.419147,0 129.29782,36.422228,0 129.299716,36.42366,0 129.307281,36.430514,0 129.304641,36.430698,0 129.302663,36.431485,0 129.292566,36.438659,0 129.292178,36.439287,0 129.289997,36.442447,0 129.282703,36.445946,0 129.281894,36.447634,0 129.281186,36.448384,0</coordinates></LineString></Placemark>
<Placemark><name>egress v0 #3</name><description>{"leg": "egress", "vehicle": 0, "seq": 3, "drive_node": 436594565, "n_buildings": 4, "eta_min": 268.26, "abort_min": null, "aborted_by_rule": false, "closing_min": null}</description><LineString><coordinates>129.281186,36.448384,0 129.280564,36.449006,0 129.279801,36.449306,0 129.279389,36.449348,0</coordinates></LineString></Placemark>
<Placemark><name>pickup v0 #3</name><description>{"kind": "pickup", "vehicle": 0, "seq": 3, "drive_node": 436594565, "n_buildings": 4, "eta_min": 268.26, "abort_min": null}</description><Point><coordinates>129.28119,36.448387,0</coordinates></Point></Placemark>
<Placemark><name>ingress v0 #4</name><description>{"leg": "ingress", "vehicle": 0, "seq": 4, "drive_node": 436727383, "n_buildings": 11, "eta_min": 362.4, "abort_min": null, "aborted_by_rule": false, "closing_min": null}</description><LineString><coordinates>129.279389,36.449348,0 129.279801,36.449306,0 129.280564,36.449006,0 129.281186,36.448384,0 129.281894,36.447634,0 129.282703,36.445946,0 129.289997,36.442447,0 129.292178,36.439287,0 129.292566,36.438659,0 129.302663,36.431485,0 129.304641,36.430698,0 129.307281,36.430514,0 129.299716,36.42366,0 129.29782,36.422228,0 129.292953,36.419147,0 129.295896,36.413243,0 129.300631,36.40341,0 129.304423,36.397142,0 129.306725,36.393988,0 129.303997,36.387413,0 129.302788,36.384772,0 129.305235,36.384041,0 129.309187,36.38528,0 129.309743,36.384721,0 129.349548,36.369446,0 129.351772,36.367807,0 129.356774,36.362113,0 129.357124,36.361837,0 129.366,36.357805,0 129.366487,36.35723,0 129.371712,36.352947,0 129.371976,36.352826,0 129.373087,36.352205,0 129.375957,36.351988,0 129.37765,36.352917,0 129.378038,36.353722,0 129.378778,36.353485,0 129.379047,36.353526,0 129.379599,36.354257,0 129.379725,36.354399,0 129.380567,36.356973,0 129.380668,36.356989,0 129.380425,36.357552,0 129.380382,36.357625,0 129.379158,36.359997,0 129.382157,36.360499,0 129.382358,36.361902,0 129.392324,36.363394,0 129.393676,36.365843,0 129.394116,36.36561,0 129.403357,36.37847,0 129.406985,36.389184,0 129.40755,36.389518,0 129.408605,36.390258,0 129.416502,36.397207,0 129.428016,36.408352,0 129.429328,36.40999,0 129.429615,36.410787,0 129.429643,36.411913,0 129.434768,36.427866,0 129.434127,36.428562,0 129.43324,36.435525,0 129.432585,36.437005,0 129.432369,36.440885,0 129.432533,36.441207,0 129.432601,36.446208,0 129.432627,36.446343,0 129.436023,36.46135,0 129.435072,36.466188,0 129.431987,36.474945,0 129.431914,36.475162,0 129.431919,36.475361,0 129.433443,36.48279,0 129.435077,36.484341,0 129.443123,36.490051,0 129.442938,36.492046,0 129.442876,36.493589,0 129.440066,36.496383,0 129.442044,36.504959,0 129.442158,36.505949,0 129.44228,36.506821,0 129.443176,36.507789,0 129.442926,36.508523,0 129.444322,36.510772,0 129.44388,36.511383,0 129.443775,36.511664,0 129.439677,36.530894,0 129.417932,36.540413,0 129.415664,36.541783,0 129.413929,36.542054,0 129.414277,36.542599,0 129.412831,36.543307,0 129.412505,36.543204,0 129.408226,36.541839,0 129.407595,36.543418,0 129.40743,36.543988,0 129.407338,36.544341,0 129.406743,36.549678,0</coordinates></LineString></Placemark>
<Placemark><name>egress v0 #4</name><description>{"leg": "egress", "vehicle": 0, "seq": 4, "drive_node": 436727383, "n_buildings": 11, "eta_min": 362.4, "abort_min": null, "aborted_by_rule": false, "closing_min": null}</description><LineString><coordinates>129.406743,36.549678,0 129.407338,36.544341,0 129.40743,36.543988,0 129.407595,36.543418,0 129.408226,36.541839,0 129.40845,36.541376,0 129.409999,36.540351,0 129.410077,36.540313,0 129.410885,36.54003,0 129.411009,36.540082,0 129.412299,36.540756,0 129.413489,36.540998,0 129.41504,36.541388,0 129.417932,36.540413,0 129.439677,36.530894,0</coordinates></LineString></Placemark>
<Placemark><name>pickup v0 #4</name><description>{"kind": "pickup", "vehicle": 0, "seq": 4, "drive_node": 436727383, "n_buildings": 11, "eta_min": 362.4, "abort_min": null}</description><Point><coordinates>129.406745,36.549682,0</coordinates></Point></Placemark>
<Placemark><name>ingress v0 #5</name><description>{"leg": "ingress", "vehicle": 0, "seq": 5, "drive_node": 436727457, "n_buildings": 2, "eta_min": 400.91, "abort_min": null, "aborted_by_rule": false, "closing_min": null}</description><LineString><coordinates>129.439677,36.530894,0 129.417932,36.540413,0 129.415664,36.541783,0 129.416835,36.545757,0 129.420798,36.552409,0 129.420951,36.552731,0 129.421222,36.553303,0 129.419927,36.553775,0 129.416984,36.552714,0 129.407005,36.554406,0 129.405988,36.556207,0 129.404874,36.557721,0 129.404206,36.558732,0 129.403626,36.55967,0 129.401735,36.562747,0 129.401627,36.562902,0 129.401552,36.563038,0 129.401402,36.563293,0 129.400422,36.567995,0</coordinates></LineString></Placemark>
<Placemark><name>egress v0 #5</name><description>{"leg": "egress", "vehicle": 0, "seq": 5, "drive_node": 436727457, "n_buildings": 2, "eta_min": 400.91, "abort_min": null, "aborted_by_rule": false, "closing_min": null}</description><LineString><coordinates>129.400422,36.567995,0 129.401402,36.563293,0 129.401552,36.563038,0 129.401627,36.562902,0 129.401735,36.562747,0 129.403626,36.55967,0 129.404206,36.558732,0 129.404874,36.557721,0 129.405988,36.556207,0 129.407005,36.554406,0 129.406732,36.551472,0 129.406725,36.550742,0 129.406723,36.550652,0 129.406728,36.549967,0 129.406743,36.549678,0 129.407338,36.544341,0 129.40743,36.543988,0 129.407595,36.543418,0 129.408226,36.541839,0 129.40845,36.541376,0 129.409999,36.540351,0 129.410077,36.540313,0 129.410885,36.54003,0 129.411009,36.540082,0 129.412299,36.540756,0 129.413489,36.540998,0 129.41504,36.541388,0 129.417932,36.540413,0 129.439677,36.530894,0</coordinates></LineString></Placemark>
<Placemark><name>pickup v0 #5</name><description>{"kind": "pickup", "vehicle": 0, "seq": 5, "drive_node": 436727457, "n_buildings": 2, "eta_min": 400.91, "abort_min": null}</description><Point><coordinates>129.400421,36.567997,0</coordinates></Point></Placemark>
<Placemark><name>ingress v0 #6</name><description>{"leg": "ingress", "vehicle": 0, "seq": 6, "drive_node": 436727467, "n_buildings": 4, "eta_min": 443.8, "abort_min": null, "aborted_by_rule": false, "closing_min": null}</description><LineString><coordinates>129.439677,36.530894,0 129.417932,36.540413,0 129.415664,36.541783,0 129.416835,36.545757,0 129.420798,36.552409,0 129.420951,36.552731,0 129.421222,36.553303,0 129.419927,36.553775,0 129.416984,36.552714,0 129.407005,36.554406,0 129.405988,36.556207,0 129.404874,36.557721,0 129.404206,36.558732,0 129.403626,36.55967,0 129.401735,36.562747,0 129.401627,36.562902,0 129.401552,36.563038,0 129.401402,36.563293,0 129.400422,36.567995,0 129.400593,36.571778,0 129.400606,36.571868,0 129.400621,36.57203,0 129.400741,36.573254,0 129.400854,36.574677,0</coordinates></LineString></Placemark>
<Placemark><name>egress v0 #6</name><description>{"leg": "egress", "vehicle": 0, "seq": 6, "drive_node": 436727467, "n_buildings": 4, "eta_min": 443.8, "abort_min": null, "aborted_by_rule": false, "closing_min": null}</description><LineString><coordinates>129.400854,36.574677,0 129.400741,36.573254,0 129.400621,36.57203,0 129.400606,36.571868,0 129.400593,36.571778,0 129.400422,36.567995,0 129.401402,36.563293,0 129.401552,36.563038,0 129.401627,36.562902,0 129.401735,36.562747,0 129.403626,36.55967,0 129.404206,36.558732,0 129.404874,36.557721,0 129.405988,36.556207,0 129.407005,36.554406,0 129.406732,36.551472,0 129.406725,36.550742,0 129.406723,36.550652,0 129.406728,36.549967,0 129.406743,36.549678,0 129.407338,36.544341,0 129.40743,36.543988,0 129.407595,36.543418,0 129.408226,36.541839,0 129.40845,36.541376,0 129.409999,36.540351,0 129.410077,36.540313,0 129.410885,36.54003,0 129.411009,36.540082,0 129.412299,36.540756,0 129.413489,36.540998,0 129.41504,36.541388,0 129.417932,36.540413,0 129.439677,36.530894,0</coordinates></LineString></Placemark>
<Placemark><name>pickup v0 #6</name><description>{"kind": "pickup", "vehicle": 0, "seq": 6, "drive_node": 436727467, "n_buildings": 4, "eta_min": 443.8, "abort_min": null}</description><Point><coordinates>129.400857,36.574677,0</coordinates></Point></Placemark>
<Placemark><name>ingress v0 #7</name><description>{"leg": "ingress", "vehicle": 0, "seq": 7, "drive_node": 436738552, "n_buildings": 24, "eta_min": 521.95, "abort_min": null, "aborted_by_rule": false, "closing_min": null}</description><LineString><coordinates>129.439677,36.530894,0 129.443775,36.511664,0 129.44388,36.511383,0 129.444322,36.510772,0 129.442926,36.508523,0 129.443176,36.507789,0 129.44228,36.506821,0 129.442158,36.505949,0 129.442044,36.504959,0 129.440066,36.496383,0 129.442876,36.493589,0 129.442938,36.492046,0 129.443123,36.490051,0 129.435077,36.484341,0 129.433443,36.48279,0 129.431919,36.475361,0 129.431914,36.475162,0 129.431987,36.474945,0 129.435072,36.466188,0 129.436023,36.46135,0 129.432627,36.446343,0 129.432601,36.446208,0 129.432533,36.441207,0 129.432369,36.440885,0 129.432585,36.437005,0 129.43324,36.435525,0 129.434127,36.428562,0 129.434768,36.427866,0 129.429643,36.411913,0 129.429615,36.410787,0 129.429328,36.40999,0 129.428016,36.408352,0 129.416502,36.397207,0 129.408605,36.390258,0 129.40755,36.389518,0 129.406985,36.389184,0 129.403357,36.37847,0 129.394116,36.36561,0 129.385614,36.359228,0 129.384764,36.358646,0 129.384156,36.358367,0 129.383634,36.358439,0 129.382483,36.358781,0 129.382133,36.359508,0 129.382157,36.360499,0 129.382358,36.361902,0 129.38404,36.365103,0 129.384579,36.366681,0 129.385056,36.372099,0 129.384729,36.373817,0 129.384639,36.374242,0 129.384097,36.37718,0 129.383704,36.378917,0 129.382159,36.385107,0 129.381805,36.386131,0 129.38137,36.387067,0 129.381338,36.387139,0 129.38054,36.389153,0 129.379846,36.390903,0 129.377639,36.395085,0 129.377479,36.395394,0 129.377301,36.395883,0 129.3767,36.402878,0 129.374985,36.404348,0 129.374864,36.404422,0 129.374643,36.404515,0 129.374598,36.404507,0 129.374444,36.404572,0 129.374433,36.404609,0 129.374238,36.404846,0 129.374106,36.40492,0 129.372633,36.4058,0 129.372389,36.405858,0 129.371904,36.406072,0 129.370916,36.408567,0 129.370425,36.408574,0 129.370828,36.410046,0 129.370939,36.410486,0 129.371042,36.411521,0 129.371038,36.41227,0 129.371084,36.412801,0 129.371465,36.414273,0 129.371637,36.414946,0 129.371789,36.415223,0 129.371896,36.415519,0 129.372036,36.415769,0 129.372059,36.415778,0 129.372151,36.415903,0 129.372152,36.41593,0 129.372535,36.417041,0 129.372711,36.417399,0 129.376062,36.424549,0 129.376155,36.425665,0</coordinates></LineString></Placemark>
<Placemark><name>egress v0 #7</name><description>{"leg": "egress", "vehicle": 0, "seq": 7, "drive_node": 436738552, "n_buildings": 24, "eta_min": 521.95, "abort_min": null, "aborted_by_rule": false, "closing_min": null}</description><LineString><coordinates>129.376155,36.425665,0 129.376062,36.424549,0 129.372711,36.417399,0 129.372535,36.417041,0 129.371898,36.41606,0 129.371831,36.416043,0 129.371519,36.416048,0 129.371154,36.416189,0 129.367366,36.417726,0</coordinates></LineString></Placemark>
<Placemark><name>pickup v0 #7</name><description>{"kind": "pickup", "vehicle": 0, "seq": 7, "drive_node": 436738552, "n_buildings": 24, "eta_min": 521.95, "abort_min": null}</description><Point><coordinates>129.376155,36.425664,0</coordinates></Point></Placemark>
<Placemark><name>ingress v0 #8</name><description>{"leg": "ingress", "vehicle": 0, "seq": 8, "drive_node": 436738712, "n_buildings": 4, "eta_min": 580.02, "abort_min": null, "aborted_by_rule": false, "closing_min": null}</description><LineString><coordinates>129.367366,36.417726,0 129.371154,36.416189,0 129.371519,36.416048,0 129.371771,36.415855,0 129.371825,36.415791,0 129.372036,36.415769,0 129.372059,36.415778,0 129.372236,36.415712,0 129.372574,36.4154,0 129.373098,36.414923,0 129.373306,36.414785,0 129.373806,36.414714,0 129.374469,36.414902,0 129.377048,36.414095,0 129.377623,36.414339,0 129.377955,36.414694,0 129.37856,36.415297,0 129.378742,36.41543,0 129.379,36.41548,0 129.40591,36.390824,0 129.406354,36.390276,0 129.406789,36.389854,0 129.40755,36.389518,0 129.408605,36.390258,0 129.416502,36.397207,0 129.428016,36.408352,0 129.429328,36.40999,0 129.429615,36.410787,0 129.429643,36.411913,0 129.434768,36.427866,0 129.434127,36.428562,0 129.43324,36.435525,0 129.432585,36.437005,0 129.432369,36.440885,0 129.432533,36.441207,0 129.432601,36.446208,0 129.432627,36.446343,0 129.436023,36.46135,0 129.435072,36.466188,0 129.431987,36.474945,0 129.431914,36.475162,0 129.431919,36.475361,0 129.433443,36.48279,0 129.435077,36.484341,0 129.443123,36.490051,0 129.442938,36.492046,0 129.442876,36.493589,0 129.440066,36.496383,0 129.436327,36.497328,0 129.434477,36.498349,0 129.434295,36.498649,0 129.430037,36.503874,0 129.429699,36.504186,0 129.412544,36.504904,0 129.411621,36.504604,0 129.411453,36.504552,0 129.411384,36.504499,0 129.411259,36.504402,0 129.411004,36.50401,0 129.411026,36.503558,0 129.410868,36.497134,0</coordinates></LineString></Placemark>
<Placemark><name>egress v0 #8</name><description>{"leg": "egress", "vehicle": 0, "seq": 8, "drive_node": 436738712, "n_buildings": 4, "eta_min": 580.02, "abort_min": null, "aborted_by_rule": false, "closing_min": null}</description><LineString><coordinates>129.410868,36.497134,0 129.411026,36.503558,0 129.411004,36.50401,0 129.411259,36.504402,0 129.411384,36.504499,0 129.411453,36.504552,0 129.411621,36.504604,0 129.412544,36.504904,0 129.429699,36.504186,0 129.430037,36.503874,0 129.434295,36.498649,0 129.434477,36.498349,0 129.436327,36.497328,0 129.440066,36.496383,0 129.442876,36.493589,0 129.442938,36.492046,0 129.443123,36.490051,0</coordinates></LineString></Placemark>
<Placemark><name>pickup v0 #8</name><description>{"kind": "pickup", "vehicle": 0, "seq": 8, "drive_node": 436738712, "n_buildings": 4, "eta_min": 580.02, "abort_min": null}</description><Point><coordinates>129.410864,36.497131,0</coordinates></Point></Placemark>
<Placemark><name>ingress v0 #9</name><description>{"leg": "ingress", "vehicle": 0, "seq": 9, "drive_node": 436912433, "n_buildings": 7, "eta_min": 634.73, "abort_min": null, "aborted_by_rule": false, "closing_min": null}</description><LineString><coordinates>129.443123,36.490051,0 129.435077,36.484341,0 129.433443,36.48279,0 129.431919,36.475361,0 129.431914,36.475162,0 129.431987,36.474945,0 129.435072,36.466188,0 129.436023,36.46135,0 129.432627,36.446343,0 129.432601,36.446208,0 129.432533,36.441207,0 129.432369,36.440885,0 129.432585,36.437005,0 129.43324,36.435525,0 129.434127,36.428562,0 129.434768,36.427866,0 129.429643,36.411913,0 129.429615,36.410787,0 129.429328,36.40999,0 129.428016,36.408352,0 129.416502,36.397207,0 129.408605,36.390258,0 129.40755,36.389518,0 129.406985,36.389184,0 129.403357,36.37847,0 129.394116,36.36561,0 129.385614,36.359228,0 129.384764,36.358646,0 129.384156,36.358367,0 129.383634,36.358439,0 129.382483,36.358781,0 129.382133,36.359508,0 129.382157,36.360499,0</coordinates></LineString></Placemark>
<Placemark><name>egress v0 #9</name><description>{"leg": "egress", "vehicle": 0, "seq": 9, "drive_node": 436912433, "n_buildings": 7, "eta_min": 634.73, "abort_min": null, "aborted_by_rule": false, "closing_min": null}</description><LineString><coordinates>129.382157,36.360499,0 129.379158,36.359997,0 129.379058,36.359998,0 129.37799,36.360078,0 129.377816,36.360721,0 129.376824,36.360727,0 129.376616,36.361803,0</coordinates></LineString></Placemark>
<Placemark><name>pickup v0 #9</name><description>{"kind": "pickup", "vehicle": 0, "seq": 9, "drive_node": 436912433, "n_buildings": 7, "eta_min": 634.73, "abort_min": null}</description><Point><coordinates>129.382161,36.360495,0</coordinates></Point></Placemark>
<Placemark><name>ingress v0 #10</name><description>{"leg": "ingress", "vehicle": 0, "seq": 10, "drive_node": 436912482, "n_buildings": 4, "eta_min": 660.08, "abort_min": null, "aborted_by_rule": false, "closing_min": null}</description><LineString><coordinates>129.376616,36.361803,0 129.376536,36.362201,0 129.377537,36.362113,0 129.378077,36.361852,0 129.379058,36.359998,0 129.379158,36.359997,0 129.382157,36.360499,0 129.382358,36.361902,0 129.392324,36.363394,0 129.393676,36.365843,0 129.394116,36.36561,0</coordinates></LineString></Placemark>
<Placemark><name>egress v0 #10</name><description>{"leg": "egress", "vehicle": 0, "seq": 10, "drive_node": 436912482, "n_buildings": 4, "eta_min": 660.08, "abort_min": null, "aborted_by_rule": false, "closing_min": null}</description><LineString><coordinates>129.394116,36.36561,0 129.385614,36.359228,0 129.384764,36.358646,0 129.384156,36.358367,0 129.383634,36.358439,0 129.382483,36.358781,0 129.382133,36.359508,0 129.382157,36.360499,0 129.379158,36.359997,0 129.379058,36.359998,0 129.37799,36.360078,0 129.377816,36.360721,0 129.376824,36.360727,0 129.376616,36.361803,0</coordinates></LineString></Placemark>
<Placemark><name>pickup v0 #10</name><description>{"kind": "pickup", "vehicle": 0, "seq": 10, "drive_node": 436912482, "n_buildings": 4, "eta_min": 660.08, "abort_min": null}</description><Point><coordinates>129.394121,36.365611,0</coordinates></Point></Placemark>
<Placemark><name>ingress v0 #11</name><description>{"leg": "ingress", "vehicle": 0, "seq": 11, "drive_node": 436912674, "n_buildings": 50, "eta_min": 697.27, "abort_min": null, "aborted_by_rule": false, "closing_min": null}</description><LineString><coordinates>129.376616,36.361803,0 129.376536,36.362201,0 129.377537,36.362113,0 129.378077,36.361852,0 129.379058,36.359998,0 129.379158,36.359997,0 129.382157,36.360499,0 129.382358,36.361902,0 129.392324,36.363394,0 129.393676,36.365843,0 129.394116,36.36561,0 129.403357,36.37847,0 129.406985,36.389184,0 129.40755,36.389518,0 129.408605,36.390258,0 129.416502,36.397207,0 129.428016,36.408352,0</coordinates></LineString></Placemark>
<Placemark><name>egress v0 #11</name><description>{"leg": "egress", "vehicle": 0, "seq": 11, "drive_node": 436912674, "n_buildings": 50, "eta_min": 697.27, "abort_min": null, "aborted_by_rule": false, "closing_min": null}</description><LineString><coordinates>129.428016,36.408352,0 129.429328,36.40999,0 129.429615,36.410787,0 129.429643,36.411913,0 129.434768,36.427866,0</coordinates></LineString></Placemark>
<Placemark><name>pickup v0 #11</name><description>{"kind": "pickup", "vehicle": 0, "seq": 11, "drive_node": 436912674, "n_buildings": 50, "eta_min": 697.27, "abort_min": null}</description><Point><coordinates>129.428021,36.408357,0</coordinates></Point></Placemark>
</Document></kml>
