<?xml version="1.0" encoding="UTF-8"?>
<kml xmlns="http://www.opengis.net/kml/2.2"><Document>
<name>k4_vehicle3</name>
<description>이 화면은 2025년 3월 25일 영덕 산불의 커밋된 예측장(routing_demo_canonical.npz)과 2026-07-24 도로망 스냅샷으로 만든 재생(replay)입니다. 실시간 도구가 아니고, 출동 기록도 아닙니다. 지점은 건물이며 가구가 아닙니다. 규칙과 한계는 docs/truck_crew_replay.md.</description>
<Placemark><name>ingress v3 #0</name><description>{"leg": "ingress", "vehicle": 3, "seq": 0, "drive_node": 11707583385, "n_buildings": 13, "eta_min": 60.79, "abort_min": 168.0, "aborted_by_rule": false, "closing_min": 180.0}</description><LineString><coordinates>129.374776,36.351078,0 129.373087,36.352205,0 129.371976,36.352826,0 129.371712,36.352947,0 129.366487,36.35723,0 129.366,36.357805,0 129.357124,36.361837,0 129.356774,36.362113,0 129.351772,36.367807,0 129.349548,36.369446,0 129.309743,36.384721,0 129.309187,36.38528,0 129.305235,36.384041,0 129.302788,36.384772,0 129.303997,36.387413,0 129.306725,36.393988,0 129.304423,36.397142,0 129.300631,36.40341,0 129.295896,36.413243,0 129.292953,36.419147,0 129.28407,36.416936,0 129.283647,36.417492,0 129.281716,36.419838,0 129.281817,36.420386,0 129.2863,36.433984,0 129.287348,36.433951,0 129.288584,36.438241,0 129.289997,36.442447,0 129.282703,36.445946,0 129.267052,36.449459,0</coordinates></LineString></Placemark>
<Placemark><name>egress v3 #0</name><description>{"leg": "egress", "vehicle": 3, "seq": 0, "drive_node": 11707583385, "n_buildings": 13, "eta_min": 60.79, "abort_min": 168.0, "aborted_by_rule": false, "closing_min": 180.0}</description><LineString><coordinates>129.267052,36.449459,0 129.282703,36.445946,0 129.281894,36.447634,0 129.282506,36.449013,0 129.282897,36.449071,0</coordinates></LineString></Placemark>
<Placemark><name>pickup v3 #0</name><description>{"kind": "pickup", "vehicle": 3, "seq": 0, "drive_node": 11707583385, "n_buildings": 13, "eta_min": 60.79, "abort_min": 168.0}</description><Point><coordinates>129.267057,36.449457,0</coordinates></Point></Placemark>
<Placemark><name>ingress v3 #1</name><description>{"leg": "ingress", "vehicle": 3, "seq": 1, "drive_node": 11835584691, "n_buildings": 4, "eta_min": 90.73, "abort_min": 168.0, "aborted_by_rule": false, "closing_min": 180.0}</description><LineString><coordinates>129.282897,36.449071,0 129.282816,36.449396,0 129.282725,36.449821,0 129.282378,36.449763,0 129.282029,36.45012,0 129.279397,36.459949,0 129.279216,36.461772,0 129.280005,36.464573,0 129.298882,36.478342,0</coordinates></LineString></Placemark>
<Placemark><name>egress v3 #1</name><description>{"leg": "egress", "vehicle": 3, "seq": 1, "drive_node": 11835584691, "n_buildings": 4, "eta_min": 90.73, "abort_min": 168.0, "aborted_by_rule": false, "closing_min": 180.0}</description><LineString><coordinates>129.298882,36.478342,0 129.280005,36.464573,0 129.279216,36.461772,0 129.279397,36.459949,0 129.282029,36.45012,0 129.282378,36.449763,0</coordinates></LineString></Placemark>
<Placemark><name>pickup v3 #1</name><description>{"kind": "pickup", "vehicle": 3, "seq": 1, "drive_node": 11835584691, "n_buildings": 4, "eta_min": 90.73, "abort_min": 168.0}</description><Point><coordinates>129.298878,36.478339,0</coordinates></Point></Placemark>
<Placemark><name>ingress v3 #2</name><description>{"leg": "ingress", "vehicle": 3, "seq": 2, "drive_node": 436594363, "n_buildings": 5, "eta_min": 159.18, "abort_min": 168.0, "aborted_by_rule": false, "closing_min": 180.0}</description><LineString><coordinates>129.282378,36.449763,0 129.282435,36.449339,0 129.282506,36.449013,0 129.281894,36.447634,0 129.282703,36.445946,0 129.289997,36.442447,0 129.288584,36.438241,0 129.287348,36.433951,0 129.2863,36.433984,0 129.281817,36.420386,0 129.281716,36.419838,0 129.283647,36.417492,0 129.28407,36.416936,0 129.292953,36.419147,0 129.295896,36.413243,0 129.300631,36.40341,0 129.304423,36.397142,0 129.306725,36.393988,0 129.303997,36.387413,0 129.302788,36.384772,0 129.305235,36.384041,0 129.309187,36.38528,0 129.309743,36.384721,0 129.349548,36.369446,0 129.351772,36.367807,0 129.356774,36.362113,0 129.357124,36.361837,0 129.366,36.357805,0 129.366487,36.35723,0 129.371712,36.352947,0 129.371976,36.352826,0 129.373087,36.352205,0 129.375957,36.351988,0 129.37765,36.352917,0 129.378038,36.353722,0 129.378403,36.354555,0 129.378378,36.354889,0 129.378346,36.35498,0 129.378182,36.355541,0 129.378123,36.355893,0 129.378012,36.356382,0 129.378389,36.357674,0 129.380335,36.357499,0 129.380425,36.357552,0 129.380382,36.357625,0 129.379158,36.359997,0 129.377507,36.363168,0 129.377395,36.36409,0 129.377129,36.365527,0 129.377283,36.366399,0 129.377911,36.367471,0 129.378319,36.368699,0 129.379176,36.370479,0 129.379563,36.371753,0 129.37902,36.37278,0 129.376012,36.377975,0 129.375922,36.377949,0 129.372998,36.383358,0 129.369473,36.38884,0 129.369573,36.389776,0 129.369669,36.390531,0 129.369927,36.392925,0 129.370159,36.395148,0 129.370292,36.396976,0 129.370495,36.397522,0 129.370662,36.397988,0 129.37096,36.398795,0 129.371928,36.400565,0 129.372263,36.401073,0 129.374277,36.404133,0 129.374371,36.40433,0 129.374106,36.40492,0 129.372633,36.4058,0 129.372389,36.405858,0 129.371904,36.406072,0 129.370916,36.408567,0 129.370425,36.408574,0 129.370828,36.410046,0 129.370939,36.410486,0 129.371042,36.411521,0 129.371038,36.41227,0 129.371084,36.412801,0 129.371465,36.414273,0 129.371075,36.414297,0 129.370808,36.414319,0 129.371154,36.416189,0</coordinates></LineString></Placemark>
<Placemark><name>egress v3 #2</name><description>{"leg": "egress", "vehicle": 3, "seq": 2, "drive_node": 436594363, "n_buildings": 5, "eta_min": 159.18, "abort_min": 168.0, "aborted_by_rule": false, "closing_min": null}</description><LineString><coordinates>129.371154,36.416189,0 129.367366,36.417726,0</coordinates></LineString></Placemark>
<Placemark><name>pickup v3 #2</name><description>{"kind": "pickup", "vehicle": 3, "seq": 2, "drive_node": 436594363, "n_buildings": 5, "eta_min": 159.18, "abort_min": 168.0}</description><Point><coordinates>129.371154,36.41619,0</coordinates></Point></Placemark>
<Placemark><name>ingress v3 #3</name><description>{"leg": "ingress", "vehicle": 3, "seq": 3, "drive_node": 436727383, "n_buildings": 11, "eta_min": 222.94, "abort_min": null, "aborted_by_rule": false, "closing_min": null}</description><LineString><coordinates>129.367366,36.417726,0 129.371154,36.416189,0 129.371519,36.416048,0 129.371771,36.415855,0 129.371825,36.415791,0 129.372036,36.415769,0 129.372059,36.415778,0 129.372236,36.415712,0 129.372574,36.4154,0 129.373098,36.414923,0 129.373306,36.414785,0 129.373806,36.414714,0 129.374469,36.414902,0 129.377048,36.414095,0 129.377623,36.414339,0 129.377955,36.414694,0 129.37856,36.415297,0 129.378742,36.41543,0 129.379,36.41548,0 129.40591,36.390824,0 129.406354,36.390276,0 129.406789,36.389854,0 129.40755,36.389518,0 129.408605,36.390258,0 129.416502,36.397207,0 129.428016,36.408352,0 129.429328,36.40999,0 129.429615,36.410787,0 129.429643,36.411913,0 129.434768,36.427866,0 129.434127,36.428562,0 129.43324,36.435525,0 129.432585,36.437005,0 129.432369,36.440885,0 129.432533,36.441207,0 129.432601,36.446208,0 129.432627,36.446343,0 129.436023,36.46135,0 129.435072,36.466188,0 129.431987,36.474945,0 129.431914,36.475162,0 129.431919,36.475361,0 129.433443,36.48279,0 129.435077,36.484341,0 129.443123,36.490051,0 129.442938,36.492046,0 129.442876,36.493589,0 129.440066,36.496383,0 129.436327,36.497328,0 129.434477,36.498349,0 129.434295,36.498649,0 129.430037,36.503874,0 129.429699,36.504186,0 129.412544,36.504904,0 129.411621,36.504604,0 129.411555,36.504605,0 129.411432,36.504625,0 129.411287,36.504636,0 129.410594,36.505026,0 129.409636,36.5056,0 129.402577,36.520099,0 129.403638,36.52147,0 129.403723,36.521739,0 129.403462,36.521995,0 129.403333,36.522232,0 129.403282,36.522404,0 129.403241,36.522549,0 129.407753,36.528047,0 129.407174,36.530851,0 129.407168,36.5315,0 129.406017,36.532374,0 129.405644,36.53266,0 129.405634,36.532705,0 129.405627,36.532876,0 129.405678,36.533137,0 129.40592,36.53481,0 129.405996,36.535151,0 129.405908,36.535215,0 129.405556,36.535888,0 129.405646,36.536842,0 129.405718,36.537048,0 129.405668,36.537752,0 129.406279,36.538959,0 129.40656,36.539045,0 129.406099,36.539377,0 129.405392,36.539667,0 129.405776,36.540319,0 129.406312,36.541221,0 129.407595,36.543418,0 129.40743,36.543988,0 129.407338,36.544341,0 129.406743,36.549678,0</coordinates></LineString></Placemark>
<Placemark><name>egress v3 #3</name><description>{"leg": "egress", "vehicle": 3, "seq": 3, "drive_node": 436727383, "n_buildings": 11, "eta_min": 222.94, "abort_min": null, "aborted_by_rule": false, "closing_min": null}</description><LineString><coordinates>129.406743,36.549678,0 129.407338,36.544341,0 129.40743,36.543988,0 129.407595,36.543418,0 129.408226,36.541839,0 129.40845,36.541376,0 129.409999,36.540351,0 129.410077,36.540313,0 129.410885,36.54003,0 129.411009,36.540082,0 129.412299,36.540756,0 129.413489,36.540998,0 129.41504,36.541388,0 129.417932,36.540413,0 129.439677,36.530894,0</coordinates></LineString></Placemark>
<Placemark><name>pickup v3 #3</name><description>{"kind": "pickup", "vehicle": 3, "seq": 3, "drive_node": 436727383, "n_buildings": 11, "eta_min": 222.94, "abort_min": null}</description><Point><coordinates>129.406745,36.549682,0</coordinates></Point></Placemark>
<Placemark><name>ingress v3 #4</name><description>{"leg": "ingress", "vehicle": 3, "seq": 4, "drive_node": 436727457, "n_buildings": 2, "eta_min": 261.46, "abort_min": null, "aborted_by_rule": false, "closing_min": null}</description><LineString><coordinates>129.439677,36.530894,0 129.417932,36.540413,0 129.415664,36.541783,0 129.416835,36.545757,0 129.420798,36.552409,0 129.420951,36.552731,0 129.421222,36.553303,0 129.419927,36.553775,0 129.416984,36.552714,0 129.407005,36.554406,0 129.405988,36.556207,0 129.404874,36.557721,0 129.404206,36.558732,0 129.403626,36.55967,0 129.401735,36.562747,0 129.401627,36.562902,0 129.401552,36.563038,0 129.401402,36.563293,0 129.400422,36.567995,0</coordinates></LineString></Placemark>
<Placemark><name>egress v3 #4</name><description>{"leg": "egress", "vehicle": 3, "seq": 4, "drive_node": 436727457, "n_buildings": 2, "eta_min": 261.46, "abort_min": null, "aborted_by_rule": false, "closing_min": null}</description><LineString><coordinates>129.400422,36.567995,0 129.401402,36.563293,0 129.401552,36.563038,0 129.401627,36.562902,0 129.401735,36.562747,0 129.403626,36.55967,0 129.404206,36.558732,0 129.404874,36.557721,0 129.405988,36.556207,0 129.407005,36.554406,0 129.406732,36.551472,0 129.406725,36.550742,0 129.406723,36.550652,0 129.406728,36.549967,0 129.406743,36.549678,0 129.407338,36.544341,0 129.40743,36.543988,0 129.407595,36.543418,0 129.408226,36.541839,0 129.40845,36.541376,0 129.409999,36.540351,0 129.410077,36.540313,0 129.410885,36.54003,0 129.411009,36.540082,0 129.412299,36.540756,0 129.413489,36.540998,0 129.41504,36.541388,0 129.417932,36.540413,0 129.439677,36.530894,0</coordinates></LineString></Placemark>
<Placemark><name>pickup v3 #4</name><description>{"kind": "pickup", "vehicle": 3, "seq": 4, "drive_node": 436727457, "n_buildings": 2, "eta_min": 261.46, "abort_min": null}</description><Point><coordinates>129.400421,36.567997,0</coordinates></Point></Placemark>
<Placemark><name>ingress v3 #5</name><description>{"leg": "ingress", "vehicle": 3, "seq": 5, "drive_node": 436738635, "n_buildings": 4, "eta_min": 309.64, "abort_min": null, "aborted_by_rule": false, "closing_min": null}</description><LineString><coordinates>129.439677,36.530894,0 129.417932,36.540413,0 129.41504,36.541388,0 129.413489,36.540998,0 129.412299,36.540756,0 129.411009,36.540082,0 129.410885,36.54003,0 129.41022,36.539788,0 129.409357,36.539685,0 129.409189,36.53967,0 129.409189,36.539643,0 129.409363,36.539478,0 129.409542,36.539006,0 129.409985,36.537944,0 129.410175,36.537491,0 129.409533,36.535905,0 129.408201,36.534458,0 129.406424,36.533504,0 129.405678,36.533137,0 129.405627,36.532876,0 129.405634,36.532705,0 129.405644,36.53266,0 129.406017,36.532374,0 129.407168,36.5315,0 129.407174,36.530851,0 129.407753,36.528047,0 129.403241,36.522549,0 129.403282,36.522404,0 129.403333,36.522232,0 129.403462,36.521995,0 129.403723,36.521739,0 129.403638,36.52147,0 129.402577,36.520099,0 129.409636,36.5056,0 129.410594,36.505026,0 129.411287,36.504636,0 129.411274,36.504537,0 129.411259,36.504402,0 129.411004,36.50401,0 129.411026,36.503558,0 129.410868,36.497134,0 129.410933,36.497034,0 129.407524,36.476835,0 129.40611,36.474261,0</coordinates></LineString></Placemark>
<Placemark><name>egress v3 #5</name><description>{"leg": "egress", "vehicle": 3, "seq": 5, "drive_node": 436738635, "n_buildings": 4, "eta_min": 309.64, "abort_min": null, "aborted_by_rule": false, "closing_min": null}</description><LineString><coordinates>129.40611,36.474261,0 129.407524,36.476835,0 129.410933,36.497034,0 129.410868,36.497134,0 129.411026,36.503558,0 129.411004,36.50401,0 129.411259,36.504402,0 129.411384,36.504499,0 129.411453,36.504552,0 129.411621,36.504604,0 129.412544,36.504904,0 129.429699,36.504186,0 129.430037,36.503874,0 129.434295,36.498649,0 129.434477,36.498349,0 129.436327,36.497328,0 129.440066,36.496383,0 129.442876,36.493589,0 129.442938,36.492046,0 129.443123,36.490051,0</coordinates></LineString></Placemark>
<Placemark><name>pickup v3 #5</name><description>{"kind": "pickup", "vehicle": 3, "seq": 5, "drive_node": 436738635, "n_buildings": 4, "eta_min": 309.64, "abort_min": null}</description><Point><coordinates>129.406114,36.474263,0</coordinates></Point></Placemark>
<Placemark><name>ingress v3 #6</name><description>{"leg": "ingress", "vehicle": 3, "seq": 6, "drive_node": 436912482, "n_buildings": 4, "eta_min": 365.64, "abort_min": null, "aborted_by_rule": false, "closing_min": null}</description><LineString><coordinates>129.443123,36.490051,0 129.435077,36.484341,0 129.433443,36.48279,0 129.431919,36.475361,0 129.431914,36.475162,0 129.431987,36.474945,0 129.435072,36.466188,0 129.436023,36.46135,0 129.432627,36.446343,0 129.432601,36.446208,0 129.432533,36.441207,0 129.432369,36.440885,0 129.432585,36.437005,0 129.43324,36.435525,0 129.434127,36.428562,0 129.434768,36.427866,0 129.429643,36.411913,0 129.429615,36.410787,0 129.429328,36.40999,0 129.428016,36.408352,0 129.416502,36.397207,0 129.408605,36.390258,0 129.40755,36.389518,0 129.406985,36.389184,0 129.403357,36.37847,0 129.394116,36.36561,0</coordinates></LineString></Placemark>
<Placemark><name>egress v3 #6</name><description>{"leg": "egress", "vehicle": 3, "seq": 6, "drive_node": 436912482, "n_buildings": 4, "eta_min": 365.64, "abort_min": null, "aborted_by_rule": false, "closing_min": null}</description><LineString><coordinates>129.394116,36.36561,0 129.385614,36.359228,0 129.384764,36.358646,0 129.384156,36.358367,0 129.383634,36.358439,0 129.382483,36.358781,0 129.382133,36.359508,0 129.382157,36.360499,0 129.379158,36.359997,0 129.379058,36.359998,0 129.37799,36.360078,0 129.377816,36.360721,0 129.376824,36.360727,0 129.376616,36.361803,0</coordinates></LineString></Placemark>
<Placemark><name>pickup v3 #6</name><description>{"kind": "pickup", "vehicle": 3, "seq": 6, "drive_node": 436912482, "n_buildings": 4, "eta_min": 365.64, "abort_min": null}</description><Point><coordinates>129.394121,36.365611,0</coordinates></Point></Placemark>
<Placemark><name>ingress v3 #7</name><description>{"leg": "ingress", "vehicle": 3, "seq": 7, "drive_node": 436913131, "n_buildings": 3, "eta_min": 420.34, "abort_min": null, "aborted_by_rule": false, "closing_min": null}</description><LineString><coordinates>129.376616,36.361803,0 129.376536,36.362201,0 129.377537,36.362113,0 129.378077,36.361852,0 129.379058,36.359998,0 129.379158,36.359997,0 129.382157,36.360499,0 129.382358,36.361902,0 129.392324,36.363394,0 129.393676,36.365843,0 129.394116,36.36561,0 129.403357,36.37847,0 129.406985,36.389184,0 129.40755,36.389518,0 129.408605,36.390258,0 129.416502,36.397207,0 129.428016,36.408352,0 129.429328,36.40999,0 129.429615,36.410787,0 129.429643,36.411913,0 129.434768,36.427866,0 129.434127,36.428562,0 129.43324,36.435525,0 129.432585,36.437005,0 129.432369,36.440885,0 129.432533,36.441207,0 129.432601,36.446208,0 129.432627,36.446343,0 129.436023,36.46135,0 129.435072,36.466188,0 129.431987,36.474945,0 129.431914,36.475162,0 129.431919,36.475361,0 129.433443,36.48279,0 129.435077,36.484341,0 129.443123,36.490051,0 129.442938,36.492046,0 129.442876,36.493589,0 129.440066,36.496383,0 129.436327,36.497328,0</coordinates></LineString></Placemark>
<Placemark><name>egress v3 #7</name><description>{"leg": "egress", "vehicle": 3, "seq": 7, "drive_node": 436913131, "n_buildings": 3, "eta_min": 420.34, "abort_min": null, "aborted_by_rule": false, "closing_min": null}</description><LineString><coordinates>129.436327,36.497328,0 129.440066,36.496383,0 129.442876,36.493589,0 129.442938,36.492046,0 129.443123,36.490051,0</coordinates></LineString></Placemark>
<Placemark><name>pickup v3 #7</name><description>{"kind": "pickup", "vehicle": 3, "seq": 7, "drive_node": 436913131, "n_buildings": 3, "eta_min": 420.34, "abort_min": null}</description><Point><coordinates>129.43633,36.49733,0</coordinates></Point></Placemark>
<Placemark><name>ingress v3 #8</name><description>{"leg": "ingress", "vehicle": 3, "seq": 8, "drive_node": 437091055, "n_buildings": 2, "eta_min": 473.53, "abort_min": null, "aborted_by_rule": false, "closing_min": null}</description><LineString><coordinates>129.443123,36.490051,0 129.442938,36.492046,0 129.442876,36.493589,0 129.440066,36.496383,0 129.442044,36.504959,0 129.442158,36.505949,0 129.44228,36.506821,0 129.443176,36.507789,0 129.442926,36.508523,0 129.444322,36.510772,0 129.44388,36.511383,0 129.443775,36.511664,0 129.439677,36.530894,0 129.417932,36.540413,0 129.41504,36.541388,0 129.413489,36.540998,0 129.412299,36.540756,0 129.411009,36.540082,0 129.410885,36.54003,0 129.41022,36.539788,0 129.409357,36.539685,0 129.409189,36.53967,0 129.409135,36.539743,0 129.408989,36.539709,0 129.408889,36.539711,0 129.40827,36.539531,0 129.407517,36.539327,0 129.40656,36.539045,0 129.406279,36.538959,0 129.405469,36.53872,0 129.404861,36.538522,0 129.404523,36.53841,0 129.404309,36.538351,0 129.404197,36.538316,0 129.403509,36.538039,0 129.403311,36.540476,0 129.402879,36.540609,0 129.397966,36.542066,0 129.397444,36.542201,0 129.397322,36.542212,0 129.396831,36.542238,0 129.39644,36.542235,0 129.396026,36.542223,0 129.395635,36.542212,0 129.395244,36.542191,0 129.38413,36.542682,0 129.38376,36.542652,0 129.38106,36.542307,0 129.380833,36.542185,0 129.38042,36.542182,0 129.380162,36.544908,0 129.375161,36.552928,0 129.374463,36.552678,0 129.372986,36.552142,0 129.372006,36.551806,0 129.370235,36.551104,0 129.369444,36.550728,0 129.367772,36.549952,0 129.36549,36.548879,0 129.360096,36.546197,0 129.348946,36.546604,0 129.348368,36.546703,0 129.347201,36.546956,0 129.347459,36.546069,0 129.346615,36.546307,0 129.346811,36.549369,0 129.346801,36.549423,0 129.34657,36.550039,0 129.347483,36.551792,0 129.34745,36.551819,0 129.345115,36.55273,0 129.345094,36.552784,0 129.34269,36.555535,0 129.342488,36.571483,0 129.342185,36.584116,0 129.341779,36.587764,0</coordinates></LineString></Placemark>
<Placemark><name>egress v3 #8</name><description>{"leg": "egress", "vehicle": 3, "seq": 8, "drive_node": 437091055, "n_buildings": 2, "eta_min": 473.53, "abort_min": null, "aborted_by_rule": false, "closing_min": null}</description><LineString><coordinates>129.341779,36.587764,0 129.342185,36.584116,0 129.342488,36.571483,0 129.34269,36.555535,0 129.341834,36.554791,0 129.34263,36.554436,0 129.345094,36.552784,0 129.345115,36.55273,0 129.34657,36.550039,0 129.346801,36.549423,0 129.346811,36.549369,0 129.346615,36.546307,0 129.347459,36.546069,0 129.347823,36.545892,0 129.348368,36.546703,0 129.348946,36.546604,0 129.360096,36.546197,0 129.36549,36.548879,0 129.367772,36.549952,0 129.369444,36.550728,0 129.370235,36.551104,0 129.372006,36.551806,0 129.372986,36.552142,0 129.374463,36.552678,0 129.375161,36.552928,0 129.380162,36.544908,0 129.38042,36.542182,0 129.380833,36.542185,0 129.38106,36.542307,0 129.38376,36.542652,0 129.38413,36.542682,0 129.395244,36.542191,0 129.395635,36.542212,0 129.396026,36.542223,0 129.39644,36.542235,0 129.396831,36.542238,0 129.397322,36.542212,0 129.397444,36.542201,0 129.397966,36.542066,0 129.402879,36.540609,0 129.403311,36.540476,0 129.403434,36.540447,0 129.403838,36.540521,0 129.40394,36.540583,0 129.404084,36.540563,0 129.404117,36.540544,0 129.404193,36.540444,0 129.404443,36.540629,0 129.40477,36.540723,0 129.406312,36.541221,0 129.406492,36.541272,0 129.406582,36.541307,0 129.40737,36.541556,0 129.408226,36.541839,0 129.40845,36.541376,0 129.409999,36.540351,0 129.410077,36.540313,0 129.410885,36.54003,0 129.411009,36.540082,0 129.412299,36.540756,0 129.413489,36.540998,0 129.41504,36.541388,0 129.417932,36.540413,0 129.439677,36.530894,0</coordinates></LineString></Placemark>
<Placemark><name>pickup v3 #8</name><description>{"kind": "pickup", "vehicle": 3, "seq": 8, "drive_node": 437091055, "n_buildings": 2, "eta_min": 473.53, "abort_min": null}</description><Point><coordinates>129.341784,36.587762,0</coordinates></Point></Placemark>
<Placemark><name>ingress v3 #9</name><description>{"leg": "ingress", "vehicle": 3, "seq": 9, "drive_node": 437251321, "n_buildings": 6, "eta_min": 579.65, "abort_min": null, "aborted_by_rule": false, "closing_min": null}</description><LineString><coordinates>129.439677,36.530894,0 129.443775,36.511664,0 129.44388,36.511383,0 129.444322,36.510772,0 129.442926,36.508523,0 129.443176,36.507789,0 129.44228,36.506821,0 129.442158,36.505949,0 129.442044,36.504959,0 129.440066,36.496383,0 129.442876,36.493589,0 129.442938,36.492046,0 129.443123,36.490051,0 129.435077,36.484341,0 129.433443,36.48279,0 129.431919,36.475361,0 129.431914,36.475162,0 129.431987,36.474945,0 129.435072,36.466188,0 129.436023,36.46135,0 129.432627,36.446343,0 129.432601,36.446208,0 129.432533,36.441207,0 129.432369,36.440885,0 129.432585,36.437005,0 129.43324,36.435525,0 129.434127,36.428562,0 129.434768,36.427866,0 129.429643,36.411913,0 129.429615,36.410787,0 129.429328,36.40999,0 129.428016,36.408352,0 129.416502,36.397207,0 129.408605,36.390258,0 129.40755,36.389518,0 129.406985,36.389184,0 129.403357,36.37847,0 129.394116,36.36561,0 129.385614,36.359228,0 129.384764,36.358646,0 129.384156,36.358367,0 129.383634,36.358439,0 129.382483,36.358781,0 129.382133,36.359508,0 129.382157,36.360499,0 129.379158,36.359997,0 129.379058,36.359998,0 129.380271,36.357644,0 129.380335,36.357499,0 129.380567,36.356973,0 129.379586,36.355537,0 129.379552,36.355528,0 129.378726,36.355496,0 129.378182,36.355541,0 129.377804,36.355592,0 129.37765,36.352917,0 129.375957,36.351988,0 129.373087,36.352205,0 129.371976,36.352826,0 129.371712,36.352947,0 129.366487,36.35723,0 129.366,36.357805,0 129.357124,36.361837,0 129.356774,36.362113,0 129.351772,36.367807,0 129.349548,36.369446,0 129.309743,36.384721,0 129.309187,36.38528,0 129.305235,36.384041,0 129.302788,36.384772,0 129.303997,36.387413,0 129.306725,36.393988,0 129.304423,36.397142,0 129.300631,36.40341,0 129.295896,36.413243,0 129.292953,36.419147,0 129.28407,36.416936,0 129.275225,36.41056,0 129.274723,36.410054,0 129.268082,36.40487,0</coordinates></LineString></Placemark>
<Placemark><name>egress v3 #9</name><description>{"leg": "egress", "vehicle": 3, "seq": 9, "drive_node": 437251321, "n_buildings": 6, "eta_min": 579.65, "abort_min": null, "aborted_by_rule": false, "closing_min": null}</description><LineString><coordinates>129.268082,36.40487,0 129.274723,36.410054,0 129.275225,36.41056,0 129.28407,36.416936,0 129.292953,36.419147,0 129.29782,36.422228,0 129.299716,36.42366,0 129.307281,36.430514,0 129.304641,36.430698,0 129.302663,36.431485,0 129.292566,36.438659,0 129.292178,36.439287,0 129.289997,36.442447,0 129.282703,36.445946,0 129.281894,36.447634,0 129.282506,36.449013,0 129.282897,36.449071,0</coordinates></LineString></Placemark>
<Placemark><name>pickup v3 #9</name><description>{"kind": "pickup", "vehicle": 3, "seq": 9, "drive_node": 437251321, "n_buildings": 6, "eta_min": 579.65, "abort_min": null}</description><Point><coordinates>129.268086,36.404873,0</coordinates></Point></Placemark>
<Placemark><name>ingress v3 #10</name><description>{"leg": "ingress", "vehicle": 3, "seq": 10, "drive_node": 437253086, "n_buildings": 3, "eta_min": 639.7, "abort_min": null, "aborted_by_rule": false, "closing_min": null}</description><LineString><coordinates>129.282897,36.449071,0 129.282506,36.449013,0 129.281894,36.447634,0 129.282703,36.445946,0 129.289997,36.442447,0 129.292178,36.439287,0 129.292566,36.438659,0 129.302663,36.431485,0 129.304641,36.430698,0 129.307281,36.430514,0 129.299716,36.42366,0 129.29782,36.422228,0 129.292953,36.419147,0 129.295896,36.413243,0 129.300631,36.40341,0 129.304423,36.397142,0 129.306725,36.393988,0 129.303997,36.387413,0 129.302788,36.384772,0 129.305235,36.384041,0 129.309187,36.38528,0 129.309743,36.384721,0 129.349548,36.369446,0 129.351772,36.367807,0 129.356774,36.362113,0 129.357124,36.361837,0 129.366,36.357805,0 129.366487,36.35723,0 129.371712,36.352947,0</coordinates></LineString></Placemark>
<Placemark><name>egress v3 #10</name><description>{"leg": "egress", "vehicle": 3, "seq": 10, "drive_node": 437253086, "n_buildings": 3, "eta_min": 639.7, "abort_min": null, "aborted_by_rule": false, "closing_min": null}</description><LineString><coordinates>129.371712,36.352947,0 129.371976,36.352826,0 129.373087,36.352205,0 129.375957,36.351988,0 129.37765,36.352917,0 129.378038,36.353722,0 129.378403,36.354555,0 129.378378,36.354889,0 129.378346,36.35498,0 129.378182,36.355541,0 129.378123,36.355893,0 129.378012,36.356382,0 129.378389,36.357674,0 129.378132,36.358129,0 129.377524,36.358796,0 129.378178,36.35912,0 129.37799,36.360078,0 129.377816,36.360721,0 129.376824,36.360727,0 129.376616,36.361803,0</coordinates></LineString></Placemark>
<Placemark><name>pickup v3 #10</name><description>{"kind": "pickup", "vehicle": 3, "seq": 10, "drive_node": 437253086, "n_buildings": 3, "eta_min": 639.7, "abort_min": null}</description><Point><coordinates>129.371709,36.352946,0</coordinates></Point></Placemark>
<Placemark><name>ingress v3 #11</name><description>{"leg": "ingress", "vehicle": 3, "seq": 11, "drive_node": 437261617, "n_buildings": 8, "eta_min": 705.16, "abort_min": null, "aborted_by_rule": false, "closing_min": null}</description><LineString><coordinates>129.376616,36.361803,0 129.376536,36.362201,0 129.377537,36.362113,0 129.378077,36.361852,0 129.379058,36.359998,0 129.379158,36.359997,0 129.382157,36.360499,0 129.382358,36.361902,0 129.392324,36.363394,0 129.393676,36.365843,0 129.394116,36.36561,0 129.403357,36.37847,0 129.406985,36.389184,0 129.40755,36.389518,0 129.408605,36.390258,0 129.416502,36.397207,0 129.428016,36.408352,0 129.429328,36.40999,0 129.429615,36.410787,0 129.429643,36.411913,0 129.434768,36.427866,0 129.434127,36.428562,0 129.43324,36.435525,0 129.432585,36.437005,0 129.432369,36.440885,0 129.432533,36.441207,0 129.432601,36.446208,0 129.432627,36.446343,0 129.436023,36.46135,0 129.435072,36.466188,0 129.431987,36.474945,0 129.431914,36.475162,0 129.431919,36.475361,0 129.433443,36.48279,0 129.435077,36.484341,0 129.443123,36.490051,0 129.442938,36.492046,0 129.442876,36.493589,0 129.440066,36.496383,0 129.442044,36.504959,0 129.442158,36.505949,0 129.44228,36.506821,0 129.443176,36.507789,0 129.442926,36.508523,0 129.444322,36.510772,0 129.44388,36.511383,0 129.443775,36.511664,0 129.439677,36.530894,0 129.417932,36.540413,0 129.41504,36.541388,0 129.413489,36.540998,0 129.412299,36.540756,0 129.411009,36.540082,0 129.410885,36.54003,0 129.41022,36.539788,0 129.409357,36.539685,0 129.409189,36.53967,0 129.409135,36.539743,0 129.408989,36.539709,0 129.408889,36.539711,0 129.40827,36.539531,0 129.407517,36.539327,0 129.40656,36.539045,0 129.406099,36.539377,0 129.405392,36.539667,0</coordinates></LineString></Placemark>
<Placemark><name>egress v3 #11</name><description>{"leg": "egress", "vehicle": 3, "seq": 11, "drive_node": 437261617, "n_buildings": 8, "eta_min": 705.16, "abort_min": null, "aborted_by_rule": false, "closing_min": null}</description><LineString><coordinates>129.405392,36.539667,0 129.406099,36.539377,0 129.40656,36.539045,0 129.407517,36.539327,0 129.40827,36.539531,0 129.408889,36.539711,0 129.408989,36.539709,0 129.409135,36.539743,0 129.409189,36.53967,0 129.409357,36.539685,0 129.41022,36.539788,0 129.410885,36.54003,0 129.411009,36.540082,0 129.412299,36.540756,0 129.413489,36.540998,0 129.41504,36.541388,0 129.417932,36.540413,0 129.439677,36.530894,0</coordinates></LineString></Placemark>
<Placemark><name>pickup v3 #11</name><description>{"kind": "pickup", "vehicle": 3, "seq": 11, "drive_node": 437261617, "n_buildings": 8, "eta_min": 705.16, "abort_min": null}</description><Point><coordinates>129.405388,36.539663,0</coordinates></Point></Placemark>
</Document></kml>
