<?xml version="1.0" encoding="UTF-8"?>
<kml xmlns="http://www.opengis.net/kml/2.2"><Document>
<name>k4_vehicle0</name>
<description>이 화면은 2025년 3월 25일 영덕 산불의 커밋된 예측장(routing_demo_canonical.npz)과 2026-07-24 도로망 스냅샷으로 만든 재생(replay)입니다. 실시간 도구가 아니고, 출동 기록도 아닙니다. 지점은 건물이며 가구가 아닙니다. 규칙과 한계는 docs/truck_crew_replay.md.</description>
<Placemark><name>ingress v0 #0</name><description>{"leg": "ingress", "vehicle": 0, "seq": 0, "drive_node": 11835362669, "n_buildings": 5, "eta_min": 76.05, "abort_min": 168.0, "aborted_by_rule": false, "closing_min": 180.0}</description><LineString><coordinates>129.371154,36.416189,0 129.370808,36.414319,0 129.371075,36.414297,0 129.371465,36.414273,0 129.371084,36.412801,0 129.371038,36.41227,0 129.371042,36.411521,0 129.370939,36.410486,0 129.371427,36.410362,0 129.371004,36.409007,0 129.370916,36.408567,0 129.370425,36.408574,0 129.370655,36.40702,0 129.370759,36.406694,0 129.371904,36.406072,0 129.372389,36.405858,0 129.372633,36.4058,0 129.374106,36.40492,0 129.374371,36.40433,0 129.374277,36.404133,0 129.372263,36.401073,0 129.371928,36.400565,0 129.37096,36.398795,0 129.370662,36.397988,0 129.370495,36.397522,0 129.370292,36.396976,0 129.370159,36.395148,0 129.369927,36.392925,0 129.369669,36.390531,0 129.369573,36.389776,0 129.369473,36.38884,0 129.372998,36.383358,0 129.375922,36.377949,0 129.377834,36.374449,0 129.37912,36.370489,0 129.378336,36.368915,0 129.377205,36.3664,0 129.377051,36.365528,0 129.377428,36.363143,0 129.377757,36.362443,0 129.377537,36.362113,0 129.377761,36.361695,0 129.377816,36.360721,0 129.37799,36.360078,0 129.378178,36.35912,0 129.377524,36.358796,0 129.378132,36.358129,0 129.378389,36.357674,0 129.378012,36.356382,0 129.377912,36.355906,0 129.377804,36.355592,0 129.37765,36.352917,0 129.375957,36.351988,0 129.373087,36.352205,0 129.371976,36.352826,0 129.371712,36.352947,0 129.366487,36.35723,0 129.366,36.357805,0 129.357124,36.361837,0 129.356774,36.362113,0 129.351772,36.367807,0 129.349548,36.369446,0 129.309743,36.384721,0 129.309187,36.38528,0 129.305235,36.384041,0 129.302788,36.384772,0 129.303997,36.387413,0 129.306725,36.393988,0 129.304423,36.397142,0 129.300631,36.40341,0 129.295896,36.413243,0 129.292953,36.419147,0 129.28407,36.416936,0 129.283647,36.417492,0 129.281716,36.419838,0 129.281817,36.420386,0 129.2863,36.433984,0 129.287348,36.433951,0 129.288584,36.438241,0 129.289997,36.442447,0 129.282703,36.445946,0 129.281894,36.447634,0 129.282506,36.449013,0 129.282435,36.449339,0 129.282378,36.449763,0 129.282029,36.45012,0 129.279397,36.459949,0 129.279216,36.461772,0 129.280005,36.464573,0 129.279146,36.475799,0</coordinates></LineString></Placemark>
<Placemark><name>egress v0 #0</name><description>{"leg": "egress", "vehicle": 0, "seq": 0, "drive_node": 11835362669, "n_buildings": 5, "eta_min": 76.05, "abort_min": 168.0, "aborted_by_rule": false, "closing_min": 180.0}</description><LineString><coordinates>129.279146,36.475799,0 129.280005,36.464573,0 129.279216,36.461772,0 129.279397,36.459949,0 129.282029,36.45012,0 129.282378,36.449763,0</coordinates></LineString></Placemark>
<Placemark><name>pickup v0 #0</name><description>{"kind": "pickup", "vehicle": 0, "seq": 0, "drive_node": 11835362669, "n_buildings": 5, "eta_min": 76.05, "abort_min": 168.0}</description><Point><coordinates>129.279148,36.475802,0</coordinates></Point></Placemark>
<Placemark><name>ingress v0 #1</name><description>{"leg": "ingress", "vehicle": 0, "seq": 1, "drive_node": 414668537, "n_buildings": 9, "eta_min": 140.21, "abort_min": 168.0, "aborted_by_rule": false, "closing_min": 180.0}</description><LineString><coordinates>129.282378,36.449763,0 129.282435,36.449339,0 129.282506,36.449013,0 129.281894,36.447634,0 129.282703,36.445946,0 129.289997,36.442447,0 129.288584,36.438241,0 129.287348,36.433951,0 129.2863,36.433984,0 129.281817,36.420386,0 129.281716,36.419838,0 129.283647,36.417492,0 129.28407,36.416936,0 129.292953,36.419147,0 129.295896,36.413243,0 129.300631,36.40341,0 129.304423,36.397142,0 129.306725,36.393988,0 129.303997,36.387413,0 129.302788,36.384772,0 129.305235,36.384041,0 129.309187,36.38528,0 129.309743,36.384721,0 129.349548,36.369446,0 129.351772,36.367807,0 129.356774,36.362113,0 129.357124,36.361837,0 129.366,36.357805,0 129.366487,36.35723,0 129.371712,36.352947,0 129.371976,36.352826,0 129.373087,36.352205,0 129.375957,36.351988,0 129.37765,36.352917,0 129.378038,36.353722,0 129.378403,36.354555,0 129.378378,36.354889,0 129.378346,36.35498,0 129.378182,36.355541,0 129.378123,36.355893,0 129.378012,36.356382,0 129.378389,36.357674,0 129.380335,36.357499,0 129.380425,36.357552,0 129.380382,36.357625,0 129.379158,36.359997,0 129.382157,36.360499,0 129.382358,36.361902,0 129.392324,36.363394,0 129.393676,36.365843,0 129.394116,36.36561,0 129.403357,36.37847,0 129.406985,36.389184,0 129.40755,36.389518,0</coordinates></LineString></Placemark>
<Placemark><name>egress v0 #1</name><description>{"leg": "egress", "vehicle": 0, "seq": 1, "drive_node": 414668537, "n_buildings": 9, "eta_min": 140.21, "abort_min": 168.0, "aborted_by_rule": false, "closing_min": null}</description><LineString><coordinates>129.40755,36.389518,0</coordinates></LineString></Placemark>
<Placemark><name>pickup v0 #1</name><description>{"kind": "pickup", "vehicle": 0, "seq": 1, "drive_node": 414668537, "n_buildings": 9, "eta_min": 140.21, "abort_min": 168.0}</description><Point><coordinates>129.407546,36.389517,0</coordinates></Point></Placemark>
<Placemark><name>ingress v0 #2</name><description>{"leg": "ingress", "vehicle": 0, "seq": 2, "drive_node": 436594488, "n_buildings": 3, "eta_min": 193.29, "abort_min": null, "aborted_by_rule": false, "closing_min": null}</description><LineString><coordinates>129.40755,36.389518,0 129.406985,36.389184,0 129.403357,36.37847,0 129.394116,36.36561,0 129.385614,36.359228,0 129.384764,36.358646,0 129.384156,36.358367,0 129.383634,36.358439,0 129.382483,36.358781,0 129.382133,36.359508,0 129.382157,36.360499,0 129.379158,36.359997,0 129.379058,36.359998,0 129.380271,36.357644,0 129.380335,36.357499,0 129.380567,36.356973,0 129.379586,36.355537,0 129.379552,36.355528,0 129.378726,36.355496,0 129.378182,36.355541,0 129.377804,36.355592,0 129.37765,36.352917,0 129.375957,36.351988,0 129.373087,36.352205,0 129.371976,36.352826,0 129.371712,36.352947,0 129.366487,36.35723,0 129.366,36.357805,0 129.357124,36.361837,0 129.356774,36.362113,0 129.351772,36.367807,0 129.349548,36.369446,0 129.309743,36.384721,0 129.309187,36.38528,0 129.305235,36.384041,0 129.302788,36.384772,0 129.303997,36.387413,0 129.306725,36.393988,0 129.304423,36.397142,0 129.300631,36.40341,0 129.295896,36.413243,0 129.292953,36.419147,0 129.29782,36.422228,0 129.299716,36.42366,0 129.307281,36.430514,0</coordinates></LineString></Placemark>
<Placemark><name>egress v0 #2</name><description>{"leg": "egress", "vehicle": 0, "seq": 2, "drive_node": 436594488, "n_buildings": 3, "eta_min": 193.29, "abort_min": null, "aborted_by_rule": false, "closing_min": null}</description><LineString><coordinates>129.307281,36.430514,0 129.304641,36.430698,0 129.302663,36.431485,0 129.292566,36.438659,0 129.292178,36.439287,0 129.289997,36.442447,0 129.282703,36.445946,0 129.281894,36.447634,0 129.282506,36.449013,0 129.282897,36.449071,0</coordinates></LineString></Placemark>
<Placemark><name>pickup v0 #2</name><description>{"kind": "pickup", "vehicle": 0, "seq": 2, "drive_node": 436594488, "n_buildings": 3, "eta_min": 193.29, "abort_min": null}</description><Point><coordinates>129.307275,36.430516,0</coordinates></Point></Placemark>
<Placemark><name>ingress v0 #3</name><description>{"leg": "ingress", "vehicle": 0, "seq": 3, "drive_node": 436727463, "n_buildings": 26, "eta_min": 285.44, "abort_min": -12.0, "aborted_by_rule": true, "closing_min": 0.0}</description><LineString><coordinates>129.282897,36.449071,0 129.282506,36.449013,0 129.281894,36.447634,0 129.282703,36.445946,0 129.289997,36.442447,0 129.292178,36.439287,0 129.292566,36.438659,0 129.302663,36.431485,0 129.304641,36.430698,0 129.307281,36.430514,0 129.322109,36.426863,0 129.326745,36.429523,0 129.326962,36.430214,0 129.327035,36.430465,0 129.331679,36.431124,0 129.34731,36.428891,0 129.350401,36.42988,0 129.351164,36.430562,0 129.353874,36.431467,0 129.355558,36.432378,0 129.35808,36.433835,0 129.362969,36.42881,0 129.362785,36.428588,0 129.362636,36.428437,0 129.361798,36.426971,0 129.3616,36.427083,0 129.361383,36.427357,0 129.361061,36.42738,0 129.359598,36.426393,0 129.364962,36.416998,0 129.365328,36.416938,0 129.365918,36.41737,0 129.366122,36.417007,0 129.366907,36.415805,0 129.367142,36.415837,0 129.367268,36.415997,0 129.367286,36.41579,0 129.367339,36.415203,0 129.367404,36.414679,0 129.367444,36.41448,0 129.368313,36.41443,0 129.369382,36.414387,0 129.370808,36.414319,0 129.371075,36.414297,0 129.371465,36.414273,0 129.371977,36.414247,0 129.373002,36.414204,0 129.373203,36.414219,0 129.37334,36.414343,0 129.373396,36.414324,0 129.373518,36.414331,0 129.373552,36.414339,0 129.373632,36.414419,0 129.373633,36.414446,0 129.373736,36.41458,0 129.374469,36.414902,0 129.377048,36.414095,0 129.377623,36.414339,0 129.377955,36.414694,0 129.37856,36.415297,0 129.378742,36.41543,0 129.379,36.41548,0 129.40591,36.390824,0 129.406354,36.390276,0 129.406789,36.389854,0 129.40755,36.389518,0 129.408605,36.390258,0 129.416502,36.397207,0 129.428016,36.408352,0 129.429328,36.40999,0 129.429615,36.410787,0 129.429643,36.411913,0 129.434768,36.427866,0 129.434127,36.428562,0 129.43324,36.435525,0 129.432585,36.437005,0 129.432369,36.440885,0 129.432533,36.441207,0 129.432601,36.446208,0 129.432627,36.446343,0 129.436023,36.46135,0 129.435072,36.466188,0 129.431987,36.474945,0 129.431914,36.475162,0 129.431919,36.475361,0 129.433443,36.48279,0 129.435077,36.484341,0 129.443123,36.490051,0 129.442938,36.492046,0 129.442876,36.493589,0 129.440066,36.496383,0 129.442044,36.504959,0 129.442158,36.505949,0 129.44228,36.506821,0 129.443176,36.507789,0 129.442926,36.508523,0 129.444322,36.510772,0 129.44388,36.511383,0 129.443775,36.511664,0 129.439677,36.530894,0 129.417932,36.540413,0 129.415664,36.541783,0 129.416835,36.545757,0 129.420798,36.552409,0 129.420951,36.552731,0 129.421222,36.553303,0 129.419927,36.553775,0 129.416984,36.552714,0 129.407005,36.554406,0 129.405988,36.556207,0 129.404874,36.557721,0 129.404206,36.558732,0 129.403626,36.55967,0 129.401735,36.562747,0 129.401627,36.562902,0 129.401552,36.563038,0 129.401402,36.563293,0 129.400422,36.567995,0 129.400593,36.571778,0 129.400606,36.571868,0 129.400621,36.57203,0</coordinates></LineString></Placemark>
<Placemark><name>egress v0 #3</name><description>{"leg": "egress", "vehicle": 0, "seq": 3, "drive_node": 436727463, "n_buildings": 26, "eta_min": 285.44, "abort_min": -12.0, "aborted_by_rule": true, "closing_min": null}</description><LineString><coordinates>129.400621,36.57203,0 129.400606,36.571868,0 129.400593,36.571778,0 129.400422,36.567995,0 129.401402,36.563293,0 129.401552,36.563038,0 129.401627,36.562902,0 129.401735,36.562747,0 129.403626,36.55967,0 129.404206,36.558732,0 129.404874,36.557721,0 129.405988,36.556207,0 129.407005,36.554406,0 129.406732,36.551472,0 129.406725,36.550742,0 129.406723,36.550652,0 129.406728,36.549967,0 129.406743,36.549678,0 129.407338,36.544341,0 129.40743,36.543988,0 129.407595,36.543418,0 129.408226,36.541839,0 129.40845,36.541376,0 129.409999,36.540351,0 129.410077,36.540313,0 129.410885,36.54003,0 129.411009,36.540082,0 129.412299,36.540756,0 129.413489,36.540998,0 129.41504,36.541388,0 129.417932,36.540413,0 129.439677,36.530894,0</coordinates></LineString></Placemark>
<Placemark><name>pickup v0 #3</name><description>{"kind": "pickup", "vehicle": 0, "seq": 3, "drive_node": 436727463, "n_buildings": 26, "eta_min": 285.44, "abort_min": -12.0}</description><Point><coordinates>129.400617,36.572027,0</coordinates></Point></Placemark>
<Placemark><name>ingress v0 #4</name><description>{"leg": "ingress", "vehicle": 0, "seq": 4, "drive_node": 436738712, "n_buildings": 4, "eta_min": 330.35, "abort_min": null, "aborted_by_rule": false, "closing_min": null}</description><LineString><coordinates>129.439677,36.530894,0 129.417932,36.540413,0 129.41504,36.541388,0 129.413489,36.540998,0 129.412299,36.540756,0 129.411009,36.540082,0 129.410885,36.54003,0 129.41022,36.539788,0 129.409357,36.539685,0 129.409189,36.53967,0 129.409189,36.539643,0 129.409363,36.539478,0 129.409542,36.539006,0 129.409985,36.537944,0 129.410175,36.537491,0 129.409533,36.535905,0 129.408201,36.534458,0 129.406424,36.533504,0 129.405678,36.533137,0 129.405627,36.532876,0 129.405634,36.532705,0 129.405644,36.53266,0 129.406017,36.532374,0 129.407168,36.5315,0 129.407174,36.530851,0 129.407753,36.528047,0 129.403241,36.522549,0 129.403282,36.522404,0 129.403333,36.522232,0 129.403462,36.521995,0 129.403723,36.521739,0 129.403638,36.52147,0 129.402577,36.520099,0 129.409636,36.5056,0 129.410594,36.505026,0 129.411287,36.504636,0 129.411274,36.504537,0 129.411259,36.504402,0 129.411004,36.50401,0 129.411026,36.503558,0 129.410868,36.497134,0</coordinates></LineString></Placemark>
<Placemark><name>egress v0 #4</name><description>{"leg": "egress", "vehicle": 0, "seq": 4, "drive_node": 436738712, "n_buildings": 4, "eta_min": 330.35, "abort_min": null, "aborted_by_rule": false, "closing_min": null}</description><LineString><coordinates>129.410868,36.497134,0 129.411026,36.503558,0 129.411004,36.50401,0 129.411259,36.504402,0 129.411384,36.504499,0 129.411453,36.504552,0 129.411621,36.504604,0 129.412544,36.504904,0 129.429699,36.504186,0 129.430037,36.503874,0 129.434295,36.498649,0 129.434477,36.498349,0 129.436327,36.497328,0 129.440066,36.496383,0 129.442876,36.493589,0 129.442938,36.492046,0 129.443123,36.490051,0</coordinates></LineString></Placemark>
<Placemark><name>pickup v0 #4</name><description>{"kind": "pickup", "vehicle": 0, "seq": 4, "drive_node": 436738712, "n_buildings": 4, "eta_min": 330.35, "abort_min": null}</description><Point><coordinates>129.410864,36.497131,0</coordinates></Point></Placemark>
<Placemark><name>ingress v0 #5</name><description>{"leg": "ingress", "vehicle": 0, "seq": 5, "drive_node": 436912612, "n_buildings": 62, "eta_min": 375.84, "abort_min": null, "aborted_by_rule": false, "closing_min": null}</description><LineString><coordinates>129.443123,36.490051,0 129.435077,36.484341,0 129.433443,36.48279,0 129.431919,36.475361,0 129.431914,36.475162,0 129.431987,36.474945,0 129.435072,36.466188,0 129.436023,36.46135,0 129.432627,36.446343,0 129.432601,36.446208,0 129.432533,36.441207,0 129.432369,36.440885,0 129.432585,36.437005,0 129.43324,36.435525,0 129.434127,36.428562,0 129.434768,36.427866,0 129.429643,36.411913,0 129.429615,36.410787,0 129.429328,36.40999,0 129.428016,36.408352,0 129.416502,36.397207,0</coordinates></LineString></Placemark>
<Placemark><name>egress v0 #5</name><description>{"leg": "egress", "vehicle": 0, "seq": 5, "drive_node": 436912612, "n_buildings": 62, "eta_min": 375.84, "abort_min": null, "aborted_by_rule": false, "closing_min": null}</description><LineString><coordinates>129.416502,36.397207,0 129.408605,36.390258,0 129.40755,36.389518,0</coordinates></LineString></Placemark>
<Placemark><name>pickup v0 #5</name><description>{"kind": "pickup", "vehicle": 0, "seq": 5, "drive_node": 436912612, "n_buildings": 62, "eta_min": 375.84, "abort_min": null}</description><Point><coordinates>129.416504,36.397207,0</coordinates></Point></Placemark>
<Placemark><name>ingress v0 #6</name><description>{"leg": "ingress", "vehicle": 0, "seq": 6, "drive_node": 436912951, "n_buildings": 42, "eta_min": 409.62, "abort_min": null, "aborted_by_rule": false, "closing_min": null}</description><LineString><coordinates>129.40755,36.389518,0 129.408605,36.390258,0 129.416502,36.397207,0 129.428016,36.408352,0 129.429328,36.40999,0 129.429615,36.410787,0 129.429643,36.411913,0 129.434768,36.427866,0 129.434127,36.428562,0 129.43324,36.435525,0 129.432585,36.437005,0 129.432369,36.440885,0 129.432533,36.441207,0 129.432601,36.446208,0 129.432627,36.446343,0</coordinates></LineString></Placemark>
<Placemark><name>egress v0 #6</name><description>{"leg": "egress", "vehicle": 0, "seq": 6, "drive_node": 436912951, "n_buildings": 42, "eta_min": 409.62, "abort_min": null, "aborted_by_rule": false, "closing_min": null}</description><LineString><coordinates>129.432627,36.446343,0 129.432601,36.446208,0 129.432533,36.441207,0 129.432369,36.440885,0 129.432585,36.437005,0 129.43324,36.435525,0 129.434127,36.428562,0 129.434768,36.427866,0</coordinates></LineString></Placemark>
<Placemark><name>pickup v0 #6</name><description>{"kind": "pickup", "vehicle": 0, "seq": 6, "drive_node": 436912951, "n_buildings": 42, "eta_min": 409.62, "abort_min": null}</description><Point><coordinates>129.432629,36.446346,0</coordinates></Point></Placemark>
<Placemark><name>ingress v0 #7</name><description>{"leg": "ingress", "vehicle": 0, "seq": 7, "drive_node": 437092206, "n_buildings": 14, "eta_min": 477.76, "abort_min": null, "aborted_by_rule": false, "closing_min": null}</description><LineString><coordinates>129.434768,36.427866,0 129.429643,36.411913,0 129.429615,36.410787,0 129.429328,36.40999,0 129.428016,36.408352,0 129.416502,36.397207,0 129.408605,36.390258,0 129.40755,36.389518,0 129.406985,36.389184,0 129.403357,36.37847,0 129.394116,36.36561,0 129.385614,36.359228,0 129.384764,36.358646,0 129.384156,36.358367,0 129.383634,36.358439,0 129.382483,36.358781,0 129.382133,36.359508,0 129.382157,36.360499,0 129.379158,36.359997,0 129.379058,36.359998,0 129.380271,36.357644,0 129.380335,36.357499,0 129.380567,36.356973,0 129.379586,36.355537,0 129.379552,36.355528,0 129.378726,36.355496,0 129.378182,36.355541,0 129.377804,36.355592,0 129.37765,36.352917,0 129.375957,36.351988,0 129.373087,36.352205,0 129.371976,36.352826,0 129.371712,36.352947,0 129.366487,36.35723,0 129.366,36.357805,0 129.357124,36.361837,0 129.356774,36.362113,0 129.351772,36.367807,0 129.349548,36.369446,0 129.309743,36.384721,0 129.309187,36.38528,0 129.305235,36.384041,0 129.302788,36.384772,0 129.301517,36.382845,0 129.305717,36.37548,0 129.308091,36.372127,0 129.309926,36.370485,0 129.308532,36.365648,0 129.30574,36.363004,0 129.290958,36.360405,0 129.290567,36.360366,0 129.289986,36.360302,0 129.285449,36.359262,0 129.28223,36.356903,0 129.278272,36.351427,0 129.27316,36.342228,0 129.269326,36.331819,0</coordinates></LineString></Placemark>
<Placemark><name>egress v0 #7</name><description>{"leg": "egress", "vehicle": 0, "seq": 7, "drive_node": 437092206, "n_buildings": 14, "eta_min": 477.76, "abort_min": null, "aborted_by_rule": false, "closing_min": null}</description><LineString><coordinates>129.269326,36.331819,0</coordinates></LineString></Placemark>
<Placemark><name>pickup v0 #7</name><description>{"kind": "pickup", "vehicle": 0, "seq": 7, "drive_node": 437092206, "n_buildings": 14, "eta_min": 477.76, "abort_min": null}</description><Point><coordinates>129.26932,36.331816,0</coordinates></Point></Placemark>
<Placemark><name>ingress v0 #8</name><description>{"leg": "ingress", "vehicle": 0, "seq": 8, "drive_node": 437092348, "n_buildings": 12, "eta_min": 506.01, "abort_min": null, "aborted_by_rule": false, "closing_min": null}</description><LineString><coordinates>129.269326,36.331819,0 129.27316,36.342228,0 129.278272,36.351427,0 129.28223,36.356903,0 129.285449,36.359262,0 129.289986,36.360302,0 129.290567,36.360366,0 129.290958,36.360405,0 129.30574,36.363004,0</coordinates></LineString></Placemark>
<Placemark><name>egress v0 #8</name><description>{"leg": "egress", "vehicle": 0, "seq": 8, "drive_node": 437092348, "n_buildings": 12, "eta_min": 506.01, "abort_min": null, "aborted_by_rule": false, "closing_min": null}</description><LineString><coordinates>129.30574,36.363004,0 129.290958,36.360405,0 129.290567,36.360366,0 129.289986,36.360302,0 129.285449,36.359262,0 129.28223,36.356903,0 129.278272,36.351427,0 129.27316,36.342228,0 129.269326,36.331819,0</coordinates></LineString></Placemark>
<Placemark><name>pickup v0 #8</name><description>{"kind": "pickup", "vehicle": 0, "seq": 8, "drive_node": 437092348, "n_buildings": 12, "eta_min": 506.01, "abort_min": null}</description><Point><coordinates>129.305736,36.363007,0</coordinates></Point></Placemark>
<Placemark><name>ingress v0 #9</name><description>{"leg": "ingress", "vehicle": 0, "seq": 9, "drive_node": 437092401, "n_buildings": 4, "eta_min": 547.24, "abort_min": null, "aborted_by_rule": false, "closing_min": null}</description><LineString><coordinates>129.269326,36.331819,0 129.27316,36.342228,0 129.278272,36.351427,0 129.28223,36.356903,0 129.285449,36.359262,0 129.289986,36.360302,0 129.290567,36.360366,0 129.290958,36.360405,0 129.30574,36.363004,0 129.308532,36.365648,0 129.309926,36.370485,0 129.308091,36.372127,0 129.305717,36.37548,0 129.301517,36.382845,0 129.302788,36.384772,0 129.303997,36.387413,0</coordinates></LineString></Placemark>
<Placemark><name>egress v0 #9</name><description>{"leg": "egress", "vehicle": 0, "seq": 9, "drive_node": 437092401, "n_buildings": 4, "eta_min": 547.24, "abort_min": null, "aborted_by_rule": false, "closing_min": null}</description><LineString><coordinates>129.303997,36.387413,0 129.302788,36.384772,0 129.301517,36.382845,0 129.305717,36.37548,0 129.308091,36.372127,0 129.309926,36.370485,0 129.308532,36.365648,0 129.30574,36.363004,0 129.290958,36.360405,0 129.290567,36.360366,0 129.289986,36.360302,0 129.285449,36.359262,0 129.28223,36.356903,0 129.278272,36.351427,0 129.27316,36.342228,0 129.269326,36.331819,0</coordinates></LineString></Placemark>
<Placemark><name>pickup v0 #9</name><description>{"kind": "pickup", "vehicle": 0, "seq": 9, "drive_node": 437092401, "n_buildings": 4, "eta_min": 547.24, "abort_min": null}</description><Point><coordinates>129.303992,36.387415,0</coordinates></Point></Placemark>
<Placemark><name>ingress v0 #10</name><description>{"leg": "ingress", "vehicle": 0, "seq": 10, "drive_node": 437251404, "n_buildings": 1, "eta_min": 600.38, "abort_min": null, "aborted_by_rule": false, "closing_min": null}</description><LineString><coordinates>129.269326,36.331819,0 129.27316,36.342228,0 129.278272,36.351427,0 129.28223,36.356903,0 129.285449,36.359262,0 129.289986,36.360302,0 129.290567,36.360366,0 129.290958,36.360405,0 129.30574,36.363004,0 129.308532,36.365648,0 129.309926,36.370485,0 129.308091,36.372127,0 129.305717,36.37548,0 129.301517,36.382845,0 129.302788,36.384772,0 129.303997,36.387413,0 129.306725,36.393988,0 129.304423,36.397142,0 129.300631,36.40341,0 129.295896,36.413243,0 129.292953,36.419147,0 129.28407,36.416936,0</coordinates></LineString></Placemark>
<Placemark><name>egress v0 #10</name><description>{"leg": "egress", "vehicle": 0, "seq": 10, "drive_node": 437251404, "n_buildings": 1, "eta_min": 600.38, "abort_min": null, "aborted_by_rule": false, "closing_min": null}</description><LineString><coordinates>129.28407,36.416936,0 129.292953,36.419147,0 129.29782,36.422228,0 129.299716,36.42366,0 129.307281,36.430514,0 129.304641,36.430698,0 129.302663,36.431485,0 129.292566,36.438659,0 129.292178,36.439287,0 129.289997,36.442447,0 129.282703,36.445946,0 129.281894,36.447634,0 129.282506,36.449013,0 129.282897,36.449071,0</coordinates></LineString></Placemark>
<Placemark><name>pickup v0 #10</name><description>{"kind": "pickup", "vehicle": 0, "seq": 10, "drive_node": 437251404, "n_buildings": 1, "eta_min": 600.38, "abort_min": null}</description><Point><coordinates>129.28407,36.416938,0</coordinates></Point></Placemark>
<Placemark><name>ingress v0 #11</name><description>{"leg": "ingress", "vehicle": 0, "seq": 11, "drive_node": 437253218, "n_buildings": 2, "eta_min": 644.09, "abort_min": null, "aborted_by_rule": false, "closing_min": null}</description><LineString><coordinates>129.282897,36.449071,0 129.282506,36.449013,0 129.281894,36.447634,0 129.282703,36.445946,0 129.289997,36.442447,0 129.292178,36.439287,0 129.292566,36.438659,0 129.302663,36.431485,0 129.304641,36.430698,0 129.307281,36.430514,0 129.299716,36.42366,0 129.29782,36.422228,0 129.292953,36.419147,0 129.295896,36.413243,0 129.300631,36.40341,0 129.304423,36.397142,0 129.306725,36.393988,0 129.303997,36.387413,0 129.302788,36.384772,0 129.305235,36.384041,0</coordinates></LineString></Placemark>
<Placemark><name>egress v0 #11</name><description>{"leg": "egress", "vehicle": 0, "seq": 11, "drive_node": 437253218, "n_buildings": 2, "eta_min": 644.09, "abort_min": null, "aborted_by_rule": false, "closing_min": null}</description><LineString><coordinates>129.305235,36.384041,0 129.302788,36.384772,0 129.301517,36.382845,0 129.305717,36.37548,0 129.308091,36.372127,0 129.309926,36.370485,0 129.308532,36.365648,0 129.30574,36.363004,0 129.290958,36.360405,0 129.290567,36.360366,0 129.289986,36.360302,0 129.285449,36.359262,0 129.28223,36.356903,0 129.278272,36.351427,0 129.27316,36.342228,0 129.269326,36.331819,0</coordinates></LineString></Placemark>
<Placemark><name>pickup v0 #11</name><description>{"kind": "pickup", "vehicle": 0, "seq": 11, "drive_node": 437253218, "n_buildings": 2, "eta_min": 644.09, "abort_min": null}</description><Point><coordinates>129.305238,36.384038,0</coordinates></Point></Placemark>
<Placemark><name>ingress v0 #12</name><description>{"leg": "ingress", "vehicle": 0, "seq": 12, "drive_node": 437283687, "n_buildings": 17, "eta_min": 691.7, "abort_min": null, "aborted_by_rule": false, "closing_min": null}</description><LineString><coordinates>129.269326,36.331819,0 129.27316,36.342228,0 129.278272,36.351427,0 129.28223,36.356903,0 129.285449,36.359262,0 129.291363,36.358632,0 129.313361,36.330212,0</coordinates></LineString></Placemark>
<Placemark><name>egress v0 #12</name><description>{"leg": "egress", "vehicle": 0, "seq": 12, "drive_node": 437283687, "n_buildings": 17, "eta_min": 691.7, "abort_min": null, "aborted_by_rule": false, "closing_min": null}</description><LineString><coordinates>129.313361,36.330212,0 129.329806,36.324103,0</coordinates></LineString></Placemark>
<Placemark><name>pickup v0 #12</name><description>{"kind": "pickup", "vehicle": 0, "seq": 12, "drive_node": 437283687, "n_buildings": 17, "eta_min": 691.7, "abort_min": null}</description><Point><coordinates>129.313357,36.330214,0</coordinates></Point></Placemark>
</Document></kml>
