{
 "type": "FeatureCollection",
 "name": "k6_vehicle0",
 "note": "이 화면은 2025년 3월 25일 영덕 산불의 커밋된 예측장(routing_demo_canonical.npz)과 2026-07-24 도로망 스냅샷으로 만든 재생(replay)입니다. 실시간 도구가 아니고, 출동 기록도 아닙니다. 지점은 건물이며 가구가 아닙니다. 규칙과 한계는 docs/truck_crew_replay.md.",
 "features": [
  {
   "type": "Feature",
   "geometry": {
    "type": "LineString",
    "coordinates": [
     [
      129.371154,
      36.416189
     ],
     [
      129.370808,
      36.414319
     ],
     [
      129.371075,
      36.414297
     ],
     [
      129.371465,
      36.414273
     ],
     [
      129.371084,
      36.412801
     ],
     [
      129.371038,
      36.41227
     ],
     [
      129.371042,
      36.411521
     ],
     [
      129.370939,
      36.410486
     ],
     [
      129.371427,
      36.410362
     ],
     [
      129.371004,
      36.409007
     ],
     [
      129.370916,
      36.408567
     ],
     [
      129.370425,
      36.408574
     ],
     [
      129.370655,
      36.40702
     ],
     [
      129.370759,
      36.406694
     ],
     [
      129.371904,
      36.406072
     ],
     [
      129.372389,
      36.405858
     ],
     [
      129.372633,
      36.4058
     ],
     [
      129.374106,
      36.40492
     ],
     [
      129.374371,
      36.40433
     ],
     [
      129.374277,
      36.404133
     ],
     [
      129.372263,
      36.401073
     ],
     [
      129.371928,
      36.400565
     ],
     [
      129.37096,
      36.398795
     ],
     [
      129.370662,
      36.397988
     ],
     [
      129.370495,
      36.397522
     ],
     [
      129.370292,
      36.396976
     ],
     [
      129.370159,
      36.395148
     ],
     [
      129.369927,
      36.392925
     ],
     [
      129.369669,
      36.390531
     ],
     [
      129.369573,
      36.389776
     ],
     [
      129.369473,
      36.38884
     ],
     [
      129.372998,
      36.383358
     ],
     [
      129.375922,
      36.377949
     ],
     [
      129.377834,
      36.374449
     ],
     [
      129.37912,
      36.370489
     ],
     [
      129.378336,
      36.368915
     ],
     [
      129.377205,
      36.3664
     ],
     [
      129.377051,
      36.365528
     ],
     [
      129.377428,
      36.363143
     ],
     [
      129.377757,
      36.362443
     ],
     [
      129.377537,
      36.362113
     ],
     [
      129.377761,
      36.361695
     ],
     [
      129.377816,
      36.360721
     ],
     [
      129.37799,
      36.360078
     ],
     [
      129.378178,
      36.35912
     ],
     [
      129.377524,
      36.358796
     ],
     [
      129.378132,
      36.358129
     ],
     [
      129.378389,
      36.357674
     ],
     [
      129.378012,
      36.356382
     ],
     [
      129.377912,
      36.355906
     ],
     [
      129.377804,
      36.355592
     ],
     [
      129.37765,
      36.352917
     ],
     [
      129.375957,
      36.351988
     ],
     [
      129.373087,
      36.352205
     ],
     [
      129.371976,
      36.352826
     ],
     [
      129.371712,
      36.352947
     ],
     [
      129.366487,
      36.35723
     ],
     [
      129.366,
      36.357805
     ],
     [
      129.357124,
      36.361837
     ],
     [
      129.356774,
      36.362113
     ],
     [
      129.351772,
      36.367807
     ],
     [
      129.349548,
      36.369446
     ],
     [
      129.309743,
      36.384721
     ],
     [
      129.309187,
      36.38528
     ],
     [
      129.305235,
      36.384041
     ],
     [
      129.302788,
      36.384772
     ],
     [
      129.303997,
      36.387413
     ],
     [
      129.306725,
      36.393988
     ],
     [
      129.304423,
      36.397142
     ],
     [
      129.300631,
      36.40341
     ],
     [
      129.295896,
      36.413243
     ],
     [
      129.292953,
      36.419147
     ],
     [
      129.28407,
      36.416936
     ],
     [
      129.283647,
      36.417492
     ],
     [
      129.281716,
      36.419838
     ],
     [
      129.281817,
      36.420386
     ],
     [
      129.2863,
      36.433984
     ],
     [
      129.287348,
      36.433951
     ],
     [
      129.288584,
      36.438241
     ],
     [
      129.289997,
      36.442447
     ],
     [
      129.282703,
      36.445946
     ],
     [
      129.281894,
      36.447634
     ],
     [
      129.282506,
      36.449013
     ],
     [
      129.282435,
      36.449339
     ],
     [
      129.282378,
      36.449763
     ],
     [
      129.282029,
      36.45012
     ],
     [
      129.279397,
      36.459949
     ],
     [
      129.279216,
      36.461772
     ],
     [
      129.280005,
      36.464573
     ],
     [
      129.279146,
      36.475799
     ]
    ]
   },
   "properties": {
    "leg": "ingress",
    "vehicle": 0,
    "seq": 0,
    "drive_node": 11835362669,
    "n_buildings": 5,
    "eta_min": 76.05,
    "abort_min": 168.0,
    "aborted_by_rule": false,
    "closing_min": 180.0
   }
  },
  {
   "type": "Feature",
   "geometry": {
    "type": "LineString",
    "coordinates": [
     [
      129.279146,
      36.475799
     ],
     [
      129.280005,
      36.464573
     ],
     [
      129.279216,
      36.461772
     ],
     [
      129.279397,
      36.459949
     ],
     [
      129.282029,
      36.45012
     ],
     [
      129.282378,
      36.449763
     ]
    ]
   },
   "properties": {
    "leg": "egress",
    "vehicle": 0,
    "seq": 0,
    "drive_node": 11835362669,
    "n_buildings": 5,
    "eta_min": 76.05,
    "abort_min": 168.0,
    "aborted_by_rule": false,
    "closing_min": 180.0
   }
  },
  {
   "type": "Feature",
   "geometry": {
    "type": "Point",
    "coordinates": [
     129.279148,
     36.475802
    ]
   },
   "properties": {
    "kind": "pickup",
    "vehicle": 0,
    "seq": 0,
    "drive_node": 11835362669,
    "n_buildings": 5,
    "eta_min": 76.05,
    "abort_min": 168.0
   }
  },
  {
   "type": "Feature",
   "geometry": {
    "type": "LineString",
    "coordinates": [
     [
      129.282378,
      36.449763
     ],
     [
      129.282435,
      36.449339
     ],
     [
      129.282506,
      36.449013
     ],
     [
      129.281894,
      36.447634
     ],
     [
      129.282703,
      36.445946
     ],
     [
      129.289997,
      36.442447
     ],
     [
      129.288584,
      36.438241
     ],
     [
      129.287348,
      36.433951
     ],
     [
      129.2863,
      36.433984
     ],
     [
      129.281817,
      36.420386
     ],
     [
      129.281716,
      36.419838
     ],
     [
      129.283647,
      36.417492
     ],
     [
      129.28407,
      36.416936
     ],
     [
      129.292953,
      36.419147
     ],
     [
      129.29782,
      36.422228
     ],
     [
      129.299716,
      36.42366
     ],
     [
      129.307281,
      36.430514
     ]
    ]
   },
   "properties": {
    "leg": "ingress",
    "vehicle": 0,
    "seq": 1,
    "drive_node": 436594488,
    "n_buildings": 3,
    "eta_min": 111.94,
    "abort_min": 168.0,
    "aborted_by_rule": false,
    "closing_min": 180.0
   }
  },
  {
   "type": "Feature",
   "geometry": {
    "type": "LineString",
    "coordinates": [
     [
      129.307281,
      36.430514
     ],
     [
      129.304641,
      36.430698
     ],
     [
      129.302663,
      36.431485
     ],
     [
      129.292566,
      36.438659
     ],
     [
      129.292178,
      36.439287
     ],
     [
      129.289997,
      36.442447
     ],
     [
      129.282703,
      36.445946
     ],
     [
      129.281894,
      36.447634
     ],
     [
      129.282506,
      36.449013
     ],
     [
      129.282897,
      36.449071
     ]
    ]
   },
   "properties": {
    "leg": "egress",
    "vehicle": 0,
    "seq": 1,
    "drive_node": 436594488,
    "n_buildings": 3,
    "eta_min": 111.94,
    "abort_min": 168.0,
    "aborted_by_rule": false,
    "closing_min": null
   }
  },
  {
   "type": "Feature",
   "geometry": {
    "type": "Point",
    "coordinates": [
     129.307275,
     36.430516
    ]
   },
   "properties": {
    "kind": "pickup",
    "vehicle": 0,
    "seq": 1,
    "drive_node": 436594488,
    "n_buildings": 3,
    "eta_min": 111.94,
    "abort_min": 168.0
   }
  },
  {
   "type": "Feature",
   "geometry": {
    "type": "LineString",
    "coordinates": [
     [
      129.282897,
      36.449071
     ],
     [
      129.282506,
      36.449013
     ],
     [
      129.281894,
      36.447634
     ],
     [
      129.282703,
      36.445946
     ],
     [
      129.289997,
      36.442447
     ],
     [
      129.292178,
      36.439287
     ],
     [
      129.292566,
      36.438659
     ],
     [
      129.302663,
      36.431485
     ],
     [
      129.304641,
      36.430698
     ],
     [
      129.307281,
      36.430514
     ],
     [
      129.322109,
      36.426863
     ],
     [
      129.326745,
      36.429523
     ],
     [
      129.326962,
      36.430214
     ],
     [
      129.327035,
      36.430465
     ],
     [
      129.331679,
      36.431124
     ],
     [
      129.34731,
      36.428891
     ],
     [
      129.350401,
      36.42988
     ],
     [
      129.351164,
      36.430562
     ],
     [
      129.353874,
      36.431467
     ],
     [
      129.355558,
      36.432378
     ],
     [
      129.35808,
      36.433835
     ],
     [
      129.362969,
      36.42881
     ],
     [
      129.362785,
      36.428588
     ],
     [
      129.362636,
      36.428437
     ],
     [
      129.361798,
      36.426971
     ],
     [
      129.3616,
      36.427083
     ],
     [
      129.361383,
      36.427357
     ],
     [
      129.361061,
      36.42738
     ],
     [
      129.359598,
      36.426393
     ],
     [
      129.364962,
      36.416998
     ],
     [
      129.365328,
      36.416938
     ],
     [
      129.365918,
      36.41737
     ],
     [
      129.366122,
      36.417007
     ],
     [
      129.366907,
      36.415805
     ],
     [
      129.367142,
      36.415837
     ],
     [
      129.367268,
      36.415997
     ],
     [
      129.367286,
      36.41579
     ],
     [
      129.367339,
      36.415203
     ],
     [
      129.367404,
      36.414679
     ],
     [
      129.367444,
      36.41448
     ],
     [
      129.368313,
      36.41443
     ],
     [
      129.369382,
      36.414387
     ],
     [
      129.370808,
      36.414319
     ],
     [
      129.371075,
      36.414297
     ],
     [
      129.371465,
      36.414273
     ],
     [
      129.371977,
      36.414247
     ],
     [
      129.373002,
      36.414204
     ],
     [
      129.373203,
      36.414219
     ],
     [
      129.37334,
      36.414343
     ],
     [
      129.373396,
      36.414324
     ],
     [
      129.373518,
      36.414331
     ],
     [
      129.373552,
      36.414339
     ],
     [
      129.373632,
      36.414419
     ],
     [
      129.373633,
      36.414446
     ],
     [
      129.373736,
      36.41458
     ],
     [
      129.374469,
      36.414902
     ],
     [
      129.377048,
      36.414095
     ],
     [
      129.377623,
      36.414339
     ],
     [
      129.377955,
      36.414694
     ],
     [
      129.37856,
      36.415297
     ],
     [
      129.378742,
      36.41543
     ],
     [
      129.379,
      36.41548
     ],
     [
      129.40591,
      36.390824
     ],
     [
      129.406354,
      36.390276
     ],
     [
      129.406789,
      36.389854
     ],
     [
      129.40755,
      36.389518
     ],
     [
      129.408605,
      36.390258
     ],
     [
      129.416502,
      36.397207
     ],
     [
      129.428016,
      36.408352
     ],
     [
      129.429328,
      36.40999
     ],
     [
      129.429615,
      36.410787
     ],
     [
      129.429643,
      36.411913
     ],
     [
      129.434768,
      36.427866
     ],
     [
      129.434127,
      36.428562
     ],
     [
      129.43324,
      36.435525
     ],
     [
      129.432585,
      36.437005
     ],
     [
      129.432369,
      36.440885
     ],
     [
      129.432533,
      36.441207
     ],
     [
      129.432601,
      36.446208
     ],
     [
      129.432627,
      36.446343
     ],
     [
      129.436023,
      36.46135
     ],
     [
      129.435072,
      36.466188
     ],
     [
      129.431987,
      36.474945
     ],
     [
      129.431914,
      36.475162
     ],
     [
      129.431919,
      36.475361
     ],
     [
      129.433443,
      36.48279
     ],
     [
      129.435077,
      36.484341
     ],
     [
      129.443123,
      36.490051
     ],
     [
      129.442938,
      36.492046
     ],
     [
      129.442876,
      36.493589
     ],
     [
      129.440066,
      36.496383
     ],
     [
      129.436327,
      36.497328
     ],
     [
      129.434477,
      36.498349
     ],
     [
      129.434295,
      36.498649
     ],
     [
      129.430037,
      36.503874
     ],
     [
      129.429699,
      36.504186
     ],
     [
      129.412544,
      36.504904
     ],
     [
      129.411621,
      36.504604
     ],
     [
      129.411555,
      36.504605
     ],
     [
      129.411432,
      36.504625
     ],
     [
      129.411287,
      36.504636
     ],
     [
      129.410594,
      36.505026
     ],
     [
      129.409636,
      36.5056
     ],
     [
      129.402577,
      36.520099
     ],
     [
      129.403638,
      36.52147
     ],
     [
      129.403723,
      36.521739
     ],
     [
      129.403462,
      36.521995
     ],
     [
      129.403333,
      36.522232
     ],
     [
      129.403282,
      36.522404
     ],
     [
      129.403241,
      36.522549
     ],
     [
      129.407753,
      36.528047
     ],
     [
      129.407174,
      36.530851
     ],
     [
      129.407168,
      36.5315
     ],
     [
      129.406017,
      36.532374
     ],
     [
      129.405644,
      36.53266
     ],
     [
      129.405634,
      36.532705
     ],
     [
      129.405627,
      36.532876
     ],
     [
      129.405678,
      36.533137
     ],
     [
      129.40592,
      36.53481
     ],
     [
      129.405996,
      36.535151
     ],
     [
      129.405908,
      36.535215
     ],
     [
      129.405556,
      36.535888
     ],
     [
      129.405646,
      36.536842
     ],
     [
      129.405718,
      36.537048
     ],
     [
      129.405668,
      36.537752
     ],
     [
      129.406279,
      36.538959
     ],
     [
      129.40656,
      36.539045
     ],
     [
      129.406099,
      36.539377
     ],
     [
      129.405392,
      36.539667
     ],
     [
      129.405776,
      36.540319
     ],
     [
      129.406312,
      36.541221
     ],
     [
      129.407595,
      36.543418
     ],
     [
      129.40743,
      36.543988
     ],
     [
      129.407338,
      36.544341
     ],
     [
      129.406743,
      36.549678
     ],
     [
      129.406728,
      36.549967
     ],
     [
      129.406723,
      36.550652
     ],
     [
      129.406725,
      36.550742
     ],
     [
      129.406732,
      36.551472
     ],
     [
      129.407005,
      36.554406
     ],
     [
      129.405988,
      36.556207
     ],
     [
      129.404874,
      36.557721
     ],
     [
      129.404206,
      36.558732
     ],
     [
      129.403626,
      36.55967
     ],
     [
      129.401735,
      36.562747
     ],
     [
      129.401627,
      36.562902
     ],
     [
      129.401552,
      36.563038
     ],
     [
      129.401402,
      36.563293
     ],
     [
      129.400422,
      36.567995
     ]
    ]
   },
   "properties": {
    "leg": "ingress",
    "vehicle": 0,
    "seq": 2,
    "drive_node": 436727457,
    "n_buildings": 2,
    "eta_min": 202.49,
    "abort_min": -12.0,
    "aborted_by_rule": true,
    "closing_min": 0.0
   }
  },
  {
   "type": "Feature",
   "geometry": {
    "type": "LineString",
    "coordinates": [
     [
      129.400422,
      36.567995
     ],
     [
      129.401402,
      36.563293
     ],
     [
      129.401552,
      36.563038
     ],
     [
      129.401627,
      36.562902
     ],
     [
      129.401735,
      36.562747
     ],
     [
      129.403626,
      36.55967
     ],
     [
      129.404206,
      36.558732
     ],
     [
      129.404874,
      36.557721
     ],
     [
      129.405988,
      36.556207
     ],
     [
      129.407005,
      36.554406
     ],
     [
      129.406732,
      36.551472
     ],
     [
      129.406725,
      36.550742
     ],
     [
      129.406723,
      36.550652
     ],
     [
      129.406728,
      36.549967
     ],
     [
      129.406743,
      36.549678
     ],
     [
      129.407338,
      36.544341
     ],
     [
      129.40743,
      36.543988
     ],
     [
      129.407595,
      36.543418
     ],
     [
      129.408226,
      36.541839
     ],
     [
      129.40845,
      36.541376
     ],
     [
      129.409999,
      36.540351
     ],
     [
      129.410077,
      36.540313
     ],
     [
      129.410885,
      36.54003
     ],
     [
      129.411009,
      36.540082
     ],
     [
      129.412299,
      36.540756
     ],
     [
      129.413489,
      36.540998
     ],
     [
      129.41504,
      36.541388
     ],
     [
      129.417932,
      36.540413
     ],
     [
      129.439677,
      36.530894
     ]
    ]
   },
   "properties": {
    "leg": "egress",
    "vehicle": 0,
    "seq": 2,
    "drive_node": 436727457,
    "n_buildings": 2,
    "eta_min": 202.49,
    "abort_min": -12.0,
    "aborted_by_rule": true,
    "closing_min": null
   }
  },
  {
   "type": "Feature",
   "geometry": {
    "type": "Point",
    "coordinates": [
     129.400421,
     36.567997
    ]
   },
   "properties": {
    "kind": "pickup",
    "vehicle": 0,
    "seq": 2,
    "drive_node": 436727457,
    "n_buildings": 2,
    "eta_min": 202.49,
    "abort_min": -12.0
   }
  },
  {
   "type": "Feature",
   "geometry": {
    "type": "LineString",
    "coordinates": [
     [
      129.439677,
      36.530894
     ],
     [
      129.417932,
      36.540413
     ],
     [
      129.41504,
      36.541388
     ],
     [
      129.413489,
      36.540998
     ],
     [
      129.412299,
      36.540756
     ],
     [
      129.411009,
      36.540082
     ],
     [
      129.410885,
      36.54003
     ],
     [
      129.41022,
      36.539788
     ],
     [
      129.409357,
      36.539685
     ],
     [
      129.409189,
      36.53967
     ],
     [
      129.409189,
      36.539643
     ],
     [
      129.409363,
      36.539478
     ],
     [
      129.409542,
      36.539006
     ],
     [
      129.409985,
      36.537944
     ],
     [
      129.410175,
      36.537491
     ],
     [
      129.409533,
      36.535905
     ],
     [
      129.408201,
      36.534458
     ],
     [
      129.406424,
      36.533504
     ],
     [
      129.405678,
      36.533137
     ],
     [
      129.405627,
      36.532876
     ],
     [
      129.405634,
      36.532705
     ],
     [
      129.405644,
      36.53266
     ],
     [
      129.406017,
      36.532374
     ],
     [
      129.407168,
      36.5315
     ],
     [
      129.407174,
      36.530851
     ],
     [
      129.407753,
      36.528047
     ],
     [
      129.403241,
      36.522549
     ],
     [
      129.403282,
      36.522404
     ],
     [
      129.403333,
      36.522232
     ],
     [
      129.403462,
      36.521995
     ],
     [
      129.403723,
      36.521739
     ],
     [
      129.40403,
      36.52149
     ],
     [
      129.404326,
      36.521251
     ],
     [
      129.404566,
      36.521031
     ],
     [
      129.404708,
      36.520903
     ],
     [
      129.403224,
      36.515023
     ],
     [
      129.405361,
      36.511581
     ],
     [
      129.4058,
      36.510781
     ],
     [
      129.407002,
      36.509275
     ],
     [
      129.408629,
      36.508221
     ],
     [
      129.408804,
      36.508101
     ],
     [
      129.409248,
      36.507526
     ],
     [
      129.410647,
      36.505385
     ],
     [
      129.410735,
      36.50533
     ],
     [
      129.410933,
      36.505209
     ],
     [
      129.411336,
      36.504779
     ],
     [
      129.411287,
      36.504636
     ],
     [
      129.411274,
      36.504537
     ],
     [
      129.411259,
      36.504402
     ],
     [
      129.411004,
      36.50401
     ],
     [
      129.411026,
      36.503558
     ],
     [
      129.410868,
      36.497134
     ]
    ]
   },
   "properties": {
    "leg": "ingress",
    "vehicle": 0,
    "seq": 3,
    "drive_node": 436738712,
    "n_buildings": 4,
    "eta_min": 246.83,
    "abort_min": null,
    "aborted_by_rule": false,
    "closing_min": null
   }
  },
  {
   "type": "Feature",
   "geometry": {
    "type": "LineString",
    "coordinates": [
     [
      129.410868,
      36.497134
     ],
     [
      129.411026,
      36.503558
     ],
     [
      129.411004,
      36.50401
     ],
     [
      129.411259,
      36.504402
     ],
     [
      129.411384,
      36.504499
     ],
     [
      129.411453,
      36.504552
     ],
     [
      129.411621,
      36.504604
     ],
     [
      129.412544,
      36.504904
     ],
     [
      129.429699,
      36.504186
     ],
     [
      129.430037,
      36.503874
     ],
     [
      129.434295,
      36.498649
     ],
     [
      129.434477,
      36.498349
     ],
     [
      129.436327,
      36.497328
     ],
     [
      129.440066,
      36.496383
     ],
     [
      129.442876,
      36.493589
     ],
     [
      129.442938,
      36.492046
     ],
     [
      129.443123,
      36.490051
     ]
    ]
   },
   "properties": {
    "leg": "egress",
    "vehicle": 0,
    "seq": 3,
    "drive_node": 436738712,
    "n_buildings": 4,
    "eta_min": 246.83,
    "abort_min": null,
    "aborted_by_rule": false,
    "closing_min": null
   }
  },
  {
   "type": "Feature",
   "geometry": {
    "type": "Point",
    "coordinates": [
     129.410864,
     36.497131
    ]
   },
   "properties": {
    "kind": "pickup",
    "vehicle": 0,
    "seq": 3,
    "drive_node": 436738712,
    "n_buildings": 4,
    "eta_min": 246.83,
    "abort_min": null
   }
  },
  {
   "type": "Feature",
   "geometry": {
    "type": "LineString",
    "coordinates": [
     [
      129.443123,
      36.490051
     ],
     [
      129.435077,
      36.484341
     ],
     [
      129.433443,
      36.48279
     ],
     [
      129.431919,
      36.475361
     ],
     [
      129.431914,
      36.475162
     ],
     [
      129.431987,
      36.474945
     ],
     [
      129.435072,
      36.466188
     ],
     [
      129.436023,
      36.46135
     ],
     [
      129.432627,
      36.446343
     ],
     [
      129.432601,
      36.446208
     ],
     [
      129.432533,
      36.441207
     ],
     [
      129.432369,
      36.440885
     ],
     [
      129.432585,
      36.437005
     ],
     [
      129.43324,
      36.435525
     ],
     [
      129.434127,
      36.428562
     ],
     [
      129.434768,
      36.427866
     ],
     [
      129.429643,
      36.411913
     ],
     [
      129.429615,
      36.410787
     ],
     [
      129.429328,
      36.40999
     ],
     [
      129.428016,
      36.408352
     ],
     [
      129.416502,
      36.397207
     ]
    ]
   },
   "properties": {
    "leg": "ingress",
    "vehicle": 0,
    "seq": 4,
    "drive_node": 436912612,
    "n_buildings": 62,
    "eta_min": 292.32,
    "abort_min": null,
    "aborted_by_rule": false,
    "closing_min": null
   }
  },
  {
   "type": "Feature",
   "geometry": {
    "type": "LineString",
    "coordinates": [
     [
      129.416502,
      36.397207
     ],
     [
      129.408605,
      36.390258
     ],
     [
      129.40755,
      36.389518
     ]
    ]
   },
   "properties": {
    "leg": "egress",
    "vehicle": 0,
    "seq": 4,
    "drive_node": 436912612,
    "n_buildings": 62,
    "eta_min": 292.32,
    "abort_min": null,
    "aborted_by_rule": false,
    "closing_min": null
   }
  },
  {
   "type": "Feature",
   "geometry": {
    "type": "Point",
    "coordinates": [
     129.416504,
     36.397207
    ]
   },
   "properties": {
    "kind": "pickup",
    "vehicle": 0,
    "seq": 4,
    "drive_node": 436912612,
    "n_buildings": 62,
    "eta_min": 292.32,
    "abort_min": null
   }
  },
  {
   "type": "Feature",
   "geometry": {
    "type": "LineString",
    "coordinates": [
     [
      129.40755,
      36.389518
     ],
     [
      129.408605,
      36.390258
     ],
     [
      129.416502,
      36.397207
     ],
     [
      129.428016,
      36.408352
     ],
     [
      129.429328,
      36.40999
     ],
     [
      129.429615,
      36.410787
     ],
     [
      129.429643,
      36.411913
     ],
     [
      129.434768,
      36.427866
     ],
     [
      129.434127,
      36.428562
     ],
     [
      129.43324,
      36.435525
     ],
     [
      129.432585,
      36.437005
     ],
     [
      129.432369,
      36.440885
     ],
     [
      129.432533,
      36.441207
     ],
     [
      129.432601,
      36.446208
     ],
     [
      129.432627,
      36.446343
     ],
     [
      129.436023,
      36.46135
     ],
     [
      129.435072,
      36.466188
     ],
     [
      129.431987,
      36.474945
     ],
     [
      129.431914,
      36.475162
     ],
     [
      129.431919,
      36.475361
     ],
     [
      129.433443,
      36.48279
     ],
     [
      129.435077,
      36.484341
     ],
     [
      129.443123,
      36.490051
     ],
     [
      129.442938,
      36.492046
     ],
     [
      129.442876,
      36.493589
     ],
     [
      129.440066,
      36.496383
     ],
     [
      129.436327,
      36.497328
     ],
     [
      129.434477,
      36.498349
     ],
     [
      129.434295,
      36.498649
     ],
     [
      129.430037,
      36.503874
     ],
     [
      129.429699,
      36.504186
     ],
     [
      129.412544,
      36.504904
     ],
     [
      129.411621,
      36.504604
     ],
     [
      129.411555,
      36.504605
     ],
     [
      129.411367,
      36.504707
     ],
     [
      129.411336,
      36.504779
     ],
     [
      129.410933,
      36.505209
     ],
     [
      129.410545,
      36.505793
     ],
     [
      129.410187,
      36.507565
     ],
     [
      129.412959,
      36.507692
     ]
    ]
   },
   "properties": {
    "leg": "ingress",
    "vehicle": 0,
    "seq": 5,
    "drive_node": 436913211,
    "n_buildings": 10,
    "eta_min": 341.4,
    "abort_min": null,
    "aborted_by_rule": false,
    "closing_min": null
   }
  },
  {
   "type": "Feature",
   "geometry": {
    "type": "LineString",
    "coordinates": [
     [
      129.412959,
      36.507692
     ],
     [
      129.410187,
      36.507565
     ],
     [
      129.410545,
      36.505793
     ],
     [
      129.410933,
      36.505209
     ],
     [
      129.411336,
      36.504779
     ],
     [
      129.411367,
      36.504707
     ],
     [
      129.411555,
      36.504605
     ],
     [
      129.411621,
      36.504604
     ],
     [
      129.412544,
      36.504904
     ],
     [
      129.429699,
      36.504186
     ],
     [
      129.430037,
      36.503874
     ],
     [
      129.434295,
      36.498649
     ],
     [
      129.434477,
      36.498349
     ],
     [
      129.436327,
      36.497328
     ],
     [
      129.440066,
      36.496383
     ],
     [
      129.442876,
      36.493589
     ],
     [
      129.442938,
      36.492046
     ],
     [
      129.443123,
      36.490051
     ]
    ]
   },
   "properties": {
    "leg": "egress",
    "vehicle": 0,
    "seq": 5,
    "drive_node": 436913211,
    "n_buildings": 10,
    "eta_min": 341.4,
    "abort_min": null,
    "aborted_by_rule": false,
    "closing_min": null
   }
  },
  {
   "type": "Feature",
   "geometry": {
    "type": "Point",
    "coordinates": [
     129.412957,
     36.507693
    ]
   },
   "properties": {
    "kind": "pickup",
    "vehicle": 0,
    "seq": 5,
    "drive_node": 436913211,
    "n_buildings": 10,
    "eta_min": 341.4,
    "abort_min": null
   }
  },
  {
   "type": "Feature",
   "geometry": {
    "type": "LineString",
    "coordinates": [
     [
      129.443123,
      36.490051
     ],
     [
      129.435077,
      36.484341
     ],
     [
      129.433443,
      36.48279
     ],
     [
      129.431919,
      36.475361
     ],
     [
      129.431914,
      36.475162
     ],
     [
      129.431987,
      36.474945
     ],
     [
      129.435072,
      36.466188
     ],
     [
      129.436023,
      36.46135
     ],
     [
      129.432627,
      36.446343
     ],
     [
      129.432601,
      36.446208
     ],
     [
      129.432533,
      36.441207
     ],
     [
      129.432369,
      36.440885
     ],
     [
      129.432585,
      36.437005
     ],
     [
      129.43324,
      36.435525
     ],
     [
      129.434127,
      36.428562
     ],
     [
      129.434768,
      36.427866
     ],
     [
      129.429643,
      36.411913
     ],
     [
      129.429615,
      36.410787
     ],
     [
      129.429328,
      36.40999
     ],
     [
      129.428016,
      36.408352
     ],
     [
      129.416502,
      36.397207
     ],
     [
      129.408605,
      36.390258
     ],
     [
      129.40755,
      36.389518
     ],
     [
      129.406985,
      36.389184
     ],
     [
      129.403357,
      36.37847
     ],
     [
      129.394116,
      36.36561
     ],
     [
      129.385614,
      36.359228
     ],
     [
      129.384764,
      36.358646
     ],
     [
      129.384156,
      36.358367
     ],
     [
      129.383634,
      36.358439
     ],
     [
      129.382483,
      36.358781
     ],
     [
      129.382133,
      36.359508
     ],
     [
      129.382157,
      36.360499
     ],
     [
      129.379158,
      36.359997
     ],
     [
      129.379058,
      36.359998
     ],
     [
      129.380271,
      36.357644
     ],
     [
      129.380335,
      36.357499
     ],
     [
      129.380567,
      36.356973
     ],
     [
      129.379586,
      36.355537
     ],
     [
      129.379552,
      36.355528
     ],
     [
      129.378726,
      36.355496
     ],
     [
      129.378182,
      36.355541
     ],
     [
      129.377804,
      36.355592
     ],
     [
      129.37765,
      36.352917
     ],
     [
      129.375957,
      36.351988
     ],
     [
      129.373087,
      36.352205
     ],
     [
      129.371976,
      36.352826
     ],
     [
      129.371712,
      36.352947
     ],
     [
      129.366487,
      36.35723
     ],
     [
      129.366,
      36.357805
     ],
     [
      129.357124,
      36.361837
     ],
     [
      129.356774,
      36.362113
     ],
     [
      129.351772,
      36.367807
     ],
     [
      129.349548,
      36.369446
     ],
     [
      129.309743,
      36.384721
     ],
     [
      129.309187,
      36.38528
     ],
     [
      129.305235,
      36.384041
     ],
     [
      129.302788,
      36.384772
     ],
     [
      129.303997,
      36.387413
     ],
     [
      129.306725,
      36.393988
     ],
     [
      129.304423,
      36.397142
     ],
     [
      129.300631,
      36.40341
     ],
     [
      129.295896,
      36.413243
     ],
     [
      129.292953,
      36.419147
     ],
     [
      129.29782,
      36.422228
     ],
     [
      129.299716,
      36.42366
     ]
    ]
   },
   "properties": {
    "leg": "ingress",
    "vehicle": 0,
    "seq": 6,
    "drive_node": 437092502,
    "n_buildings": 9,
    "eta_min": 420.02,
    "abort_min": null,
    "aborted_by_rule": false,
    "closing_min": null
   }
  },
  {
   "type": "Feature",
   "geometry": {
    "type": "LineString",
    "coordinates": [
     [
      129.299716,
      36.42366
     ],
     [
      129.307281,
      36.430514
     ],
     [
      129.304641,
      36.430698
     ],
     [
      129.302663,
      36.431485
     ],
     [
      129.292566,
      36.438659
     ],
     [
      129.292178,
      36.439287
     ],
     [
      129.289997,
      36.442447
     ],
     [
      129.282703,
      36.445946
     ],
     [
      129.281894,
      36.447634
     ],
     [
      129.282506,
      36.449013
     ],
     [
      129.282897,
      36.449071
     ]
    ]
   },
   "properties": {
    "leg": "egress",
    "vehicle": 0,
    "seq": 6,
    "drive_node": 437092502,
    "n_buildings": 9,
    "eta_min": 420.02,
    "abort_min": null,
    "aborted_by_rule": false,
    "closing_min": null
   }
  },
  {
   "type": "Feature",
   "geometry": {
    "type": "Point",
    "coordinates": [
     129.29972,
     36.423662
    ]
   },
   "properties": {
    "kind": "pickup",
    "vehicle": 0,
    "seq": 6,
    "drive_node": 437092502,
    "n_buildings": 9,
    "eta_min": 420.02,
    "abort_min": null
   }
  },
  {
   "type": "Feature",
   "geometry": {
    "type": "LineString",
    "coordinates": [
     [
      129.282897,
      36.449071
     ],
     [
      129.282506,
      36.449013
     ],
     [
      129.281894,
      36.447634
     ],
     [
      129.282703,
      36.445946
     ],
     [
      129.289997,
      36.442447
     ],
     [
      129.292178,
      36.439287
     ],
     [
      129.292566,
      36.438659
     ],
     [
      129.302663,
      36.431485
     ],
     [
      129.304641,
      36.430698
     ],
     [
      129.307281,
      36.430514
     ],
     [
      129.299716,
      36.42366
     ],
     [
      129.29782,
      36.422228
     ],
     [
      129.292953,
      36.419147
     ],
     [
      129.28407,
      36.416936
     ]
    ]
   },
   "properties": {
    "leg": "ingress",
    "vehicle": 0,
    "seq": 7,
    "drive_node": 437251404,
    "n_buildings": 1,
    "eta_min": 455.63,
    "abort_min": null,
    "aborted_by_rule": false,
    "closing_min": null
   }
  },
  {
   "type": "Feature",
   "geometry": {
    "type": "LineString",
    "coordinates": [
     [
      129.28407,
      36.416936
     ],
     [
      129.292953,
      36.419147
     ],
     [
      129.29782,
      36.422228
     ],
     [
      129.299716,
      36.42366
     ],
     [
      129.307281,
      36.430514
     ],
     [
      129.304641,
      36.430698
     ],
     [
      129.302663,
      36.431485
     ],
     [
      129.292566,
      36.438659
     ],
     [
      129.292178,
      36.439287
     ],
     [
      129.289997,
      36.442447
     ],
     [
      129.282703,
      36.445946
     ],
     [
      129.281894,
      36.447634
     ],
     [
      129.282506,
      36.449013
     ],
     [
      129.282897,
      36.449071
     ]
    ]
   },
   "properties": {
    "leg": "egress",
    "vehicle": 0,
    "seq": 7,
    "drive_node": 437251404,
    "n_buildings": 1,
    "eta_min": 455.63,
    "abort_min": null,
    "aborted_by_rule": false,
    "closing_min": null
   }
  },
  {
   "type": "Feature",
   "geometry": {
    "type": "Point",
    "coordinates": [
     129.28407,
     36.416938
    ]
   },
   "properties": {
    "kind": "pickup",
    "vehicle": 0,
    "seq": 7,
    "drive_node": 437251404,
    "n_buildings": 1,
    "eta_min": 455.63,
    "abort_min": null
   }
  },
  {
   "type": "Feature",
   "geometry": {
    "type": "LineString",
    "coordinates": [
     [
      129.282897,
      36.449071
     ],
     [
      129.282506,
      36.449013
     ],
     [
      129.281894,
      36.447634
     ],
     [
      129.282703,
      36.445946
     ],
     [
      129.289997,
      36.442447
     ],
     [
      129.292178,
      36.439287
     ],
     [
      129.292566,
      36.438659
     ],
     [
      129.302663,
      36.431485
     ],
     [
      129.304641,
      36.430698
     ],
     [
      129.307281,
      36.430514
     ],
     [
      129.322109,
      36.426863
     ],
     [
      129.326745,
      36.429523
     ],
     [
      129.326962,
      36.430214
     ],
     [
      129.327035,
      36.430465
     ],
     [
      129.331679,
      36.431124
     ],
     [
      129.34731,
      36.428891
     ],
     [
      129.350401,
      36.42988
     ],
     [
      129.351164,
      36.430562
     ],
     [
      129.353874,
      36.431467
     ],
     [
      129.355558,
      36.432378
     ],
     [
      129.35808,
      36.433835
     ],
     [
      129.362969,
      36.42881
     ],
     [
      129.362785,
      36.428588
     ],
     [
      129.362636,
      36.428437
     ],
     [
      129.361798,
      36.426971
     ],
     [
      129.3616,
      36.427083
     ],
     [
      129.361383,
      36.427357
     ],
     [
      129.361061,
      36.42738
     ],
     [
      129.359598,
      36.426393
     ],
     [
      129.364962,
      36.416998
     ],
     [
      129.365328,
      36.416938
     ],
     [
      129.365918,
      36.41737
     ],
     [
      129.366122,
      36.417007
     ],
     [
      129.366907,
      36.415805
     ],
     [
      129.367142,
      36.415837
     ],
     [
      129.367268,
      36.415997
     ],
     [
      129.367286,
      36.41579
     ],
     [
      129.367339,
      36.415203
     ],
     [
      129.367404,
      36.414679
     ],
     [
      129.367444,
      36.41448
     ],
     [
      129.368313,
      36.41443
     ],
     [
      129.369382,
      36.414387
     ],
     [
      129.370808,
      36.414319
     ],
     [
      129.371075,
      36.414297
     ],
     [
      129.371465,
      36.414273
     ],
     [
      129.371977,
      36.414247
     ],
     [
      129.373002,
      36.414204
     ],
     [
      129.373203,
      36.414219
     ],
     [
      129.37334,
      36.414343
     ],
     [
      129.373396,
      36.414324
     ],
     [
      129.373518,
      36.414331
     ],
     [
      129.373552,
      36.414339
     ],
     [
      129.373632,
      36.414419
     ],
     [
      129.373633,
      36.414446
     ],
     [
      129.373736,
      36.41458
     ],
     [
      129.374469,
      36.414902
     ],
     [
      129.377048,
      36.414095
     ],
     [
      129.377623,
      36.414339
     ],
     [
      129.377752,
      36.415076
     ],
     [
      129.377341,
      36.417471
     ],
     [
      129.390199,
      36.439965
     ],
     [
      129.391298,
      36.441579
     ],
     [
      129.386708,
      36.46534
     ],
     [
      129.394249,
      36.47482
     ],
     [
      129.393875,
      36.47689
     ],
     [
      129.389332,
      36.489762
     ],
     [
      129.391165,
      36.491661
     ],
     [
      129.391539,
      36.491899
     ],
     [
      129.389143,
      36.504006
     ],
     [
      129.389559,
      36.506442
     ],
     [
      129.390736,
      36.508001
     ],
     [
      129.399619,
      36.508275
     ],
     [
      129.401756,
      36.508448
     ],
     [
      129.407002,
      36.509275
     ],
     [
      129.4058,
      36.510781
     ],
     [
      129.405361,
      36.511581
     ],
     [
      129.403224,
      36.515023
     ],
     [
      129.401672,
      36.515507
     ],
     [
      129.401337,
      36.518703
     ],
     [
      129.401766,
      36.519778
     ],
     [
      129.404326,
      36.521251
     ],
     [
      129.40403,
      36.52149
     ],
     [
      129.403723,
      36.521739
     ],
     [
      129.403462,
      36.521995
     ],
     [
      129.403333,
      36.522232
     ],
     [
      129.403282,
      36.522404
     ],
     [
      129.403241,
      36.522549
     ],
     [
      129.407753,
      36.528047
     ],
     [
      129.407174,
      36.530851
     ],
     [
      129.407168,
      36.5315
     ],
     [
      129.406017,
      36.532374
     ],
     [
      129.405644,
      36.53266
     ],
     [
      129.405634,
      36.532705
     ],
     [
      129.405627,
      36.532876
     ],
     [
      129.405678,
      36.533137
     ],
     [
      129.40592,
      36.53481
     ],
     [
      129.405362,
      36.534809
     ],
     [
      129.404702,
      36.534793
     ],
     [
      129.404579,
      36.534795
     ],
     [
      129.40435,
      36.536836
     ],
     [
      129.404241,
      36.537829
     ],
     [
      129.404197,
      36.538316
     ],
     [
      129.403509,
      36.538039
     ],
     [
      129.403311,
      36.540476
     ],
     [
      129.402879,
      36.540609
     ],
     [
      129.397966,
      36.542066
     ],
     [
      129.397444,
      36.542201
     ],
     [
      129.397322,
      36.542212
     ],
     [
      129.396831,
      36.542238
     ],
     [
      129.39644,
      36.542235
     ],
     [
      129.396026,
      36.542223
     ],
     [
      129.395635,
      36.542212
     ],
     [
      129.395244,
      36.542191
     ],
     [
      129.38413,
      36.542682
     ],
     [
      129.38376,
      36.542652
     ],
     [
      129.38106,
      36.542307
     ],
     [
      129.380833,
      36.542185
     ],
     [
      129.38042,
      36.542182
     ],
     [
      129.380162,
      36.544908
     ],
     [
      129.375161,
      36.552928
     ],
     [
      129.374463,
      36.552678
     ],
     [
      129.372986,
      36.552142
     ],
     [
      129.372006,
      36.551806
     ],
     [
      129.370235,
      36.551104
     ],
     [
      129.369444,
      36.550728
     ],
     [
      129.367772,
      36.549952
     ],
     [
      129.36549,
      36.548879
     ],
     [
      129.360096,
      36.546197
     ],
     [
      129.348946,
      36.546604
     ],
     [
      129.348368,
      36.546703
     ],
     [
      129.347201,
      36.546956
     ],
     [
      129.347459,
      36.546069
     ],
     [
      129.346615,
      36.546307
     ],
     [
      129.339566,
      36.547218
     ],
     [
      129.338513,
      36.547135
     ],
     [
      129.321515,
      36.554472
     ]
    ]
   },
   "properties": {
    "leg": "ingress",
    "vehicle": 0,
    "seq": 8,
    "drive_node": 437261791,
    "n_buildings": 6,
    "eta_min": 545.86,
    "abort_min": -12.0,
    "aborted_by_rule": true,
    "closing_min": 0.0
   }
  },
  {
   "type": "Feature",
   "geometry": {
    "type": "LineString",
    "coordinates": [
     [
      129.321515,
      36.554472
     ],
     [
      129.338513,
      36.547135
     ],
     [
      129.339566,
      36.547218
     ],
     [
      129.346615,
      36.546307
     ],
     [
      129.347459,
      36.546069
     ],
     [
      129.347823,
      36.545892
     ],
     [
      129.348368,
      36.546703
     ],
     [
      129.348946,
      36.546604
     ],
     [
      129.360096,
      36.546197
     ],
     [
      129.36549,
      36.548879
     ],
     [
      129.367772,
      36.549952
     ],
     [
      129.369444,
      36.550728
     ],
     [
      129.370235,
      36.551104
     ],
     [
      129.372006,
      36.551806
     ],
     [
      129.372986,
      36.552142
     ],
     [
      129.374463,
      36.552678
     ],
     [
      129.375161,
      36.552928
     ],
     [
      129.380162,
      36.544908
     ],
     [
      129.38042,
      36.542182
     ],
     [
      129.380833,
      36.542185
     ],
     [
      129.38106,
      36.542307
     ],
     [
      129.38376,
      36.542652
     ],
     [
      129.38413,
      36.542682
     ],
     [
      129.395244,
      36.542191
     ],
     [
      129.395635,
      36.542212
     ],
     [
      129.396026,
      36.542223
     ],
     [
      129.39644,
      36.542235
     ],
     [
      129.396831,
      36.542238
     ],
     [
      129.397322,
      36.542212
     ],
     [
      129.397444,
      36.542201
     ],
     [
      129.397966,
      36.542066
     ],
     [
      129.402879,
      36.540609
     ],
     [
      129.403311,
      36.540476
     ],
     [
      129.403434,
      36.540447
     ],
     [
      129.403838,
      36.540521
     ],
     [
      129.40394,
      36.540583
     ],
     [
      129.404084,
      36.540563
     ],
     [
      129.404117,
      36.540544
     ],
     [
      129.404193,
      36.540444
     ],
     [
      129.404443,
      36.540629
     ],
     [
      129.40477,
      36.540723
     ],
     [
      129.406312,
      36.541221
     ],
     [
      129.406492,
      36.541272
     ],
     [
      129.406582,
      36.541307
     ],
     [
      129.40737,
      36.541556
     ],
     [
      129.408226,
      36.541839
     ],
     [
      129.40845,
      36.541376
     ],
     [
      129.409999,
      36.540351
     ],
     [
      129.410077,
      36.540313
     ],
     [
      129.410885,
      36.54003
     ],
     [
      129.411009,
      36.540082
     ],
     [
      129.412299,
      36.540756
     ],
     [
      129.413489,
      36.540998
     ],
     [
      129.41504,
      36.541388
     ],
     [
      129.417932,
      36.540413
     ],
     [
      129.439677,
      36.530894
     ]
    ]
   },
   "properties": {
    "leg": "egress",
    "vehicle": 0,
    "seq": 8,
    "drive_node": 437261791,
    "n_buildings": 6,
    "eta_min": 545.86,
    "abort_min": -12.0,
    "aborted_by_rule": true,
    "closing_min": null
   }
  },
  {
   "type": "Feature",
   "geometry": {
    "type": "Point",
    "coordinates": [
     129.321515,
     36.554468
    ]
   },
   "properties": {
    "kind": "pickup",
    "vehicle": 0,
    "seq": 8,
    "drive_node": 437261791,
    "n_buildings": 6,
    "eta_min": 545.86,
    "abort_min": -12.0
   }
  },
  {
   "type": "Feature",
   "geometry": {
    "type": "LineString",
    "coordinates": [
     [
      129.439677,
      36.530894
     ],
     [
      129.443775,
      36.511664
     ],
     [
      129.44388,
      36.511383
     ],
     [
      129.444322,
      36.510772
     ],
     [
      129.442926,
      36.508523
     ],
     [
      129.443176,
      36.507789
     ],
     [
      129.44228,
      36.506821
     ],
     [
      129.442158,
      36.505949
     ],
     [
      129.442044,
      36.504959
     ],
     [
      129.440066,
      36.496383
     ],
     [
      129.442876,
      36.493589
     ],
     [
      129.442938,
      36.492046
     ],
     [
      129.443123,
      36.490051
     ],
     [
      129.435077,
      36.484341
     ],
     [
      129.433443,
      36.48279
     ],
     [
      129.431919,
      36.475361
     ],
     [
      129.431914,
      36.475162
     ],
     [
      129.431987,
      36.474945
     ],
     [
      129.435072,
      36.466188
     ],
     [
      129.436023,
      36.46135
     ],
     [
      129.432627,
      36.446343
     ],
     [
      129.432601,
      36.446208
     ],
     [
      129.432533,
      36.441207
     ],
     [
      129.432369,
      36.440885
     ],
     [
      129.432585,
      36.437005
     ],
     [
      129.43324,
      36.435525
     ],
     [
      129.434127,
      36.428562
     ],
     [
      129.434768,
      36.427866
     ],
     [
      129.429643,
      36.411913
     ],
     [
      129.429615,
      36.410787
     ],
     [
      129.429328,
      36.40999
     ],
     [
      129.428016,
      36.408352
     ],
     [
      129.416502,
      36.397207
     ],
     [
      129.408605,
      36.390258
     ],
     [
      129.40755,
      36.389518
     ],
     [
      129.406985,
      36.389184
     ],
     [
      129.403357,
      36.37847
     ],
     [
      129.394116,
      36.36561
     ],
     [
      129.385614,
      36.359228
     ],
     [
      129.384764,
      36.358646
     ],
     [
      129.384156,
      36.358367
     ],
     [
      129.383634,
      36.358439
     ],
     [
      129.382483,
      36.358781
     ],
     [
      129.382133,
      36.359508
     ],
     [
      129.382157,
      36.360499
     ],
     [
      129.379158,
      36.359997
     ],
     [
      129.380382,
      36.357625
     ],
     [
      129.380425,
      36.357552
     ],
     [
      129.380668,
      36.356989
     ],
     [
      129.380227,
      36.35486
     ],
     [
      129.379699,
      36.354219
     ],
     [
      129.378603,
      36.351298
     ],
     [
      129.38153,
      36.34606
     ],
     [
      129.381575,
      36.345617
     ],
     [
      129.381572,
      36.345482
     ],
     [
      129.381575,
      36.34514
     ],
     [
      129.381328,
      36.341349
     ],
     [
      129.381408,
      36.339103
     ],
     [
      129.381258,
      36.337978
     ],
     [
      129.380801,
      36.336588
     ],
     [
      129.37832,
      36.330714
     ]
    ]
   },
   "properties": {
    "leg": "ingress",
    "vehicle": 0,
    "seq": 9,
    "drive_node": 2486660204,
    "n_buildings": 4,
    "eta_min": 626.65,
    "abort_min": null,
    "aborted_by_rule": false,
    "closing_min": null
   }
  },
  {
   "type": "Feature",
   "geometry": {
    "type": "LineString",
    "coordinates": [
     [
      129.37832,
      36.330714
     ],
     [
      129.380801,
      36.336588
     ],
     [
      129.381258,
      36.337978
     ],
     [
      129.381408,
      36.339103
     ],
     [
      129.381328,
      36.341349
     ],
     [
      129.381575,
      36.34514
     ],
     [
      129.381572,
      36.345482
     ],
     [
      129.382319,
      36.345497
     ],
     [
      129.384829,
      36.347928
     ]
    ]
   },
   "properties": {
    "leg": "egress",
    "vehicle": 0,
    "seq": 9,
    "drive_node": 2486660204,
    "n_buildings": 4,
    "eta_min": 626.65,
    "abort_min": null,
    "aborted_by_rule": false,
    "closing_min": null
   }
  },
  {
   "type": "Feature",
   "geometry": {
    "type": "Point",
    "coordinates": [
     129.378316,
     36.330711
    ]
   },
   "properties": {
    "kind": "pickup",
    "vehicle": 0,
    "seq": 9,
    "drive_node": 2486660204,
    "n_buildings": 4,
    "eta_min": 626.65,
    "abort_min": null
   }
  },
  {
   "type": "Feature",
   "geometry": {
    "type": "LineString",
    "coordinates": [
     [
      129.384829,
      36.347928
     ],
     [
      129.384595,
      36.347913
     ],
     [
      129.384817,
      36.347441
     ],
     [
      129.383303,
      36.347474
     ],
     [
      129.382194,
      36.345851
     ],
     [
      129.381627,
      36.345905
     ],
     [
      129.38153,
      36.34606
     ],
     [
      129.378603,
      36.351298
     ],
     [
      129.379699,
      36.354219
     ],
     [
      129.380227,
      36.35486
     ],
     [
      129.380668,
      36.356989
     ],
     [
      129.380425,
      36.357552
     ],
     [
      129.380382,
      36.357625
     ],
     [
      129.379158,
      36.359997
     ],
     [
      129.382157,
      36.360499
     ],
     [
      129.382358,
      36.361902
     ],
     [
      129.38404,
      36.365103
     ],
     [
      129.384579,
      36.366681
     ],
     [
      129.385056,
      36.372099
     ],
     [
      129.384729,
      36.373817
     ],
     [
      129.384639,
      36.374242
     ],
     [
      129.384097,
      36.37718
     ],
     [
      129.383704,
      36.378917
     ],
     [
      129.382159,
      36.385107
     ],
     [
      129.381805,
      36.386131
     ],
     [
      129.38137,
      36.387067
     ],
     [
      129.381338,
      36.387139
     ],
     [
      129.38054,
      36.389153
     ],
     [
      129.379846,
      36.390903
     ],
     [
      129.377639,
      36.395085
     ],
     [
      129.377479,
      36.395394
     ],
     [
      129.377301,
      36.395883
     ],
     [
      129.3767,
      36.402878
     ],
     [
      129.374985,
      36.404348
     ],
     [
      129.374864,
      36.404422
     ],
     [
      129.374643,
      36.404515
     ],
     [
      129.374598,
      36.404507
     ],
     [
      129.374444,
      36.404572
     ],
     [
      129.374433,
      36.404609
     ],
     [
      129.374238,
      36.404846
     ],
     [
      129.374106,
      36.40492
     ],
     [
      129.372633,
      36.4058
     ],
     [
      129.372389,
      36.405858
     ],
     [
      129.371904,
      36.406072
     ],
     [
      129.370916,
      36.408567
     ],
     [
      129.371004,
      36.409007
     ],
     [
      129.371427,
      36.410362
     ],
     [
      129.371563,
      36.411396
     ],
     [
      129.37282,
      36.411268
     ],
     [
      129.374488,
      36.411963
     ],
     [
      129.376461,
      36.413347
     ],
     [
      129.377128,
      36.413697
     ],
     [
      129.3773,
      36.413911
     ],
     [
      129.377623,
      36.414339
     ],
     [
      129.377955,
      36.414694
     ],
     [
      129.37856,
      36.415297
     ],
     [
      129.377483,
      36.417324
     ]
    ]
   },
   "properties": {
    "leg": "ingress",
    "vehicle": 0,
    "seq": 10,
    "drive_node": 2828250453,
    "n_buildings": 4,
    "eta_min": 664.69,
    "abort_min": null,
    "aborted_by_rule": false,
    "closing_min": null
   }
  },
  {
   "type": "Feature",
   "geometry": {
    "type": "LineString",
    "coordinates": [
     [
      129.377483,
      36.417324
     ],
     [
      129.37856,
      36.415297
     ],
     [
      129.377955,
      36.414694
     ],
     [
      129.377623,
      36.414339
     ],
     [
      129.3773,
      36.413911
     ],
     [
      129.377128,
      36.413697
     ],
     [
      129.376818,
      36.413351
     ]
    ]
   },
   "properties": {
    "leg": "egress",
    "vehicle": 0,
    "seq": 10,
    "drive_node": 2828250453,
    "n_buildings": 4,
    "eta_min": 664.69,
    "abort_min": null,
    "aborted_by_rule": false,
    "closing_min": null
   }
  },
  {
   "type": "Feature",
   "geometry": {
    "type": "Point",
    "coordinates": [
     129.377478,
     36.417323
    ]
   },
   "properties": {
    "kind": "pickup",
    "vehicle": 0,
    "seq": 10,
    "drive_node": 2828250453,
    "n_buildings": 4,
    "eta_min": 664.69,
    "abort_min": null
   }
  },
  {
   "type": "Feature",
   "geometry": {
    "type": "LineString",
    "coordinates": [
     [
      129.376818,
      36.413351
     ],
     [
      129.376461,
      36.413347
     ],
     [
      129.374488,
      36.411963
     ],
     [
      129.37282,
      36.411268
     ],
     [
      129.371563,
      36.411396
     ],
     [
      129.371618,
      36.412297
     ],
     [
      129.371754,
      36.413286
     ],
     [
      129.371977,
      36.414247
     ]
    ]
   },
   "properties": {
    "leg": "ingress",
    "vehicle": 0,
    "seq": 11,
    "drive_node": 4137870256,
    "n_buildings": 3,
    "eta_min": 686.79,
    "abort_min": null,
    "aborted_by_rule": false,
    "closing_min": null
   }
  },
  {
   "type": "Feature",
   "geometry": {
    "type": "LineString",
    "coordinates": [
     [
      129.371977,
      36.414247
     ],
     [
      129.371465,
      36.414273
     ],
     [
      129.371075,
      36.414297
     ],
     [
      129.370808,
      36.414319
     ],
     [
      129.371154,
      36.416189
     ],
     [
      129.367366,
      36.417726
     ]
    ]
   },
   "properties": {
    "leg": "egress",
    "vehicle": 0,
    "seq": 11,
    "drive_node": 4137870256,
    "n_buildings": 3,
    "eta_min": 686.79,
    "abort_min": null,
    "aborted_by_rule": false,
    "closing_min": null
   }
  },
  {
   "type": "Feature",
   "geometry": {
    "type": "Point",
    "coordinates": [
     129.371982,
     36.414251
    ]
   },
   "properties": {
    "kind": "pickup",
    "vehicle": 0,
    "seq": 11,
    "drive_node": 4137870256,
    "n_buildings": 3,
    "eta_min": 686.79,
    "abort_min": null
   }
  },
  {
   "type": "Feature",
   "geometry": {
    "type": "LineString",
    "coordinates": [
     [
      129.367366,
      36.417726
     ],
     [
      129.36705,
      36.417569
     ],
     [
      129.367098,
      36.417271
     ]
    ]
   },
   "properties": {
    "leg": "ingress",
    "vehicle": 0,
    "seq": 12,
    "drive_node": 11976157230,
    "n_buildings": 3,
    "eta_min": 707.94,
    "abort_min": null,
    "aborted_by_rule": false,
    "closing_min": null
   }
  },
  {
   "type": "Feature",
   "geometry": {
    "type": "LineString",
    "coordinates": [
     [
      129.367098,
      36.417271
     ],
     [
      129.36705,
      36.417569
     ],
     [
      129.367366,
      36.417726
     ]
    ]
   },
   "properties": {
    "leg": "egress",
    "vehicle": 0,
    "seq": 12,
    "drive_node": 11976157230,
    "n_buildings": 3,
    "eta_min": 707.94,
    "abort_min": null,
    "aborted_by_rule": false,
    "closing_min": null
   }
  },
  {
   "type": "Feature",
   "geometry": {
    "type": "Point",
    "coordinates": [
     129.367094,
     36.417266
    ]
   },
   "properties": {
    "kind": "pickup",
    "vehicle": 0,
    "seq": 12,
    "drive_node": 11976157230,
    "n_buildings": 3,
    "eta_min": 707.94,
    "abort_min": null
   }
  }
 ]
}
