<?xml version="1.0" encoding="UTF-8"?>
<kml xmlns="http://www.opengis.net/kml/2.2"><Document>
<name>k6_vehicle0</name>
<description>이 화면은 2025년 3월 25일 영덕 산불의 커밋된 예측장(routing_demo_canonical.npz)과 2026-07-24 도로망 스냅샷으로 만든 재생(replay)입니다. 실시간 도구가 아니고, 출동 기록도 아닙니다. 지점은 건물이며 가구가 아닙니다. 규칙과 한계는 docs/truck_crew_replay.md.</description>
<Placemark><name>ingress v0 #0</name><description>{"leg": "ingress", "vehicle": 0, "seq": 0, "drive_node": 11835362669, "n_buildings": 5, "eta_min": 76.05, "abort_min": 168.0, "aborted_by_rule": false, "closing_min": 180.0}</description><LineString><coordinates>129.371154,36.416189,0 129.370808,36.414319,0 129.371075,36.414297,0 129.371465,36.414273,0 129.371084,36.412801,0 129.371038,36.41227,0 129.371042,36.411521,0 129.370939,36.410486,0 129.371427,36.410362,0 129.371004,36.409007,0 129.370916,36.408567,0 129.370425,36.408574,0 129.370655,36.40702,0 129.370759,36.406694,0 129.371904,36.406072,0 129.372389,36.405858,0 129.372633,36.4058,0 129.374106,36.40492,0 129.374371,36.40433,0 129.374277,36.404133,0 129.372263,36.401073,0 129.371928,36.400565,0 129.37096,36.398795,0 129.370662,36.397988,0 129.370495,36.397522,0 129.370292,36.396976,0 129.370159,36.395148,0 129.369927,36.392925,0 129.369669,36.390531,0 129.369573,36.389776,0 129.369473,36.38884,0 129.372998,36.383358,0 129.375922,36.377949,0 129.377834,36.374449,0 129.37912,36.370489,0 129.378336,36.368915,0 129.377205,36.3664,0 129.377051,36.365528,0 129.377428,36.363143,0 129.377757,36.362443,0 129.377537,36.362113,0 129.377761,36.361695,0 129.377816,36.360721,0 129.37799,36.360078,0 129.378178,36.35912,0 129.377524,36.358796,0 129.378132,36.358129,0 129.378389,36.357674,0 129.378012,36.356382,0 129.377912,36.355906,0 129.377804,36.355592,0 129.37765,36.352917,0 129.375957,36.351988,0 129.373087,36.352205,0 129.371976,36.352826,0 129.371712,36.352947,0 129.366487,36.35723,0 129.366,36.357805,0 129.357124,36.361837,0 129.356774,36.362113,0 129.351772,36.367807,0 129.349548,36.369446,0 129.309743,36.384721,0 129.309187,36.38528,0 129.305235,36.384041,0 129.302788,36.384772,0 129.303997,36.387413,0 129.306725,36.393988,0 129.304423,36.397142,0 129.300631,36.40341,0 129.295896,36.413243,0 129.292953,36.419147,0 129.28407,36.416936,0 129.283647,36.417492,0 129.281716,36.419838,0 129.281817,36.420386,0 129.2863,36.433984,0 129.287348,36.433951,0 129.288584,36.438241,0 129.289997,36.442447,0 129.282703,36.445946,0 129.281894,36.447634,0 129.282506,36.449013,0 129.282435,36.449339,0 129.282378,36.449763,0 129.282029,36.45012,0 129.279397,36.459949,0 129.279216,36.461772,0 129.280005,36.464573,0 129.279146,36.475799,0</coordinates></LineString></Placemark>
<Placemark><name>egress v0 #0</name><description>{"leg": "egress", "vehicle": 0, "seq": 0, "drive_node": 11835362669, "n_buildings": 5, "eta_min": 76.05, "abort_min": 168.0, "aborted_by_rule": false, "closing_min": 180.0}</description><LineString><coordinates>129.279146,36.475799,0 129.280005,36.464573,0 129.279216,36.461772,0 129.279397,36.459949,0 129.282029,36.45012,0 129.282378,36.449763,0</coordinates></LineString></Placemark>
<Placemark><name>pickup v0 #0</name><description>{"kind": "pickup", "vehicle": 0, "seq": 0, "drive_node": 11835362669, "n_buildings": 5, "eta_min": 76.05, "abort_min": 168.0}</description><Point><coordinates>129.279148,36.475802,0</coordinates></Point></Placemark>
<Placemark><name>ingress v0 #1</name><description>{"leg": "ingress", "vehicle": 0, "seq": 1, "drive_node": 436594488, "n_buildings": 3, "eta_min": 111.94, "abort_min": 168.0, "aborted_by_rule": false, "closing_min": 180.0}</description><LineString><coordinates>129.282378,36.449763,0 129.282435,36.449339,0 129.282506,36.449013,0 129.281894,36.447634,0 129.282703,36.445946,0 129.289997,36.442447,0 129.288584,36.438241,0 129.287348,36.433951,0 129.2863,36.433984,0 129.281817,36.420386,0 129.281716,36.419838,0 129.283647,36.417492,0 129.28407,36.416936,0 129.292953,36.419147,0 129.29782,36.422228,0 129.299716,36.42366,0 129.307281,36.430514,0</coordinates></LineString></Placemark>
<Placemark><name>egress v0 #1</name><description>{"leg": "egress", "vehicle": 0, "seq": 1, "drive_node": 436594488, "n_buildings": 3, "eta_min": 111.94, "abort_min": 168.0, "aborted_by_rule": false, "closing_min": null}</description><LineString><coordinates>129.307281,36.430514,0 129.304641,36.430698,0 129.302663,36.431485,0 129.292566,36.438659,0 129.292178,36.439287,0 129.289997,36.442447,0 129.282703,36.445946,0 129.281894,36.447634,0 129.282506,36.449013,0 129.282897,36.449071,0</coordinates></LineString></Placemark>
<Placemark><name>pickup v0 #1</name><description>{"kind": "pickup", "vehicle": 0, "seq": 1, "drive_node": 436594488, "n_buildings": 3, "eta_min": 111.94, "abort_min": 168.0}</description><Point><coordinates>129.307275,36.430516,0</coordinates></Point></Placemark>
<Placemark><name>ingress v0 #2</name><description>{"leg": "ingress", "vehicle": 0, "seq": 2, "drive_node": 436727457, "n_buildings": 2, "eta_min": 202.49, "abort_min": -12.0, "aborted_by_rule": true, "closing_min": 0.0}</description><LineString><coordinates>129.282897,36.449071,0 129.282506,36.449013,0 129.281894,36.447634,0 129.282703,36.445946,0 129.289997,36.442447,0 129.292178,36.439287,0 129.292566,36.438659,0 129.302663,36.431485,0 129.304641,36.430698,0 129.307281,36.430514,0 129.322109,36.426863,0 129.326745,36.429523,0 129.326962,36.430214,0 129.327035,36.430465,0 129.331679,36.431124,0 129.34731,36.428891,0 129.350401,36.42988,0 129.351164,36.430562,0 129.353874,36.431467,0 129.355558,36.432378,0 129.35808,36.433835,0 129.362969,36.42881,0 129.362785,36.428588,0 129.362636,36.428437,0 129.361798,36.426971,0 129.3616,36.427083,0 129.361383,36.427357,0 129.361061,36.42738,0 129.359598,36.426393,0 129.364962,36.416998,0 129.365328,36.416938,0 129.365918,36.41737,0 129.366122,36.417007,0 129.366907,36.415805,0 129.367142,36.415837,0 129.367268,36.415997,0 129.367286,36.41579,0 129.367339,36.415203,0 129.367404,36.414679,0 129.367444,36.41448,0 129.368313,36.41443,0 129.369382,36.414387,0 129.370808,36.414319,0 129.371075,36.414297,0 129.371465,36.414273,0 129.371977,36.414247,0 129.373002,36.414204,0 129.373203,36.414219,0 129.37334,36.414343,0 129.373396,36.414324,0 129.373518,36.414331,0 129.373552,36.414339,0 129.373632,36.414419,0 129.373633,36.414446,0 129.373736,36.41458,0 129.374469,36.414902,0 129.377048,36.414095,0 129.377623,36.414339,0 129.377955,36.414694,0 129.37856,36.415297,0 129.378742,36.41543,0 129.379,36.41548,0 129.40591,36.390824,0 129.406354,36.390276,0 129.406789,36.389854,0 129.40755,36.389518,0 129.408605,36.390258,0 129.416502,36.397207,0 129.428016,36.408352,0 129.429328,36.40999,0 129.429615,36.410787,0 129.429643,36.411913,0 129.434768,36.427866,0 129.434127,36.428562,0 129.43324,36.435525,0 129.432585,36.437005,0 129.432369,36.440885,0 129.432533,36.441207,0 129.432601,36.446208,0 129.432627,36.446343,0 129.436023,36.46135,0 129.435072,36.466188,0 129.431987,36.474945,0 129.431914,36.475162,0 129.431919,36.475361,0 129.433443,36.48279,0 129.435077,36.484341,0 129.443123,36.490051,0 129.442938,36.492046,0 129.442876,36.493589,0 129.440066,36.496383,0 129.436327,36.497328,0 129.434477,36.498349,0 129.434295,36.498649,0 129.430037,36.503874,0 129.429699,36.504186,0 129.412544,36.504904,0 129.411621,36.504604,0 129.411555,36.504605,0 129.411432,36.504625,0 129.411287,36.504636,0 129.410594,36.505026,0 129.409636,36.5056,0 129.402577,36.520099,0 129.403638,36.52147,0 129.403723,36.521739,0 129.403462,36.521995,0 129.403333,36.522232,0 129.403282,36.522404,0 129.403241,36.522549,0 129.407753,36.528047,0 129.407174,36.530851,0 129.407168,36.5315,0 129.406017,36.532374,0 129.405644,36.53266,0 129.405634,36.532705,0 129.405627,36.532876,0 129.405678,36.533137,0 129.40592,36.53481,0 129.405996,36.535151,0 129.405908,36.535215,0 129.405556,36.535888,0 129.405646,36.536842,0 129.405718,36.537048,0 129.405668,36.537752,0 129.406279,36.538959,0 129.40656,36.539045,0 129.406099,36.539377,0 129.405392,36.539667,0 129.405776,36.540319,0 129.406312,36.541221,0 129.407595,36.543418,0 129.40743,36.543988,0 129.407338,36.544341,0 129.406743,36.549678,0 129.406728,36.549967,0 129.406723,36.550652,0 129.406725,36.550742,0 129.406732,36.551472,0 129.407005,36.554406,0 129.405988,36.556207,0 129.404874,36.557721,0 129.404206,36.558732,0 129.403626,36.55967,0 129.401735,36.562747,0 129.401627,36.562902,0 129.401552,36.563038,0 129.401402,36.563293,0 129.400422,36.567995,0</coordinates></LineString></Placemark>
<Placemark><name>egress v0 #2</name><description>{"leg": "egress", "vehicle": 0, "seq": 2, "drive_node": 436727457, "n_buildings": 2, "eta_min": 202.49, "abort_min": -12.0, "aborted_by_rule": true, "closing_min": null}</description><LineString><coordinates>129.400422,36.567995,0 129.401402,36.563293,0 129.401552,36.563038,0 129.401627,36.562902,0 129.401735,36.562747,0 129.403626,36.55967,0 129.404206,36.558732,0 129.404874,36.557721,0 129.405988,36.556207,0 129.407005,36.554406,0 129.406732,36.551472,0 129.406725,36.550742,0 129.406723,36.550652,0 129.406728,36.549967,0 129.406743,36.549678,0 129.407338,36.544341,0 129.40743,36.543988,0 129.407595,36.543418,0 129.408226,36.541839,0 129.40845,36.541376,0 129.409999,36.540351,0 129.410077,36.540313,0 129.410885,36.54003,0 129.411009,36.540082,0 129.412299,36.540756,0 129.413489,36.540998,0 129.41504,36.541388,0 129.417932,36.540413,0 129.439677,36.530894,0</coordinates></LineString></Placemark>
<Placemark><name>pickup v0 #2</name><description>{"kind": "pickup", "vehicle": 0, "seq": 2, "drive_node": 436727457, "n_buildings": 2, "eta_min": 202.49, "abort_min": -12.0}</description><Point><coordinates>129.400421,36.567997,0</coordinates></Point></Placemark>
<Placemark><name>ingress v0 #3</name><description>{"leg": "ingress", "vehicle": 0, "seq": 3, "drive_node": 436738712, "n_buildings": 4, "eta_min": 246.83, "abort_min": null, "aborted_by_rule": false, "closing_min": null}</description><LineString><coordinates>129.439677,36.530894,0 129.417932,36.540413,0 129.41504,36.541388,0 129.413489,36.540998,0 129.412299,36.540756,0 129.411009,36.540082,0 129.410885,36.54003,0 129.41022,36.539788,0 129.409357,36.539685,0 129.409189,36.53967,0 129.409189,36.539643,0 129.409363,36.539478,0 129.409542,36.539006,0 129.409985,36.537944,0 129.410175,36.537491,0 129.409533,36.535905,0 129.408201,36.534458,0 129.406424,36.533504,0 129.405678,36.533137,0 129.405627,36.532876,0 129.405634,36.532705,0 129.405644,36.53266,0 129.406017,36.532374,0 129.407168,36.5315,0 129.407174,36.530851,0 129.407753,36.528047,0 129.403241,36.522549,0 129.403282,36.522404,0 129.403333,36.522232,0 129.403462,36.521995,0 129.403723,36.521739,0 129.40403,36.52149,0 129.404326,36.521251,0 129.404566,36.521031,0 129.404708,36.520903,0 129.403224,36.515023,0 129.405361,36.511581,0 129.4058,36.510781,0 129.407002,36.509275,0 129.408629,36.508221,0 129.408804,36.508101,0 129.409248,36.507526,0 129.410647,36.505385,0 129.410735,36.50533,0 129.410933,36.505209,0 129.411336,36.504779,0 129.411287,36.504636,0 129.411274,36.504537,0 129.411259,36.504402,0 129.411004,36.50401,0 129.411026,36.503558,0 129.410868,36.497134,0</coordinates></LineString></Placemark>
<Placemark><name>egress v0 #3</name><description>{"leg": "egress", "vehicle": 0, "seq": 3, "drive_node": 436738712, "n_buildings": 4, "eta_min": 246.83, "abort_min": null, "aborted_by_rule": false, "closing_min": null}</description><LineString><coordinates>129.410868,36.497134,0 129.411026,36.503558,0 129.411004,36.50401,0 129.411259,36.504402,0 129.411384,36.504499,0 129.411453,36.504552,0 129.411621,36.504604,0 129.412544,36.504904,0 129.429699,36.504186,0 129.430037,36.503874,0 129.434295,36.498649,0 129.434477,36.498349,0 129.436327,36.497328,0 129.440066,36.496383,0 129.442876,36.493589,0 129.442938,36.492046,0 129.443123,36.490051,0</coordinates></LineString></Placemark>
<Placemark><name>pickup v0 #3</name><description>{"kind": "pickup", "vehicle": 0, "seq": 3, "drive_node": 436738712, "n_buildings": 4, "eta_min": 246.83, "abort_min": null}</description><Point><coordinates>129.410864,36.497131,0</coordinates></Point></Placemark>
<Placemark><name>ingress v0 #4</name><description>{"leg": "ingress", "vehicle": 0, "seq": 4, "drive_node": 436912612, "n_buildings": 62, "eta_min": 292.32, "abort_min": null, "aborted_by_rule": false, "closing_min": null}</description><LineString><coordinates>129.443123,36.490051,0 129.435077,36.484341,0 129.433443,36.48279,0 129.431919,36.475361,0 129.431914,36.475162,0 129.431987,36.474945,0 129.435072,36.466188,0 129.436023,36.46135,0 129.432627,36.446343,0 129.432601,36.446208,0 129.432533,36.441207,0 129.432369,36.440885,0 129.432585,36.437005,0 129.43324,36.435525,0 129.434127,36.428562,0 129.434768,36.427866,0 129.429643,36.411913,0 129.429615,36.410787,0 129.429328,36.40999,0 129.428016,36.408352,0 129.416502,36.397207,0</coordinates></LineString></Placemark>
<Placemark><name>egress v0 #4</name><description>{"leg": "egress", "vehicle": 0, "seq": 4, "drive_node": 436912612, "n_buildings": 62, "eta_min": 292.32, "abort_min": null, "aborted_by_rule": false, "closing_min": null}</description><LineString><coordinates>129.416502,36.397207,0 129.408605,36.390258,0 129.40755,36.389518,0</coordinates></LineString></Placemark>
<Placemark><name>pickup v0 #4</name><description>{"kind": "pickup", "vehicle": 0, "seq": 4, "drive_node": 436912612, "n_buildings": 62, "eta_min": 292.32, "abort_min": null}</description><Point><coordinates>129.416504,36.397207,0</coordinates></Point></Placemark>
<Placemark><name>ingress v0 #5</name><description>{"leg": "ingress", "vehicle": 0, "seq": 5, "drive_node": 436913211, "n_buildings": 10, "eta_min": 341.4, "abort_min": null, "aborted_by_rule": false, "closing_min": null}</description><LineString><coordinates>129.40755,36.389518,0 129.408605,36.390258,0 129.416502,36.397207,0 129.428016,36.408352,0 129.429328,36.40999,0 129.429615,36.410787,0 129.429643,36.411913,0 129.434768,36.427866,0 129.434127,36.428562,0 129.43324,36.435525,0 129.432585,36.437005,0 129.432369,36.440885,0 129.432533,36.441207,0 129.432601,36.446208,0 129.432627,36.446343,0 129.436023,36.46135,0 129.435072,36.466188,0 129.431987,36.474945,0 129.431914,36.475162,0 129.431919,36.475361,0 129.433443,36.48279,0 129.435077,36.484341,0 129.443123,36.490051,0 129.442938,36.492046,0 129.442876,36.493589,0 129.440066,36.496383,0 129.436327,36.497328,0 129.434477,36.498349,0 129.434295,36.498649,0 129.430037,36.503874,0 129.429699,36.504186,0 129.412544,36.504904,0 129.411621,36.504604,0 129.411555,36.504605,0 129.411367,36.504707,0 129.411336,36.504779,0 129.410933,36.505209,0 129.410545,36.505793,0 129.410187,36.507565,0 129.412959,36.507692,0</coordinates></LineString></Placemark>
<Placemark><name>egress v0 #5</name><description>{"leg": "egress", "vehicle": 0, "seq": 5, "drive_node": 436913211, "n_buildings": 10, "eta_min": 341.4, "abort_min": null, "aborted_by_rule": false, "closing_min": null}</description><LineString><coordinates>129.412959,36.507692,0 129.410187,36.507565,0 129.410545,36.505793,0 129.410933,36.505209,0 129.411336,36.504779,0 129.411367,36.504707,0 129.411555,36.504605,0 129.411621,36.504604,0 129.412544,36.504904,0 129.429699,36.504186,0 129.430037,36.503874,0 129.434295,36.498649,0 129.434477,36.498349,0 129.436327,36.497328,0 129.440066,36.496383,0 129.442876,36.493589,0 129.442938,36.492046,0 129.443123,36.490051,0</coordinates></LineString></Placemark>
<Placemark><name>pickup v0 #5</name><description>{"kind": "pickup", "vehicle": 0, "seq": 5, "drive_node": 436913211, "n_buildings": 10, "eta_min": 341.4, "abort_min": null}</description><Point><coordinates>129.412957,36.507693,0</coordinates></Point></Placemark>
<Placemark><name>ingress v0 #6</name><description>{"leg": "ingress", "vehicle": 0, "seq": 6, "drive_node": 437092502, "n_buildings": 9, "eta_min": 420.02, "abort_min": null, "aborted_by_rule": false, "closing_min": null}</description><LineString><coordinates>129.443123,36.490051,0 129.435077,36.484341,0 129.433443,36.48279,0 129.431919,36.475361,0 129.431914,36.475162,0 129.431987,36.474945,0 129.435072,36.466188,0 129.436023,36.46135,0 129.432627,36.446343,0 129.432601,36.446208,0 129.432533,36.441207,0 129.432369,36.440885,0 129.432585,36.437005,0 129.43324,36.435525,0 129.434127,36.428562,0 129.434768,36.427866,0 129.429643,36.411913,0 129.429615,36.410787,0 129.429328,36.40999,0 129.428016,36.408352,0 129.416502,36.397207,0 129.408605,36.390258,0 129.40755,36.389518,0 129.406985,36.389184,0 129.403357,36.37847,0 129.394116,36.36561,0 129.385614,36.359228,0 129.384764,36.358646,0 129.384156,36.358367,0 129.383634,36.358439,0 129.382483,36.358781,0 129.382133,36.359508,0 129.382157,36.360499,0 129.379158,36.359997,0 129.379058,36.359998,0 129.380271,36.357644,0 129.380335,36.357499,0 129.380567,36.356973,0 129.379586,36.355537,0 129.379552,36.355528,0 129.378726,36.355496,0 129.378182,36.355541,0 129.377804,36.355592,0 129.37765,36.352917,0 129.375957,36.351988,0 129.373087,36.352205,0 129.371976,36.352826,0 129.371712,36.352947,0 129.366487,36.35723,0 129.366,36.357805,0 129.357124,36.361837,0 129.356774,36.362113,0 129.351772,36.367807,0 129.349548,36.369446,0 129.309743,36.384721,0 129.309187,36.38528,0 129.305235,36.384041,0 129.302788,36.384772,0 129.303997,36.387413,0 129.306725,36.393988,0 129.304423,36.397142,0 129.300631,36.40341,0 129.295896,36.413243,0 129.292953,36.419147,0 129.29782,36.422228,0 129.299716,36.42366,0</coordinates></LineString></Placemark>
<Placemark><name>egress v0 #6</name><description>{"leg": "egress", "vehicle": 0, "seq": 6, "drive_node": 437092502, "n_buildings": 9, "eta_min": 420.02, "abort_min": null, "aborted_by_rule": false, "closing_min": null}</description><LineString><coordinates>129.299716,36.42366,0 129.307281,36.430514,0 129.304641,36.430698,0 129.302663,36.431485,0 129.292566,36.438659,0 129.292178,36.439287,0 129.289997,36.442447,0 129.282703,36.445946,0 129.281894,36.447634,0 129.282506,36.449013,0 129.282897,36.449071,0</coordinates></LineString></Placemark>
<Placemark><name>pickup v0 #6</name><description>{"kind": "pickup", "vehicle": 0, "seq": 6, "drive_node": 437092502, "n_buildings": 9, "eta_min": 420.02, "abort_min": null}</description><Point><coordinates>129.29972,36.423662,0</coordinates></Point></Placemark>
<Placemark><name>ingress v0 #7</name><description>{"leg": "ingress", "vehicle": 0, "seq": 7, "drive_node": 437251404, "n_buildings": 1, "eta_min": 455.63, "abort_min": null, "aborted_by_rule": false, "closing_min": null}</description><LineString><coordinates>129.282897,36.449071,0 129.282506,36.449013,0 129.281894,36.447634,0 129.282703,36.445946,0 129.289997,36.442447,0 129.292178,36.439287,0 129.292566,36.438659,0 129.302663,36.431485,0 129.304641,36.430698,0 129.307281,36.430514,0 129.299716,36.42366,0 129.29782,36.422228,0 129.292953,36.419147,0 129.28407,36.416936,0</coordinates></LineString></Placemark>
<Placemark><name>egress v0 #7</name><description>{"leg": "egress", "vehicle": 0, "seq": 7, "drive_node": 437251404, "n_buildings": 1, "eta_min": 455.63, "abort_min": null, "aborted_by_rule": false, "closing_min": null}</description><LineString><coordinates>129.28407,36.416936,0 129.292953,36.419147,0 129.29782,36.422228,0 129.299716,36.42366,0 129.307281,36.430514,0 129.304641,36.430698,0 129.302663,36.431485,0 129.292566,36.438659,0 129.292178,36.439287,0 129.289997,36.442447,0 129.282703,36.445946,0 129.281894,36.447634,0 129.282506,36.449013,0 129.282897,36.449071,0</coordinates></LineString></Placemark>
<Placemark><name>pickup v0 #7</name><description>{"kind": "pickup", "vehicle": 0, "seq": 7, "drive_node": 437251404, "n_buildings": 1, "eta_min": 455.63, "abort_min": null}</description><Point><coordinates>129.28407,36.416938,0</coordinates></Point></Placemark>
<Placemark><name>ingress v0 #8</name><description>{"leg": "ingress", "vehicle": 0, "seq": 8, "drive_node": 437261791, "n_buildings": 6, "eta_min": 545.86, "abort_min": -12.0, "aborted_by_rule": true, "closing_min": 0.0}</description><LineString><coordinates>129.282897,36.449071,0 129.282506,36.449013,0 129.281894,36.447634,0 129.282703,36.445946,0 129.289997,36.442447,0 129.292178,36.439287,0 129.292566,36.438659,0 129.302663,36.431485,0 129.304641,36.430698,0 129.307281,36.430514,0 129.322109,36.426863,0 129.326745,36.429523,0 129.326962,36.430214,0 129.327035,36.430465,0 129.331679,36.431124,0 129.34731,36.428891,0 129.350401,36.42988,0 129.351164,36.430562,0 129.353874,36.431467,0 129.355558,36.432378,0 129.35808,36.433835,0 129.362969,36.42881,0 129.362785,36.428588,0 129.362636,36.428437,0 129.361798,36.426971,0 129.3616,36.427083,0 129.361383,36.427357,0 129.361061,36.42738,0 129.359598,36.426393,0 129.364962,36.416998,0 129.365328,36.416938,0 129.365918,36.41737,0 129.366122,36.417007,0 129.366907,36.415805,0 129.367142,36.415837,0 129.367268,36.415997,0 129.367286,36.41579,0 129.367339,36.415203,0 129.367404,36.414679,0 129.367444,36.41448,0 129.368313,36.41443,0 129.369382,36.414387,0 129.370808,36.414319,0 129.371075,36.414297,0 129.371465,36.414273,0 129.371977,36.414247,0 129.373002,36.414204,0 129.373203,36.414219,0 129.37334,36.414343,0 129.373396,36.414324,0 129.373518,36.414331,0 129.373552,36.414339,0 129.373632,36.414419,0 129.373633,36.414446,0 129.373736,36.41458,0 129.374469,36.414902,0 129.377048,36.414095,0 129.377623,36.414339,0 129.377752,36.415076,0 129.377341,36.417471,0 129.390199,36.439965,0 129.391298,36.441579,0 129.386708,36.46534,0 129.394249,36.47482,0 129.393875,36.47689,0 129.389332,36.489762,0 129.391165,36.491661,0 129.391539,36.491899,0 129.389143,36.504006,0 129.389559,36.506442,0 129.390736,36.508001,0 129.399619,36.508275,0 129.401756,36.508448,0 129.407002,36.509275,0 129.4058,36.510781,0 129.405361,36.511581,0 129.403224,36.515023,0 129.401672,36.515507,0 129.401337,36.518703,0 129.401766,36.519778,0 129.404326,36.521251,0 129.40403,36.52149,0 129.403723,36.521739,0 129.403462,36.521995,0 129.403333,36.522232,0 129.403282,36.522404,0 129.403241,36.522549,0 129.407753,36.528047,0 129.407174,36.530851,0 129.407168,36.5315,0 129.406017,36.532374,0 129.405644,36.53266,0 129.405634,36.532705,0 129.405627,36.532876,0 129.405678,36.533137,0 129.40592,36.53481,0 129.405362,36.534809,0 129.404702,36.534793,0 129.404579,36.534795,0 129.40435,36.536836,0 129.404241,36.537829,0 129.404197,36.538316,0 129.403509,36.538039,0 129.403311,36.540476,0 129.402879,36.540609,0 129.397966,36.542066,0 129.397444,36.542201,0 129.397322,36.542212,0 129.396831,36.542238,0 129.39644,36.542235,0 129.396026,36.542223,0 129.395635,36.542212,0 129.395244,36.542191,0 129.38413,36.542682,0 129.38376,36.542652,0 129.38106,36.542307,0 129.380833,36.542185,0 129.38042,36.542182,0 129.380162,36.544908,0 129.375161,36.552928,0 129.374463,36.552678,0 129.372986,36.552142,0 129.372006,36.551806,0 129.370235,36.551104,0 129.369444,36.550728,0 129.367772,36.549952,0 129.36549,36.548879,0 129.360096,36.546197,0 129.348946,36.546604,0 129.348368,36.546703,0 129.347201,36.546956,0 129.347459,36.546069,0 129.346615,36.546307,0 129.339566,36.547218,0 129.338513,36.547135,0 129.321515,36.554472,0</coordinates></LineString></Placemark>
<Placemark><name>egress v0 #8</name><description>{"leg": "egress", "vehicle": 0, "seq": 8, "drive_node": 437261791, "n_buildings": 6, "eta_min": 545.86, "abort_min": -12.0, "aborted_by_rule": true, "closing_min": null}</description><LineString><coordinates>129.321515,36.554472,0 129.338513,36.547135,0 129.339566,36.547218,0 129.346615,36.546307,0 129.347459,36.546069,0 129.347823,36.545892,0 129.348368,36.546703,0 129.348946,36.546604,0 129.360096,36.546197,0 129.36549,36.548879,0 129.367772,36.549952,0 129.369444,36.550728,0 129.370235,36.551104,0 129.372006,36.551806,0 129.372986,36.552142,0 129.374463,36.552678,0 129.375161,36.552928,0 129.380162,36.544908,0 129.38042,36.542182,0 129.380833,36.542185,0 129.38106,36.542307,0 129.38376,36.542652,0 129.38413,36.542682,0 129.395244,36.542191,0 129.395635,36.542212,0 129.396026,36.542223,0 129.39644,36.542235,0 129.396831,36.542238,0 129.397322,36.542212,0 129.397444,36.542201,0 129.397966,36.542066,0 129.402879,36.540609,0 129.403311,36.540476,0 129.403434,36.540447,0 129.403838,36.540521,0 129.40394,36.540583,0 129.404084,36.540563,0 129.404117,36.540544,0 129.404193,36.540444,0 129.404443,36.540629,0 129.40477,36.540723,0 129.406312,36.541221,0 129.406492,36.541272,0 129.406582,36.541307,0 129.40737,36.541556,0 129.408226,36.541839,0 129.40845,36.541376,0 129.409999,36.540351,0 129.410077,36.540313,0 129.410885,36.54003,0 129.411009,36.540082,0 129.412299,36.540756,0 129.413489,36.540998,0 129.41504,36.541388,0 129.417932,36.540413,0 129.439677,36.530894,0</coordinates></LineString></Placemark>
<Placemark><name>pickup v0 #8</name><description>{"kind": "pickup", "vehicle": 0, "seq": 8, "drive_node": 437261791, "n_buildings": 6, "eta_min": 545.86, "abort_min": -12.0}</description><Point><coordinates>129.321515,36.554468,0</coordinates></Point></Placemark>
<Placemark><name>ingress v0 #9</name><description>{"leg": "ingress", "vehicle": 0, "seq": 9, "drive_node": 2486660204, "n_buildings": 4, "eta_min": 626.65, "abort_min": null, "aborted_by_rule": false, "closing_min": null}</description><LineString><coordinates>129.439677,36.530894,0 129.443775,36.511664,0 129.44388,36.511383,0 129.444322,36.510772,0 129.442926,36.508523,0 129.443176,36.507789,0 129.44228,36.506821,0 129.442158,36.505949,0 129.442044,36.504959,0 129.440066,36.496383,0 129.442876,36.493589,0 129.442938,36.492046,0 129.443123,36.490051,0 129.435077,36.484341,0 129.433443,36.48279,0 129.431919,36.475361,0 129.431914,36.475162,0 129.431987,36.474945,0 129.435072,36.466188,0 129.436023,36.46135,0 129.432627,36.446343,0 129.432601,36.446208,0 129.432533,36.441207,0 129.432369,36.440885,0 129.432585,36.437005,0 129.43324,36.435525,0 129.434127,36.428562,0 129.434768,36.427866,0 129.429643,36.411913,0 129.429615,36.410787,0 129.429328,36.40999,0 129.428016,36.408352,0 129.416502,36.397207,0 129.408605,36.390258,0 129.40755,36.389518,0 129.406985,36.389184,0 129.403357,36.37847,0 129.394116,36.36561,0 129.385614,36.359228,0 129.384764,36.358646,0 129.384156,36.358367,0 129.383634,36.358439,0 129.382483,36.358781,0 129.382133,36.359508,0 129.382157,36.360499,0 129.379158,36.359997,0 129.380382,36.357625,0 129.380425,36.357552,0 129.380668,36.356989,0 129.380227,36.35486,0 129.379699,36.354219,0 129.378603,36.351298,0 129.38153,36.34606,0 129.381575,36.345617,0 129.381572,36.345482,0 129.381575,36.34514,0 129.381328,36.341349,0 129.381408,36.339103,0 129.381258,36.337978,0 129.380801,36.336588,0 129.37832,36.330714,0</coordinates></LineString></Placemark>
<Placemark><name>egress v0 #9</name><description>{"leg": "egress", "vehicle": 0, "seq": 9, "drive_node": 2486660204, "n_buildings": 4, "eta_min": 626.65, "abort_min": null, "aborted_by_rule": false, "closing_min": null}</description><LineString><coordinates>129.37832,36.330714,0 129.380801,36.336588,0 129.381258,36.337978,0 129.381408,36.339103,0 129.381328,36.341349,0 129.381575,36.34514,0 129.381572,36.345482,0 129.382319,36.345497,0 129.384829,36.347928,0</coordinates></LineString></Placemark>
<Placemark><name>pickup v0 #9</name><description>{"kind": "pickup", "vehicle": 0, "seq": 9, "drive_node": 2486660204, "n_buildings": 4, "eta_min": 626.65, "abort_min": null}</description><Point><coordinates>129.378316,36.330711,0</coordinates></Point></Placemark>
<Placemark><name>ingress v0 #10</name><description>{"leg": "ingress", "vehicle": 0, "seq": 10, "drive_node": 2828250453, "n_buildings": 4, "eta_min": 664.69, "abort_min": null, "aborted_by_rule": false, "closing_min": null}</description><LineString><coordinates>129.384829,36.347928,0 129.384595,36.347913,0 129.384817,36.347441,0 129.383303,36.347474,0 129.382194,36.345851,0 129.381627,36.345905,0 129.38153,36.34606,0 129.378603,36.351298,0 129.379699,36.354219,0 129.380227,36.35486,0 129.380668,36.356989,0 129.380425,36.357552,0 129.380382,36.357625,0 129.379158,36.359997,0 129.382157,36.360499,0 129.382358,36.361902,0 129.38404,36.365103,0 129.384579,36.366681,0 129.385056,36.372099,0 129.384729,36.373817,0 129.384639,36.374242,0 129.384097,36.37718,0 129.383704,36.378917,0 129.382159,36.385107,0 129.381805,36.386131,0 129.38137,36.387067,0 129.381338,36.387139,0 129.38054,36.389153,0 129.379846,36.390903,0 129.377639,36.395085,0 129.377479,36.395394,0 129.377301,36.395883,0 129.3767,36.402878,0 129.374985,36.404348,0 129.374864,36.404422,0 129.374643,36.404515,0 129.374598,36.404507,0 129.374444,36.404572,0 129.374433,36.404609,0 129.374238,36.404846,0 129.374106,36.40492,0 129.372633,36.4058,0 129.372389,36.405858,0 129.371904,36.406072,0 129.370916,36.408567,0 129.371004,36.409007,0 129.371427,36.410362,0 129.371563,36.411396,0 129.37282,36.411268,0 129.374488,36.411963,0 129.376461,36.413347,0 129.377128,36.413697,0 129.3773,36.413911,0 129.377623,36.414339,0 129.377955,36.414694,0 129.37856,36.415297,0 129.377483,36.417324,0</coordinates></LineString></Placemark>
<Placemark><name>egress v0 #10</name><description>{"leg": "egress", "vehicle": 0, "seq": 10, "drive_node": 2828250453, "n_buildings": 4, "eta_min": 664.69, "abort_min": null, "aborted_by_rule": false, "closing_min": null}</description><LineString><coordinates>129.377483,36.417324,0 129.37856,36.415297,0 129.377955,36.414694,0 129.377623,36.414339,0 129.3773,36.413911,0 129.377128,36.413697,0 129.376818,36.413351,0</coordinates></LineString></Placemark>
<Placemark><name>pickup v0 #10</name><description>{"kind": "pickup", "vehicle": 0, "seq": 10, "drive_node": 2828250453, "n_buildings": 4, "eta_min": 664.69, "abort_min": null}</description><Point><coordinates>129.377478,36.417323,0</coordinates></Point></Placemark>
<Placemark><name>ingress v0 #11</name><description>{"leg": "ingress", "vehicle": 0, "seq": 11, "drive_node": 4137870256, "n_buildings": 3, "eta_min": 686.79, "abort_min": null, "aborted_by_rule": false, "closing_min": null}</description><LineString><coordinates>129.376818,36.413351,0 129.376461,36.413347,0 129.374488,36.411963,0 129.37282,36.411268,0 129.371563,36.411396,0 129.371618,36.412297,0 129.371754,36.413286,0 129.371977,36.414247,0</coordinates></LineString></Placemark>
<Placemark><name>egress v0 #11</name><description>{"leg": "egress", "vehicle": 0, "seq": 11, "drive_node": 4137870256, "n_buildings": 3, "eta_min": 686.79, "abort_min": null, "aborted_by_rule": false, "closing_min": null}</description><LineString><coordinates>129.371977,36.414247,0 129.371465,36.414273,0 129.371075,36.414297,0 129.370808,36.414319,0 129.371154,36.416189,0 129.367366,36.417726,0</coordinates></LineString></Placemark>
<Placemark><name>pickup v0 #11</name><description>{"kind": "pickup", "vehicle": 0, "seq": 11, "drive_node": 4137870256, "n_buildings": 3, "eta_min": 686.79, "abort_min": null}</description><Point><coordinates>129.371982,36.414251,0</coordinates></Point></Placemark>
<Placemark><name>ingress v0 #12</name><description>{"leg": "ingress", "vehicle": 0, "seq": 12, "drive_node": 11976157230, "n_buildings": 3, "eta_min": 707.94, "abort_min": null, "aborted_by_rule": false, "closing_min": null}</description><LineString><coordinates>129.367366,36.417726,0 129.36705,36.417569,0 129.367098,36.417271,0</coordinates></LineString></Placemark>
<Placemark><name>egress v0 #12</name><description>{"leg": "egress", "vehicle": 0, "seq": 12, "drive_node": 11976157230, "n_buildings": 3, "eta_min": 707.94, "abort_min": null, "aborted_by_rule": false, "closing_min": null}</description><LineString><coordinates>129.367098,36.417271,0 129.36705,36.417569,0 129.367366,36.417726,0</coordinates></LineString></Placemark>
<Placemark><name>pickup v0 #12</name><description>{"kind": "pickup", "vehicle": 0, "seq": 12, "drive_node": 11976157230, "n_buildings": 3, "eta_min": 707.94, "abort_min": null}</description><Point><coordinates>129.367094,36.417266,0</coordinates></Point></Placemark>
</Document></kml>
