{
 "type": "FeatureCollection",
 "name": "k6_vehicle4",
 "note": "이 화면은 2025년 3월 25일 영덕 산불의 커밋된 예측장(routing_demo_canonical.npz)과 2026-07-24 도로망 스냅샷으로 만든 재생(replay)입니다. 실시간 도구가 아니고, 출동 기록도 아닙니다. 지점은 건물이며 가구가 아닙니다. 규칙과 한계는 docs/truck_crew_replay.md.",
 "features": [
  {
   "type": "Feature",
   "geometry": {
    "type": "LineString",
    "coordinates": [
     [
      129.371154,
      36.416189
     ],
     [
      129.370808,
      36.414319
     ],
     [
      129.371075,
      36.414297
     ],
     [
      129.371465,
      36.414273
     ],
     [
      129.371084,
      36.412801
     ],
     [
      129.371038,
      36.41227
     ],
     [
      129.371042,
      36.411521
     ],
     [
      129.370939,
      36.410486
     ],
     [
      129.371427,
      36.410362
     ],
     [
      129.371004,
      36.409007
     ],
     [
      129.370916,
      36.408567
     ],
     [
      129.370425,
      36.408574
     ],
     [
      129.370655,
      36.40702
     ],
     [
      129.370759,
      36.406694
     ],
     [
      129.371904,
      36.406072
     ],
     [
      129.372389,
      36.405858
     ],
     [
      129.372633,
      36.4058
     ],
     [
      129.374106,
      36.40492
     ],
     [
      129.374371,
      36.40433
     ],
     [
      129.374277,
      36.404133
     ],
     [
      129.372263,
      36.401073
     ],
     [
      129.371928,
      36.400565
     ],
     [
      129.37096,
      36.398795
     ],
     [
      129.370662,
      36.397988
     ],
     [
      129.370495,
      36.397522
     ],
     [
      129.370292,
      36.396976
     ],
     [
      129.370159,
      36.395148
     ],
     [
      129.369927,
      36.392925
     ],
     [
      129.369669,
      36.390531
     ],
     [
      129.369573,
      36.389776
     ],
     [
      129.369473,
      36.38884
     ],
     [
      129.372998,
      36.383358
     ],
     [
      129.375922,
      36.377949
     ],
     [
      129.377834,
      36.374449
     ],
     [
      129.37912,
      36.370489
     ],
     [
      129.378336,
      36.368915
     ],
     [
      129.377205,
      36.3664
     ],
     [
      129.377051,
      36.365528
     ],
     [
      129.377428,
      36.363143
     ],
     [
      129.377757,
      36.362443
     ],
     [
      129.377537,
      36.362113
     ],
     [
      129.377761,
      36.361695
     ],
     [
      129.377816,
      36.360721
     ],
     [
      129.37799,
      36.360078
     ],
     [
      129.378178,
      36.35912
     ],
     [
      129.377524,
      36.358796
     ],
     [
      129.378132,
      36.358129
     ],
     [
      129.378389,
      36.357674
     ],
     [
      129.378012,
      36.356382
     ],
     [
      129.377912,
      36.355906
     ],
     [
      129.377804,
      36.355592
     ],
     [
      129.37765,
      36.352917
     ],
     [
      129.375957,
      36.351988
     ],
     [
      129.373087,
      36.352205
     ],
     [
      129.371976,
      36.352826
     ],
     [
      129.371712,
      36.352947
     ],
     [
      129.366487,
      36.35723
     ],
     [
      129.366,
      36.357805
     ],
     [
      129.357124,
      36.361837
     ],
     [
      129.356774,
      36.362113
     ],
     [
      129.351772,
      36.367807
     ],
     [
      129.349548,
      36.369446
     ],
     [
      129.309743,
      36.384721
     ],
     [
      129.309187,
      36.38528
     ],
     [
      129.305235,
      36.384041
     ],
     [
      129.302788,
      36.384772
     ],
     [
      129.303997,
      36.387413
     ],
     [
      129.306725,
      36.393988
     ],
     [
      129.304423,
      36.397142
     ],
     [
      129.300631,
      36.40341
     ],
     [
      129.295896,
      36.413243
     ],
     [
      129.292953,
      36.419147
     ],
     [
      129.28407,
      36.416936
     ],
     [
      129.283647,
      36.417492
     ],
     [
      129.281716,
      36.419838
     ],
     [
      129.281817,
      36.420386
     ],
     [
      129.2863,
      36.433984
     ],
     [
      129.287348,
      36.433951
     ],
     [
      129.288584,
      36.438241
     ],
     [
      129.289997,
      36.442447
     ],
     [
      129.282703,
      36.445946
     ],
     [
      129.281894,
      36.447634
     ],
     [
      129.282506,
      36.449013
     ],
     [
      129.282435,
      36.449339
     ],
     [
      129.282378,
      36.449763
     ],
     [
      129.282029,
      36.45012
     ],
     [
      129.279397,
      36.459949
     ],
     [
      129.279216,
      36.461772
     ],
     [
      129.280005,
      36.464573
     ],
     [
      129.298882,
      36.478342
     ]
    ]
   },
   "properties": {
    "leg": "ingress",
    "vehicle": 4,
    "seq": 0,
    "drive_node": 11835584691,
    "n_buildings": 4,
    "eta_min": 78.28,
    "abort_min": 168.0,
    "aborted_by_rule": false,
    "closing_min": 180.0
   }
  },
  {
   "type": "Feature",
   "geometry": {
    "type": "LineString",
    "coordinates": [
     [
      129.298882,
      36.478342
     ],
     [
      129.280005,
      36.464573
     ],
     [
      129.279216,
      36.461772
     ],
     [
      129.279397,
      36.459949
     ],
     [
      129.282029,
      36.45012
     ],
     [
      129.282378,
      36.449763
     ]
    ]
   },
   "properties": {
    "leg": "egress",
    "vehicle": 4,
    "seq": 0,
    "drive_node": 11835584691,
    "n_buildings": 4,
    "eta_min": 78.28,
    "abort_min": 168.0,
    "aborted_by_rule": false,
    "closing_min": 180.0
   }
  },
  {
   "type": "Feature",
   "geometry": {
    "type": "Point",
    "coordinates": [
     129.298878,
     36.478339
    ]
   },
   "properties": {
    "kind": "pickup",
    "vehicle": 4,
    "seq": 0,
    "drive_node": 11835584691,
    "n_buildings": 4,
    "eta_min": 78.28,
    "abort_min": 168.0
   }
  },
  {
   "type": "Feature",
   "geometry": {
    "type": "LineString",
    "coordinates": [
     [
      129.282378,
      36.449763
     ],
     [
      129.282435,
      36.449339
     ],
     [
      129.282506,
      36.449013
     ],
     [
      129.281894,
      36.447634
     ],
     [
      129.281186,
      36.448384
     ]
    ]
   },
   "properties": {
    "leg": "ingress",
    "vehicle": 4,
    "seq": 1,
    "drive_node": 436594565,
    "n_buildings": 4,
    "eta_min": 105.65,
    "abort_min": null,
    "aborted_by_rule": false,
    "closing_min": null
   }
  },
  {
   "type": "Feature",
   "geometry": {
    "type": "LineString",
    "coordinates": [
     [
      129.281186,
      36.448384
     ],
     [
      129.280564,
      36.449006
     ],
     [
      129.279801,
      36.449306
     ],
     [
      129.279389,
      36.449348
     ]
    ]
   },
   "properties": {
    "leg": "egress",
    "vehicle": 4,
    "seq": 1,
    "drive_node": 436594565,
    "n_buildings": 4,
    "eta_min": 105.65,
    "abort_min": null,
    "aborted_by_rule": false,
    "closing_min": null
   }
  },
  {
   "type": "Feature",
   "geometry": {
    "type": "Point",
    "coordinates": [
     129.28119,
     36.448387
    ]
   },
   "properties": {
    "kind": "pickup",
    "vehicle": 4,
    "seq": 1,
    "drive_node": 436594565,
    "n_buildings": 4,
    "eta_min": 105.65,
    "abort_min": null
   }
  },
  {
   "type": "Feature",
   "geometry": {
    "type": "LineString",
    "coordinates": [
     [
      129.279389,
      36.449348
     ],
     [
      129.279801,
      36.449306
     ],
     [
      129.280564,
      36.449006
     ],
     [
      129.281186,
      36.448384
     ],
     [
      129.281894,
      36.447634
     ],
     [
      129.282703,
      36.445946
     ],
     [
      129.289997,
      36.442447
     ],
     [
      129.288584,
      36.438241
     ],
     [
      129.287348,
      36.433951
     ],
     [
      129.2863,
      36.433984
     ],
     [
      129.281817,
      36.420386
     ],
     [
      129.281716,
      36.419838
     ],
     [
      129.283647,
      36.417492
     ],
     [
      129.28407,
      36.416936
     ],
     [
      129.292953,
      36.419147
     ],
     [
      129.295896,
      36.413243
     ],
     [
      129.300631,
      36.40341
     ],
     [
      129.304423,
      36.397142
     ],
     [
      129.306725,
      36.393988
     ],
     [
      129.303997,
      36.387413
     ],
     [
      129.302788,
      36.384772
     ],
     [
      129.305235,
      36.384041
     ],
     [
      129.309187,
      36.38528
     ],
     [
      129.309743,
      36.384721
     ],
     [
      129.349548,
      36.369446
     ],
     [
      129.351772,
      36.367807
     ],
     [
      129.356774,
      36.362113
     ],
     [
      129.357124,
      36.361837
     ],
     [
      129.366,
      36.357805
     ],
     [
      129.366487,
      36.35723
     ],
     [
      129.371712,
      36.352947
     ],
     [
      129.371976,
      36.352826
     ],
     [
      129.373087,
      36.352205
     ],
     [
      129.375957,
      36.351988
     ],
     [
      129.37765,
      36.352917
     ],
     [
      129.378038,
      36.353722
     ],
     [
      129.378403,
      36.354555
     ],
     [
      129.378378,
      36.354889
     ],
     [
      129.378346,
      36.35498
     ],
     [
      129.378182,
      36.355541
     ],
     [
      129.378123,
      36.355893
     ],
     [
      129.378012,
      36.356382
     ],
     [
      129.378389,
      36.357674
     ],
     [
      129.380335,
      36.357499
     ],
     [
      129.380425,
      36.357552
     ],
     [
      129.380382,
      36.357625
     ],
     [
      129.379158,
      36.359997
     ],
     [
      129.382157,
      36.360499
     ],
     [
      129.382358,
      36.361902
     ],
     [
      129.392324,
      36.363394
     ],
     [
      129.393676,
      36.365843
     ],
     [
      129.394116,
      36.36561
     ],
     [
      129.403357,
      36.37847
     ],
     [
      129.406985,
      36.389184
     ],
     [
      129.40755,
      36.389518
     ],
     [
      129.408605,
      36.390258
     ],
     [
      129.416502,
      36.397207
     ],
     [
      129.428016,
      36.408352
     ],
     [
      129.429328,
      36.40999
     ],
     [
      129.429615,
      36.410787
     ],
     [
      129.429643,
      36.411913
     ],
     [
      129.434768,
      36.427866
     ],
     [
      129.434127,
      36.428562
     ],
     [
      129.43324,
      36.435525
     ],
     [
      129.432585,
      36.437005
     ],
     [
      129.432369,
      36.440885
     ],
     [
      129.432533,
      36.441207
     ],
     [
      129.432601,
      36.446208
     ],
     [
      129.432627,
      36.446343
     ],
     [
      129.436023,
      36.46135
     ],
     [
      129.435072,
      36.466188
     ],
     [
      129.431987,
      36.474945
     ],
     [
      129.431914,
      36.475162
     ],
     [
      129.431919,
      36.475361
     ],
     [
      129.433443,
      36.48279
     ],
     [
      129.435077,
      36.484341
     ],
     [
      129.443123,
      36.490051
     ],
     [
      129.442938,
      36.492046
     ],
     [
      129.442876,
      36.493589
     ],
     [
      129.440066,
      36.496383
     ],
     [
      129.436327,
      36.497328
     ],
     [
      129.434477,
      36.498349
     ],
     [
      129.434295,
      36.498649
     ],
     [
      129.430037,
      36.503874
     ],
     [
      129.429699,
      36.504186
     ],
     [
      129.412544,
      36.504904
     ],
     [
      129.411621,
      36.504604
     ],
     [
      129.411555,
      36.504605
     ],
     [
      129.411432,
      36.504625
     ],
     [
      129.411287,
      36.504636
     ],
     [
      129.410594,
      36.505026
     ],
     [
      129.409636,
      36.5056
     ],
     [
      129.402577,
      36.520099
     ],
     [
      129.403638,
      36.52147
     ],
     [
      129.403723,
      36.521739
     ],
     [
      129.403462,
      36.521995
     ],
     [
      129.403333,
      36.522232
     ],
     [
      129.403282,
      36.522404
     ],
     [
      129.403241,
      36.522549
     ],
     [
      129.407753,
      36.528047
     ],
     [
      129.407174,
      36.530851
     ],
     [
      129.407168,
      36.5315
     ],
     [
      129.406017,
      36.532374
     ],
     [
      129.405644,
      36.53266
     ],
     [
      129.405634,
      36.532705
     ],
     [
      129.405627,
      36.532876
     ],
     [
      129.405678,
      36.533137
     ],
     [
      129.40592,
      36.53481
     ],
     [
      129.405996,
      36.535151
     ],
     [
      129.405908,
      36.535215
     ],
     [
      129.405556,
      36.535888
     ],
     [
      129.405646,
      36.536842
     ],
     [
      129.405718,
      36.537048
     ],
     [
      129.405668,
      36.537752
     ],
     [
      129.406279,
      36.538959
     ],
     [
      129.40656,
      36.539045
     ],
     [
      129.406099,
      36.539377
     ],
     [
      129.405392,
      36.539667
     ],
     [
      129.405776,
      36.540319
     ],
     [
      129.406312,
      36.541221
     ],
     [
      129.407595,
      36.543418
     ],
     [
      129.40743,
      36.543988
     ],
     [
      129.407338,
      36.544341
     ],
     [
      129.406743,
      36.549678
     ],
     [
      129.406728,
      36.549967
     ]
    ]
   },
   "properties": {
    "leg": "ingress",
    "vehicle": 4,
    "seq": 2,
    "drive_node": 436727385,
    "n_buildings": 5,
    "eta_min": 200.62,
    "abort_min": 168.0,
    "aborted_by_rule": true,
    "closing_min": 180.0
   }
  },
  {
   "type": "Feature",
   "geometry": {
    "type": "LineString",
    "coordinates": [
     [
      129.406728,
      36.549967
     ],
     [
      129.406743,
      36.549678
     ],
     [
      129.407338,
      36.544341
     ],
     [
      129.40743,
      36.543988
     ],
     [
      129.407595,
      36.543418
     ],
     [
      129.408226,
      36.541839
     ],
     [
      129.40845,
      36.541376
     ],
     [
      129.409999,
      36.540351
     ],
     [
      129.410077,
      36.540313
     ],
     [
      129.410885,
      36.54003
     ],
     [
      129.411009,
      36.540082
     ],
     [
      129.412299,
      36.540756
     ],
     [
      129.413489,
      36.540998
     ],
     [
      129.41504,
      36.541388
     ],
     [
      129.417932,
      36.540413
     ],
     [
      129.439677,
      36.530894
     ]
    ]
   },
   "properties": {
    "leg": "egress",
    "vehicle": 4,
    "seq": 2,
    "drive_node": 436727385,
    "n_buildings": 5,
    "eta_min": 200.62,
    "abort_min": 168.0,
    "aborted_by_rule": true,
    "closing_min": null
   }
  },
  {
   "type": "Feature",
   "geometry": {
    "type": "Point",
    "coordinates": [
     129.406725,
     36.549968
    ]
   },
   "properties": {
    "kind": "pickup",
    "vehicle": 4,
    "seq": 2,
    "drive_node": 436727385,
    "n_buildings": 5,
    "eta_min": 200.62,
    "abort_min": 168.0
   }
  },
  {
   "type": "Feature",
   "geometry": {
    "type": "LineString",
    "coordinates": [
     [
      129.439677,
      36.530894
     ],
     [
      129.417932,
      36.540413
     ],
     [
      129.41504,
      36.541388
     ],
     [
      129.413489,
      36.540998
     ],
     [
      129.412299,
      36.540756
     ],
     [
      129.411009,
      36.540082
     ],
     [
      129.410885,
      36.54003
     ],
     [
      129.41022,
      36.539788
     ],
     [
      129.409357,
      36.539685
     ],
     [
      129.409189,
      36.53967
     ],
     [
      129.409189,
      36.539643
     ],
     [
      129.409363,
      36.539478
     ],
     [
      129.409542,
      36.539006
     ],
     [
      129.409985,
      36.537944
     ],
     [
      129.410175,
      36.537491
     ],
     [
      129.409533,
      36.535905
     ],
     [
      129.408201,
      36.534458
     ],
     [
      129.406424,
      36.533504
     ],
     [
      129.405678,
      36.533137
     ],
     [
      129.405627,
      36.532876
     ],
     [
      129.405634,
      36.532705
     ],
     [
      129.405644,
      36.53266
     ],
     [
      129.406017,
      36.532374
     ],
     [
      129.407168,
      36.5315
     ],
     [
      129.407174,
      36.530851
     ],
     [
      129.407753,
      36.528047
     ],
     [
      129.403241,
      36.522549
     ],
     [
      129.403282,
      36.522404
     ],
     [
      129.403333,
      36.522232
     ],
     [
      129.403462,
      36.521995
     ],
     [
      129.403723,
      36.521739
     ],
     [
      129.40403,
      36.52149
     ],
     [
      129.404326,
      36.521251
     ],
     [
      129.404566,
      36.521031
     ],
     [
      129.404708,
      36.520903
     ],
     [
      129.403224,
      36.515023
     ],
     [
      129.405361,
      36.511581
     ],
     [
      129.4058,
      36.510781
     ],
     [
      129.407002,
      36.509275
     ],
     [
      129.408629,
      36.508221
     ],
     [
      129.408804,
      36.508101
     ],
     [
      129.409248,
      36.507526
     ],
     [
      129.410647,
      36.505385
     ],
     [
      129.410735,
      36.50533
     ],
     [
      129.410933,
      36.505209
     ],
     [
      129.411336,
      36.504779
     ],
     [
      129.411287,
      36.504636
     ],
     [
      129.411274,
      36.504537
     ],
     [
      129.411259,
      36.504402
     ],
     [
      129.411004,
      36.50401
     ],
     [
      129.411026,
      36.503558
     ],
     [
      129.410868,
      36.497134
     ],
     [
      129.410933,
      36.497034
     ],
     [
      129.407524,
      36.476835
     ],
     [
      129.40611,
      36.474261
     ]
    ]
   },
   "properties": {
    "leg": "ingress",
    "vehicle": 4,
    "seq": 3,
    "drive_node": 436738635,
    "n_buildings": 4,
    "eta_min": 245.71,
    "abort_min": null,
    "aborted_by_rule": false,
    "closing_min": null
   }
  },
  {
   "type": "Feature",
   "geometry": {
    "type": "LineString",
    "coordinates": [
     [
      129.40611,
      36.474261
     ],
     [
      129.407524,
      36.476835
     ],
     [
      129.410933,
      36.497034
     ],
     [
      129.410868,
      36.497134
     ],
     [
      129.411026,
      36.503558
     ],
     [
      129.411004,
      36.50401
     ],
     [
      129.411259,
      36.504402
     ],
     [
      129.411384,
      36.504499
     ],
     [
      129.411453,
      36.504552
     ],
     [
      129.411621,
      36.504604
     ],
     [
      129.412544,
      36.504904
     ],
     [
      129.429699,
      36.504186
     ],
     [
      129.430037,
      36.503874
     ],
     [
      129.434295,
      36.498649
     ],
     [
      129.434477,
      36.498349
     ],
     [
      129.436327,
      36.497328
     ],
     [
      129.440066,
      36.496383
     ],
     [
      129.442876,
      36.493589
     ],
     [
      129.442938,
      36.492046
     ],
     [
      129.443123,
      36.490051
     ]
    ]
   },
   "properties": {
    "leg": "egress",
    "vehicle": 4,
    "seq": 3,
    "drive_node": 436738635,
    "n_buildings": 4,
    "eta_min": 245.71,
    "abort_min": null,
    "aborted_by_rule": false,
    "closing_min": null
   }
  },
  {
   "type": "Feature",
   "geometry": {
    "type": "Point",
    "coordinates": [
     129.406114,
     36.474263
    ]
   },
   "properties": {
    "kind": "pickup",
    "vehicle": 4,
    "seq": 3,
    "drive_node": 436738635,
    "n_buildings": 4,
    "eta_min": 245.71,
    "abort_min": null
   }
  },
  {
   "type": "Feature",
   "geometry": {
    "type": "LineString",
    "coordinates": [
     [
      129.443123,
      36.490051
     ],
     [
      129.435077,
      36.484341
     ],
     [
      129.433443,
      36.48279
     ],
     [
      129.431919,
      36.475361
     ],
     [
      129.431914,
      36.475162
     ],
     [
      129.431987,
      36.474945
     ],
     [
      129.435072,
      36.466188
     ],
     [
      129.436023,
      36.46135
     ],
     [
      129.432627,
      36.446343
     ],
     [
      129.432601,
      36.446208
     ],
     [
      129.432533,
      36.441207
     ],
     [
      129.432369,
      36.440885
     ],
     [
      129.432585,
      36.437005
     ],
     [
      129.43324,
      36.435525
     ],
     [
      129.434127,
      36.428562
     ],
     [
      129.434768,
      36.427866
     ],
     [
      129.429643,
      36.411913
     ],
     [
      129.429615,
      36.410787
     ],
     [
      129.429328,
      36.40999
     ],
     [
      129.428016,
      36.408352
     ]
    ]
   },
   "properties": {
    "leg": "ingress",
    "vehicle": 4,
    "seq": 4,
    "drive_node": 436912674,
    "n_buildings": 50,
    "eta_min": 292.52,
    "abort_min": null,
    "aborted_by_rule": false,
    "closing_min": null
   }
  },
  {
   "type": "Feature",
   "geometry": {
    "type": "LineString",
    "coordinates": [
     [
      129.428016,
      36.408352
     ],
     [
      129.429328,
      36.40999
     ],
     [
      129.429615,
      36.410787
     ],
     [
      129.429643,
      36.411913
     ],
     [
      129.434768,
      36.427866
     ]
    ]
   },
   "properties": {
    "leg": "egress",
    "vehicle": 4,
    "seq": 4,
    "drive_node": 436912674,
    "n_buildings": 50,
    "eta_min": 292.52,
    "abort_min": null,
    "aborted_by_rule": false,
    "closing_min": null
   }
  },
  {
   "type": "Feature",
   "geometry": {
    "type": "Point",
    "coordinates": [
     129.428021,
     36.408357
    ]
   },
   "properties": {
    "kind": "pickup",
    "vehicle": 4,
    "seq": 4,
    "drive_node": 436912674,
    "n_buildings": 50,
    "eta_min": 292.52,
    "abort_min": null
   }
  },
  {
   "type": "Feature",
   "geometry": {
    "type": "LineString",
    "coordinates": [
     [
      129.434768,
      36.427866
     ],
     [
      129.434127,
      36.428562
     ],
     [
      129.43324,
      36.435525
     ],
     [
      129.432585,
      36.437005
     ],
     [
      129.432369,
      36.440885
     ],
     [
      129.432533,
      36.441207
     ],
     [
      129.432601,
      36.446208
     ],
     [
      129.432627,
      36.446343
     ],
     [
      129.436023,
      36.46135
     ],
     [
      129.435072,
      36.466188
     ],
     [
      129.431987,
      36.474945
     ],
     [
      129.431914,
      36.475162
     ],
     [
      129.431919,
      36.475361
     ],
     [
      129.433443,
      36.48279
     ],
     [
      129.435077,
      36.484341
     ]
    ]
   },
   "properties": {
    "leg": "ingress",
    "vehicle": 4,
    "seq": 5,
    "drive_node": 436913075,
    "n_buildings": 32,
    "eta_min": 326.68,
    "abort_min": null,
    "aborted_by_rule": false,
    "closing_min": null
   }
  },
  {
   "type": "Feature",
   "geometry": {
    "type": "LineString",
    "coordinates": [
     [
      129.435077,
      36.484341
     ],
     [
      129.443123,
      36.490051
     ]
    ]
   },
   "properties": {
    "leg": "egress",
    "vehicle": 4,
    "seq": 5,
    "drive_node": 436913075,
    "n_buildings": 32,
    "eta_min": 326.68,
    "abort_min": null,
    "aborted_by_rule": false,
    "closing_min": null
   }
  },
  {
   "type": "Feature",
   "geometry": {
    "type": "Point",
    "coordinates": [
     129.435072,
     36.484338
    ]
   },
   "properties": {
    "kind": "pickup",
    "vehicle": 4,
    "seq": 5,
    "drive_node": 436913075,
    "n_buildings": 32,
    "eta_min": 326.68,
    "abort_min": null
   }
  },
  {
   "type": "Feature",
   "geometry": {
    "type": "LineString",
    "coordinates": [
     [
      129.443123,
      36.490051
     ],
     [
      129.442938,
      36.492046
     ],
     [
      129.442876,
      36.493589
     ],
     [
      129.440066,
      36.496383
     ],
     [
      129.442044,
      36.504959
     ],
     [
      129.442158,
      36.505949
     ],
     [
      129.44228,
      36.506821
     ],
     [
      129.443176,
      36.507789
     ],
     [
      129.442926,
      36.508523
     ],
     [
      129.444322,
      36.510772
     ],
     [
      129.44388,
      36.511383
     ],
     [
      129.443775,
      36.511664
     ],
     [
      129.439677,
      36.530894
     ],
     [
      129.417932,
      36.540413
     ],
     [
      129.41504,
      36.541388
     ],
     [
      129.413489,
      36.540998
     ],
     [
      129.412299,
      36.540756
     ],
     [
      129.411009,
      36.540082
     ],
     [
      129.410885,
      36.54003
     ],
     [
      129.41022,
      36.539788
     ],
     [
      129.409357,
      36.539685
     ],
     [
      129.409189,
      36.53967
     ],
     [
      129.409135,
      36.539743
     ],
     [
      129.408989,
      36.539709
     ],
     [
      129.408889,
      36.539711
     ],
     [
      129.40827,
      36.539531
     ],
     [
      129.407517,
      36.539327
     ],
     [
      129.40656,
      36.539045
     ],
     [
      129.406279,
      36.538959
     ],
     [
      129.405469,
      36.53872
     ],
     [
      129.404861,
      36.538522
     ],
     [
      129.404523,
      36.53841
     ],
     [
      129.404309,
      36.538351
     ],
     [
      129.404197,
      36.538316
     ],
     [
      129.403509,
      36.538039
     ],
     [
      129.403311,
      36.540476
     ],
     [
      129.402879,
      36.540609
     ],
     [
      129.397966,
      36.542066
     ],
     [
      129.397444,
      36.542201
     ],
     [
      129.397322,
      36.542212
     ],
     [
      129.396831,
      36.542238
     ],
     [
      129.39644,
      36.542235
     ],
     [
      129.396026,
      36.542223
     ],
     [
      129.395635,
      36.542212
     ],
     [
      129.395244,
      36.542191
     ],
     [
      129.38413,
      36.542682
     ],
     [
      129.38376,
      36.542652
     ],
     [
      129.38106,
      36.542307
     ],
     [
      129.380833,
      36.542185
     ],
     [
      129.38042,
      36.542182
     ],
     [
      129.380162,
      36.544908
     ],
     [
      129.375161,
      36.552928
     ],
     [
      129.374463,
      36.552678
     ],
     [
      129.372986,
      36.552142
     ],
     [
      129.372006,
      36.551806
     ],
     [
      129.370235,
      36.551104
     ],
     [
      129.369444,
      36.550728
     ],
     [
      129.367772,
      36.549952
     ],
     [
      129.36549,
      36.548879
     ],
     [
      129.360096,
      36.546197
     ],
     [
      129.348946,
      36.546604
     ],
     [
      129.348368,
      36.546703
     ],
     [
      129.347201,
      36.546956
     ],
     [
      129.347459,
      36.546069
     ],
     [
      129.346615,
      36.546307
     ],
     [
      129.346811,
      36.549369
     ],
     [
      129.346801,
      36.549423
     ],
     [
      129.34657,
      36.550039
     ],
     [
      129.347483,
      36.551792
     ],
     [
      129.34745,
      36.551819
     ],
     [
      129.345115,
      36.55273
     ],
     [
      129.345094,
      36.552784
     ],
     [
      129.34269,
      36.555535
     ],
     [
      129.342488,
      36.571483
     ],
     [
      129.342185,
      36.584116
     ],
     [
      129.341779,
      36.587764
     ]
    ]
   },
   "properties": {
    "leg": "ingress",
    "vehicle": 4,
    "seq": 6,
    "drive_node": 437091055,
    "n_buildings": 2,
    "eta_min": 379.73,
    "abort_min": null,
    "aborted_by_rule": false,
    "closing_min": null
   }
  },
  {
   "type": "Feature",
   "geometry": {
    "type": "LineString",
    "coordinates": [
     [
      129.341779,
      36.587764
     ],
     [
      129.342185,
      36.584116
     ],
     [
      129.342488,
      36.571483
     ],
     [
      129.34269,
      36.555535
     ],
     [
      129.341834,
      36.554791
     ],
     [
      129.34263,
      36.554436
     ],
     [
      129.345094,
      36.552784
     ],
     [
      129.345115,
      36.55273
     ],
     [
      129.34657,
      36.550039
     ],
     [
      129.346801,
      36.549423
     ],
     [
      129.346811,
      36.549369
     ],
     [
      129.346615,
      36.546307
     ],
     [
      129.347459,
      36.546069
     ],
     [
      129.347823,
      36.545892
     ],
     [
      129.348368,
      36.546703
     ],
     [
      129.348946,
      36.546604
     ],
     [
      129.360096,
      36.546197
     ],
     [
      129.36549,
      36.548879
     ],
     [
      129.367772,
      36.549952
     ],
     [
      129.369444,
      36.550728
     ],
     [
      129.370235,
      36.551104
     ],
     [
      129.372006,
      36.551806
     ],
     [
      129.372986,
      36.552142
     ],
     [
      129.374463,
      36.552678
     ],
     [
      129.375161,
      36.552928
     ],
     [
      129.380162,
      36.544908
     ],
     [
      129.38042,
      36.542182
     ],
     [
      129.380833,
      36.542185
     ],
     [
      129.38106,
      36.542307
     ],
     [
      129.38376,
      36.542652
     ],
     [
      129.38413,
      36.542682
     ],
     [
      129.395244,
      36.542191
     ],
     [
      129.395635,
      36.542212
     ],
     [
      129.396026,
      36.542223
     ],
     [
      129.39644,
      36.542235
     ],
     [
      129.396831,
      36.542238
     ],
     [
      129.397322,
      36.542212
     ],
     [
      129.397444,
      36.542201
     ],
     [
      129.397966,
      36.542066
     ],
     [
      129.402879,
      36.540609
     ],
     [
      129.403311,
      36.540476
     ],
     [
      129.403434,
      36.540447
     ],
     [
      129.403838,
      36.540521
     ],
     [
      129.40394,
      36.540583
     ],
     [
      129.404084,
      36.540563
     ],
     [
      129.404117,
      36.540544
     ],
     [
      129.404193,
      36.540444
     ],
     [
      129.404443,
      36.540629
     ],
     [
      129.40477,
      36.540723
     ],
     [
      129.406312,
      36.541221
     ],
     [
      129.406492,
      36.541272
     ],
     [
      129.406582,
      36.541307
     ],
     [
      129.40737,
      36.541556
     ],
     [
      129.408226,
      36.541839
     ],
     [
      129.40845,
      36.541376
     ],
     [
      129.409999,
      36.540351
     ],
     [
      129.410077,
      36.540313
     ],
     [
      129.410885,
      36.54003
     ],
     [
      129.411009,
      36.540082
     ],
     [
      129.412299,
      36.540756
     ],
     [
      129.413489,
      36.540998
     ],
     [
      129.41504,
      36.541388
     ],
     [
      129.417932,
      36.540413
     ],
     [
      129.439677,
      36.530894
     ]
    ]
   },
   "properties": {
    "leg": "egress",
    "vehicle": 4,
    "seq": 6,
    "drive_node": 437091055,
    "n_buildings": 2,
    "eta_min": 379.73,
    "abort_min": null,
    "aborted_by_rule": false,
    "closing_min": null
   }
  },
  {
   "type": "Feature",
   "geometry": {
    "type": "Point",
    "coordinates": [
     129.341784,
     36.587762
    ]
   },
   "properties": {
    "kind": "pickup",
    "vehicle": 4,
    "seq": 6,
    "drive_node": 437091055,
    "n_buildings": 2,
    "eta_min": 379.73,
    "abort_min": null
   }
  },
  {
   "type": "Feature",
   "geometry": {
    "type": "LineString",
    "coordinates": [
     [
      129.439677,
      36.530894
     ],
     [
      129.443775,
      36.511664
     ],
     [
      129.44388,
      36.511383
     ],
     [
      129.444322,
      36.510772
     ],
     [
      129.442926,
      36.508523
     ],
     [
      129.443176,
      36.507789
     ],
     [
      129.44228,
      36.506821
     ],
     [
      129.442158,
      36.505949
     ],
     [
      129.442044,
      36.504959
     ],
     [
      129.440066,
      36.496383
     ],
     [
      129.442876,
      36.493589
     ],
     [
      129.442938,
      36.492046
     ],
     [
      129.443123,
      36.490051
     ],
     [
      129.435077,
      36.484341
     ],
     [
      129.433443,
      36.48279
     ],
     [
      129.431919,
      36.475361
     ],
     [
      129.431914,
      36.475162
     ],
     [
      129.431987,
      36.474945
     ],
     [
      129.435072,
      36.466188
     ],
     [
      129.436023,
      36.46135
     ],
     [
      129.432627,
      36.446343
     ],
     [
      129.432601,
      36.446208
     ],
     [
      129.432533,
      36.441207
     ],
     [
      129.432369,
      36.440885
     ],
     [
      129.432585,
      36.437005
     ],
     [
      129.43324,
      36.435525
     ],
     [
      129.434127,
      36.428562
     ],
     [
      129.434768,
      36.427866
     ],
     [
      129.429643,
      36.411913
     ],
     [
      129.429615,
      36.410787
     ],
     [
      129.429328,
      36.40999
     ],
     [
      129.428016,
      36.408352
     ],
     [
      129.416502,
      36.397207
     ],
     [
      129.408605,
      36.390258
     ],
     [
      129.40755,
      36.389518
     ],
     [
      129.406985,
      36.389184
     ],
     [
      129.403357,
      36.37847
     ],
     [
      129.394116,
      36.36561
     ],
     [
      129.385614,
      36.359228
     ],
     [
      129.384764,
      36.358646
     ],
     [
      129.384156,
      36.358367
     ],
     [
      129.383634,
      36.358439
     ],
     [
      129.382483,
      36.358781
     ],
     [
      129.382133,
      36.359508
     ],
     [
      129.382157,
      36.360499
     ],
     [
      129.379158,
      36.359997
     ],
     [
      129.379058,
      36.359998
     ],
     [
      129.380271,
      36.357644
     ],
     [
      129.380335,
      36.357499
     ],
     [
      129.380567,
      36.356973
     ],
     [
      129.379586,
      36.355537
     ],
     [
      129.379552,
      36.355528
     ],
     [
      129.378726,
      36.355496
     ],
     [
      129.378182,
      36.355541
     ],
     [
      129.377804,
      36.355592
     ],
     [
      129.37765,
      36.352917
     ],
     [
      129.375957,
      36.351988
     ],
     [
      129.373087,
      36.352205
     ],
     [
      129.371976,
      36.352826
     ],
     [
      129.371712,
      36.352947
     ]
    ]
   },
   "properties": {
    "leg": "ingress",
    "vehicle": 4,
    "seq": 7,
    "drive_node": 437253086,
    "n_buildings": 3,
    "eta_min": 461.34,
    "abort_min": null,
    "aborted_by_rule": false,
    "closing_min": null
   }
  },
  {
   "type": "Feature",
   "geometry": {
    "type": "LineString",
    "coordinates": [
     [
      129.371712,
      36.352947
     ],
     [
      129.371976,
      36.352826
     ],
     [
      129.373087,
      36.352205
     ],
     [
      129.375957,
      36.351988
     ],
     [
      129.37765,
      36.352917
     ],
     [
      129.378038,
      36.353722
     ],
     [
      129.378403,
      36.354555
     ],
     [
      129.378378,
      36.354889
     ],
     [
      129.378346,
      36.35498
     ],
     [
      129.378182,
      36.355541
     ],
     [
      129.378123,
      36.355893
     ],
     [
      129.378012,
      36.356382
     ],
     [
      129.378389,
      36.357674
     ],
     [
      129.378132,
      36.358129
     ],
     [
      129.377524,
      36.358796
     ],
     [
      129.378178,
      36.35912
     ],
     [
      129.37799,
      36.360078
     ],
     [
      129.377816,
      36.360721
     ],
     [
      129.376824,
      36.360727
     ],
     [
      129.376616,
      36.361803
     ]
    ]
   },
   "properties": {
    "leg": "egress",
    "vehicle": 4,
    "seq": 7,
    "drive_node": 437253086,
    "n_buildings": 3,
    "eta_min": 461.34,
    "abort_min": null,
    "aborted_by_rule": false,
    "closing_min": null
   }
  },
  {
   "type": "Feature",
   "geometry": {
    "type": "Point",
    "coordinates": [
     129.371709,
     36.352946
    ]
   },
   "properties": {
    "kind": "pickup",
    "vehicle": 4,
    "seq": 7,
    "drive_node": 437253086,
    "n_buildings": 3,
    "eta_min": 461.34,
    "abort_min": null
   }
  },
  {
   "type": "Feature",
   "geometry": {
    "type": "LineString",
    "coordinates": [
     [
      129.376616,
      36.361803
     ],
     [
      129.376536,
      36.362201
     ],
     [
      129.377537,
      36.362113
     ],
     [
      129.378077,
      36.361852
     ],
     [
      129.379058,
      36.359998
     ],
     [
      129.379158,
      36.359997
     ],
     [
      129.382157,
      36.360499
     ],
     [
      129.382358,
      36.361902
     ],
     [
      129.392324,
      36.363394
     ],
     [
      129.393676,
      36.365843
     ],
     [
      129.394116,
      36.36561
     ],
     [
      129.403357,
      36.37847
     ],
     [
      129.406985,
      36.389184
     ],
     [
      129.40755,
      36.389518
     ],
     [
      129.408605,
      36.390258
     ],
     [
      129.416502,
      36.397207
     ],
     [
      129.428016,
      36.408352
     ],
     [
      129.429328,
      36.40999
     ],
     [
      129.429615,
      36.410787
     ],
     [
      129.429643,
      36.411913
     ],
     [
      129.434768,
      36.427866
     ],
     [
      129.434127,
      36.428562
     ],
     [
      129.43324,
      36.435525
     ],
     [
      129.432585,
      36.437005
     ],
     [
      129.432369,
      36.440885
     ],
     [
      129.432533,
      36.441207
     ],
     [
      129.432601,
      36.446208
     ],
     [
      129.432627,
      36.446343
     ],
     [
      129.436023,
      36.46135
     ],
     [
      129.435072,
      36.466188
     ],
     [
      129.431987,
      36.474945
     ],
     [
      129.431914,
      36.475162
     ],
     [
      129.431919,
      36.475361
     ],
     [
      129.433443,
      36.48279
     ],
     [
      129.435077,
      36.484341
     ],
     [
      129.443123,
      36.490051
     ],
     [
      129.442938,
      36.492046
     ],
     [
      129.442876,
      36.493589
     ],
     [
      129.440066,
      36.496383
     ],
     [
      129.442044,
      36.504959
     ],
     [
      129.442158,
      36.505949
     ],
     [
      129.44228,
      36.506821
     ],
     [
      129.443176,
      36.507789
     ],
     [
      129.442926,
      36.508523
     ],
     [
      129.444322,
      36.510772
     ],
     [
      129.44388,
      36.511383
     ],
     [
      129.443775,
      36.511664
     ],
     [
      129.439677,
      36.530894
     ],
     [
      129.417932,
      36.540413
     ],
     [
      129.41504,
      36.541388
     ],
     [
      129.413489,
      36.540998
     ],
     [
      129.412299,
      36.540756
     ],
     [
      129.411009,
      36.540082
     ],
     [
      129.410885,
      36.54003
     ],
     [
      129.41022,
      36.539788
     ],
     [
      129.409357,
      36.539685
     ],
     [
      129.409189,
      36.53967
     ],
     [
      129.409135,
      36.539743
     ],
     [
      129.408989,
      36.539709
     ],
     [
      129.408889,
      36.539711
     ],
     [
      129.40827,
      36.539531
     ],
     [
      129.407517,
      36.539327
     ],
     [
      129.40656,
      36.539045
     ]
    ]
   },
   "properties": {
    "leg": "ingress",
    "vehicle": 4,
    "seq": 8,
    "drive_node": 437261613,
    "n_buildings": 3,
    "eta_min": 526.61,
    "abort_min": null,
    "aborted_by_rule": false,
    "closing_min": null
   }
  },
  {
   "type": "Feature",
   "geometry": {
    "type": "LineString",
    "coordinates": [
     [
      129.40656,
      36.539045
     ],
     [
      129.407517,
      36.539327
     ],
     [
      129.40827,
      36.539531
     ],
     [
      129.408889,
      36.539711
     ],
     [
      129.408989,
      36.539709
     ],
     [
      129.409135,
      36.539743
     ],
     [
      129.409189,
      36.53967
     ],
     [
      129.409357,
      36.539685
     ],
     [
      129.41022,
      36.539788
     ],
     [
      129.410885,
      36.54003
     ],
     [
      129.411009,
      36.540082
     ],
     [
      129.412299,
      36.540756
     ],
     [
      129.413489,
      36.540998
     ],
     [
      129.41504,
      36.541388
     ],
     [
      129.417932,
      36.540413
     ],
     [
      129.439677,
      36.530894
     ]
    ]
   },
   "properties": {
    "leg": "egress",
    "vehicle": 4,
    "seq": 8,
    "drive_node": 437261613,
    "n_buildings": 3,
    "eta_min": 526.61,
    "abort_min": null,
    "aborted_by_rule": false,
    "closing_min": null
   }
  },
  {
   "type": "Feature",
   "geometry": {
    "type": "Point",
    "coordinates": [
     129.406559,
     36.539046
    ]
   },
   "properties": {
    "kind": "pickup",
    "vehicle": 4,
    "seq": 8,
    "drive_node": 437261613,
    "n_buildings": 3,
    "eta_min": 526.61,
    "abort_min": null
   }
  },
  {
   "type": "Feature",
   "geometry": {
    "type": "LineString",
    "coordinates": [
     [
      129.439677,
      36.530894
     ],
     [
      129.417932,
      36.540413
     ],
     [
      129.41504,
      36.541388
     ],
     [
      129.413489,
      36.540998
     ],
     [
      129.412299,
      36.540756
     ],
     [
      129.411009,
      36.540082
     ],
     [
      129.410885,
      36.54003
     ],
     [
      129.41022,
      36.539788
     ],
     [
      129.409357,
      36.539685
     ],
     [
      129.409189,
      36.53967
     ],
     [
      129.409135,
      36.539743
     ],
     [
      129.408989,
      36.539709
     ],
     [
      129.408889,
      36.539711
     ],
     [
      129.40827,
      36.539531
     ],
     [
      129.407517,
      36.539327
     ],
     [
      129.40656,
      36.539045
     ],
     [
      129.406279,
      36.538959
     ],
     [
      129.405469,
      36.53872
     ],
     [
      129.404861,
      36.538522
     ],
     [
      129.404523,
      36.53841
     ],
     [
      129.404309,
      36.538351
     ],
     [
      129.404197,
      36.538316
     ],
     [
      129.403509,
      36.538039
     ],
     [
      129.403311,
      36.540476
     ],
     [
      129.402879,
      36.540609
     ],
     [
      129.397966,
      36.542066
     ],
     [
      129.397444,
      36.542201
     ],
     [
      129.397322,
      36.542212
     ],
     [
      129.396831,
      36.542238
     ],
     [
      129.39644,
      36.542235
     ],
     [
      129.396026,
      36.542223
     ],
     [
      129.395635,
      36.542212
     ],
     [
      129.395244,
      36.542191
     ],
     [
      129.38413,
      36.542682
     ],
     [
      129.38376,
      36.542652
     ],
     [
      129.38106,
      36.542307
     ],
     [
      129.380833,
      36.542185
     ],
     [
      129.38042,
      36.542182
     ],
     [
      129.380162,
      36.544908
     ],
     [
      129.375161,
      36.552928
     ],
     [
      129.374463,
      36.552678
     ],
     [
      129.372986,
      36.552142
     ],
     [
      129.372006,
      36.551806
     ],
     [
      129.370235,
      36.551104
     ],
     [
      129.369444,
      36.550728
     ],
     [
      129.367772,
      36.549952
     ],
     [
      129.36549,
      36.548879
     ],
     [
      129.360096,
      36.546197
     ],
     [
      129.348946,
      36.546604
     ],
     [
      129.348368,
      36.546703
     ],
     [
      129.347201,
      36.546956
     ],
     [
      129.347459,
      36.546069
     ],
     [
      129.346615,
      36.546307
     ],
     [
      129.339566,
      36.547218
     ],
     [
      129.338513,
      36.547135
     ],
     [
      129.321515,
      36.554472
     ],
     [
      129.315724,
      36.563394
     ],
     [
      129.308421,
      36.574601
     ],
     [
      129.293349,
      36.575703
     ],
     [
      129.276446,
      36.576452
     ],
     [
      129.27506,
      36.57695
     ]
    ]
   },
   "properties": {
    "leg": "ingress",
    "vehicle": 4,
    "seq": 9,
    "drive_node": 437261948,
    "n_buildings": 7,
    "eta_min": 582.9,
    "abort_min": null,
    "aborted_by_rule": false,
    "closing_min": null
   }
  },
  {
   "type": "Feature",
   "geometry": {
    "type": "LineString",
    "coordinates": [
     [
      129.27506,
      36.57695
     ],
     [
      129.276446,
      36.576452
     ],
     [
      129.293349,
      36.575703
     ],
     [
      129.308421,
      36.574601
     ],
     [
      129.315724,
      36.563394
     ],
     [
      129.321515,
      36.554472
     ],
     [
      129.338513,
      36.547135
     ],
     [
      129.339566,
      36.547218
     ],
     [
      129.346615,
      36.546307
     ],
     [
      129.347459,
      36.546069
     ],
     [
      129.347823,
      36.545892
     ],
     [
      129.348368,
      36.546703
     ],
     [
      129.348946,
      36.546604
     ],
     [
      129.360096,
      36.546197
     ],
     [
      129.36549,
      36.548879
     ],
     [
      129.367772,
      36.549952
     ],
     [
      129.369444,
      36.550728
     ],
     [
      129.370235,
      36.551104
     ],
     [
      129.372006,
      36.551806
     ],
     [
      129.372986,
      36.552142
     ],
     [
      129.374463,
      36.552678
     ],
     [
      129.375161,
      36.552928
     ],
     [
      129.380162,
      36.544908
     ],
     [
      129.38042,
      36.542182
     ],
     [
      129.380833,
      36.542185
     ],
     [
      129.38106,
      36.542307
     ],
     [
      129.38376,
      36.542652
     ],
     [
      129.38413,
      36.542682
     ],
     [
      129.395244,
      36.542191
     ],
     [
      129.395635,
      36.542212
     ],
     [
      129.396026,
      36.542223
     ],
     [
      129.39644,
      36.542235
     ],
     [
      129.396831,
      36.542238
     ],
     [
      129.397322,
      36.542212
     ],
     [
      129.397444,
      36.542201
     ],
     [
      129.397966,
      36.542066
     ],
     [
      129.402879,
      36.540609
     ],
     [
      129.403311,
      36.540476
     ],
     [
      129.403434,
      36.540447
     ],
     [
      129.403838,
      36.540521
     ],
     [
      129.40394,
      36.540583
     ],
     [
      129.404084,
      36.540563
     ],
     [
      129.404117,
      36.540544
     ],
     [
      129.404193,
      36.540444
     ],
     [
      129.404443,
      36.540629
     ],
     [
      129.40477,
      36.540723
     ],
     [
      129.406312,
      36.541221
     ],
     [
      129.406492,
      36.541272
     ],
     [
      129.406582,
      36.541307
     ],
     [
      129.40737,
      36.541556
     ],
     [
      129.408226,
      36.541839
     ],
     [
      129.40845,
      36.541376
     ],
     [
      129.409999,
      36.540351
     ],
     [
      129.410077,
      36.540313
     ],
     [
      129.410885,
      36.54003
     ],
     [
      129.411009,
      36.540082
     ],
     [
      129.412299,
      36.540756
     ],
     [
      129.413489,
      36.540998
     ],
     [
      129.41504,
      36.541388
     ],
     [
      129.417932,
      36.540413
     ],
     [
      129.439677,
      36.530894
     ]
    ]
   },
   "properties": {
    "leg": "egress",
    "vehicle": 4,
    "seq": 9,
    "drive_node": 437261948,
    "n_buildings": 7,
    "eta_min": 582.9,
    "abort_min": null,
    "aborted_by_rule": false,
    "closing_min": null
   }
  },
  {
   "type": "Feature",
   "geometry": {
    "type": "Point",
    "coordinates": [
     129.275057,
     36.576948
    ]
   },
   "properties": {
    "kind": "pickup",
    "vehicle": 4,
    "seq": 9,
    "drive_node": 437261948,
    "n_buildings": 7,
    "eta_min": 582.9,
    "abort_min": null
   }
  },
  {
   "type": "Feature",
   "geometry": {
    "type": "LineString",
    "coordinates": [
     [
      129.439677,
      36.530894
     ],
     [
      129.443775,
      36.511664
     ],
     [
      129.44388,
      36.511383
     ],
     [
      129.444322,
      36.510772
     ],
     [
      129.442926,
      36.508523
     ],
     [
      129.443176,
      36.507789
     ],
     [
      129.44228,
      36.506821
     ],
     [
      129.442158,
      36.505949
     ],
     [
      129.442044,
      36.504959
     ],
     [
      129.440066,
      36.496383
     ],
     [
      129.442876,
      36.493589
     ],
     [
      129.442938,
      36.492046
     ],
     [
      129.443123,
      36.490051
     ],
     [
      129.435077,
      36.484341
     ],
     [
      129.433443,
      36.48279
     ],
     [
      129.431919,
      36.475361
     ],
     [
      129.431914,
      36.475162
     ],
     [
      129.431987,
      36.474945
     ],
     [
      129.435072,
      36.466188
     ],
     [
      129.436023,
      36.46135
     ],
     [
      129.432627,
      36.446343
     ],
     [
      129.432601,
      36.446208
     ],
     [
      129.432533,
      36.441207
     ],
     [
      129.432369,
      36.440885
     ],
     [
      129.432585,
      36.437005
     ],
     [
      129.43324,
      36.435525
     ],
     [
      129.434127,
      36.428562
     ],
     [
      129.434768,
      36.427866
     ],
     [
      129.429643,
      36.411913
     ],
     [
      129.429615,
      36.410787
     ],
     [
      129.429328,
      36.40999
     ],
     [
      129.428016,
      36.408352
     ],
     [
      129.416502,
      36.397207
     ],
     [
      129.408605,
      36.390258
     ],
     [
      129.40755,
      36.389518
     ],
     [
      129.406985,
      36.389184
     ],
     [
      129.403357,
      36.37847
     ],
     [
      129.394116,
      36.36561
     ],
     [
      129.385614,
      36.359228
     ],
     [
      129.384764,
      36.358646
     ],
     [
      129.384156,
      36.358367
     ],
     [
      129.383634,
      36.358439
     ],
     [
      129.382483,
      36.358781
     ],
     [
      129.382133,
      36.359508
     ],
     [
      129.382157,
      36.360499
     ],
     [
      129.382358,
      36.361902
     ],
     [
      129.38404,
      36.365103
     ],
     [
      129.384579,
      36.366681
     ],
     [
      129.385056,
      36.372099
     ],
     [
      129.384729,
      36.373817
     ],
     [
      129.384639,
      36.374242
     ],
     [
      129.384097,
      36.37718
     ],
     [
      129.383704,
      36.378917
     ],
     [
      129.382159,
      36.385107
     ],
     [
      129.381805,
      36.386131
     ],
     [
      129.38137,
      36.387067
     ],
     [
      129.381338,
      36.387139
     ],
     [
      129.38054,
      36.389153
     ],
     [
      129.379846,
      36.390903
     ],
     [
      129.377639,
      36.395085
     ],
     [
      129.377479,
      36.395394
     ],
     [
      129.377301,
      36.395883
     ],
     [
      129.3767,
      36.402878
     ],
     [
      129.374985,
      36.404348
     ],
     [
      129.374864,
      36.404422
     ],
     [
      129.374643,
      36.404515
     ],
     [
      129.374598,
      36.404507
     ],
     [
      129.374444,
      36.404572
     ],
     [
      129.374433,
      36.404609
     ],
     [
      129.374238,
      36.404846
     ],
     [
      129.374106,
      36.40492
     ],
     [
      129.372633,
      36.4058
     ],
     [
      129.372389,
      36.405858
     ],
     [
      129.371904,
      36.406072
     ],
     [
      129.370916,
      36.408567
     ],
     [
      129.371004,
      36.409007
     ],
     [
      129.371427,
      36.410362
     ],
     [
      129.371563,
      36.411396
     ],
     [
      129.37282,
      36.411268
     ],
     [
      129.374488,
      36.411963
     ],
     [
      129.376461,
      36.413347
     ],
     [
      129.377128,
      36.413697
     ],
     [
      129.3773,
      36.413911
     ],
     [
      129.377623,
      36.414339
     ],
     [
      129.377752,
      36.415076
     ],
     [
      129.377341,
      36.417471
     ],
     [
      129.390199,
      36.439965
     ],
     [
      129.391298,
      36.441579
     ]
    ]
   },
   "properties": {
    "leg": "ingress",
    "vehicle": 4,
    "seq": 10,
    "drive_node": 2828251735,
    "n_buildings": 5,
    "eta_min": 683.17,
    "abort_min": -12.0,
    "aborted_by_rule": true,
    "closing_min": 0.0
   }
  },
  {
   "type": "Feature",
   "geometry": {
    "type": "LineString",
    "coordinates": [
     [
      129.391298,
      36.441579
     ],
     [
      129.390199,
      36.439965
     ],
     [
      129.377341,
      36.417471
     ],
     [
      129.377752,
      36.415076
     ],
     [
      129.377623,
      36.414339
     ],
     [
      129.3773,
      36.413911
     ],
     [
      129.377128,
      36.413697
     ],
     [
      129.376818,
      36.413351
     ]
    ]
   },
   "properties": {
    "leg": "egress",
    "vehicle": 4,
    "seq": 10,
    "drive_node": 2828251735,
    "n_buildings": 5,
    "eta_min": 683.17,
    "abort_min": -12.0,
    "aborted_by_rule": true,
    "closing_min": 0.0
   }
  },
  {
   "type": "Feature",
   "geometry": {
    "type": "Point",
    "coordinates": [
     129.391303,
     36.441581
    ]
   },
   "properties": {
    "kind": "pickup",
    "vehicle": 4,
    "seq": 10,
    "drive_node": 2828251735,
    "n_buildings": 5,
    "eta_min": 683.17,
    "abort_min": -12.0
   }
  }
 ]
}
